{
  "type": "FeatureCollection",
  "features": [
    {
      "type": "Feature",
      "properties": {
        "lake": "Bass Lake",
        "depth_ft": 3.0,
        "color": "#a5d7f5",
        "weight": 1,
        "fill_opacity": 0.5,
        "line_opacity": 0.8
      },
      "geometry": {
        "type": "Polygon",
        "coordinates": [
          [
            [
              -94.1102436,
              45.25437
            ],
            [
              -94.1104797,
              45.2547742
            ],
            [
              -94.1107612,
              45.2551624
            ],
            [
              -94.1110854,
              45.2555307
            ],
            [
              -94.1114493,
              45.2558756
            ],
            [
              -94.1118493,
              45.2561938
            ],
            [
              -94.1122816,
              45.2564821
            ],
            [
              -94.112742,
              45.2567379
            ],
            [
              -94.113226,
              45.2569587
            ],
            [
              -94.1137291,
              45.2571423
            ],
            [
              -94.1142463,
              45.2572869
            ],
            [
              -94.1147727,
              45.2573913
            ],
            [
              -94.1153033,
              45.2574543
            ],
            [
              -94.1158328,
              45.2574754
            ],
            [
              -94.1163562,
              45.2574543
            ],
            [
              -94.1168685,
              45.2573913
            ],
            [
              -94.1173648,
              45.257287
            ],
            [
              -94.1178402,
              45.2571424
            ],
            [
              -94.1182901,
              45.2569588
            ],
            [
              -94.1187103,
              45.2567381
            ],
            [
              -94.1190967,
              45.2564823
            ],
            [
              -94.1194456,
              45.256194
            ],
            [
              -94.1197536,
              45.2558758
            ],
            [
              -94.1200177,
              45.255531
            ],
            [
              -94.1202354,
              45.2551627
            ],
            [
              -94.1204047,
              45.2547745
            ],
            [
              -94.1205238,
              45.2543703
            ],
            [
              -94.1205916,
              45.2539537
            ],
            [
              -94.1206075,
              45.253529
            ],
            [
              -94.1205714,
              45.2531002
            ],
            [
              -94.1204835,
              45.2526713
            ],
            [
              -94.1203447,
              45.2522466
            ],
            [
              -94.1201564,
              45.25183
            ],
            [
              -94.1199203,
              45.2514258
            ],
            [
              -94.1196388,
              45.2510376
            ],
            [
              -94.1193146,
              45.2506693
            ],
            [
              -94.1189507,
              45.2503244
            ],
            [
              -94.1185507,
              45.2500062
            ],
            [
              -94.1181184,
              45.2497179
            ],
            [
              -94.117658,
              45.2494621
            ],
            [
              -94.117174,
              45.2492413
            ],
            [
              -94.1166709,
              45.2490577
            ],
            [
              -94.1161537,
              45.2489131
            ],
            [
              -94.1156273,
              45.2488087
            ],
            [
              -94.1150967,
              45.2487457
            ],
            [
              -94.1145672,
              45.2487246
            ],
            [
              -94.1140438,
              45.2487457
            ],
            [
              -94.1135315,
              45.2488087
            ],
            [
              -94.1130352,
              45.248913
            ],
            [
              -94.1125598,
              45.2490576
            ],
            [
              -94.1121099,
              45.2492412
            ],
            [
              -94.1116897,
              45.2494619
            ],
            [
              -94.1113033,
              45.2497177
            ],
            [
              -94.1109544,
              45.250006
            ],
            [
              -94.1106464,
              45.2503242
            ],
            [
              -94.1103823,
              45.250669
            ],
            [
              -94.1101646,
              45.2510373
            ],
            [
              -94.1099953,
              45.2514255
            ],
            [
              -94.1098762,
              45.2518297
            ],
            [
              -94.1098084,
              45.2522463
            ],
            [
              -94.1097925,
              45.252671
            ],
            [
              -94.1098286,
              45.2530998
            ],
            [
              -94.1099165,
              45.2535287
            ],
            [
              -94.1100553,
              45.2539534
            ],
            [
              -94.1102436,
              45.25437
            ]
          ]
        ]
      }
    },
    {
      "type": "Feature",
      "properties": {
        "lake": "Bass Lake",
        "depth_ft": 6.0,
        "color": "#84c6f2",
        "weight": 1,
        "fill_opacity": 0.5,
        "line_opacity": 0.8
      },
      "geometry": {
        "type": "Polygon",
        "coordinates": [
          [
            [
              -94.1107884,
              45.2542304
            ],
            [
              -94.1109985,
              45.2545902
            ],
            [
              -94.1112491,
              45.2549357
            ],
            [
              -94.1115377,
              45.2552635
            ],
            [
              -94.1118616,
              45.2555705
            ],
            [
              -94.1122176,
              45.2558537
            ],
            [
              -94.1126024,
              45.2561103
            ],
            [
              -94.1130122,
              45.256338
            ],
            [
              -94.113443,
              45.2565345
            ],
            [
              -94.1138908,
              45.2566979
            ],
            [
              -94.1143512,
              45.2568267
            ],
            [
              -94.1148197,
              45.2569196
            ],
            [
              -94.1152919,
              45.2569757
            ],
            [
              -94.1157632,
              45.2569944
            ],
            [
              -94.1162291,
              45.2569757
            ],
            [
              -94.1166851,
              45.2569196
            ],
            [
              -94.1171268,
              45.2568268
            ],
            [
              -94.1175499,
              45.256698
            ],
            [
              -94.1179504,
              45.2565346
            ],
            [
              -94.1183245,
              45.2563382
            ],
            [
              -94.1186684,
              45.2561105
            ],
            [
              -94.1189789,
              45.2558539
            ],
            [
              -94.119253,
              45.2555707
            ],
            [
              -94.1194881,
              45.2552637
            ],
            [
              -94.1196819,
              45.2549359
            ],
            [
              -94.1198325,
              45.2545905
            ],
            [
              -94.1199386,
              45.2542306
            ],
            [
              -94.119999,
              45.2538599
            ],
            [
              -94.1200131,
              45.2534819
            ],
            [
              -94.1199809,
              45.2531001
            ],
            [
              -94.1199027,
              45.2527184
            ],
            [
              -94.1197792,
              45.2523404
            ],
            [
              -94.1196116,
              45.2519696
            ],
            [
              -94.1194015,
              45.2516098
            ],
            [
              -94.1191509,
              45.2512643
            ],
            [
              -94.1188623,
              45.2509365
            ],
            [
              -94.1185384,
              45.2506295
            ],
            [
              -94.1181824,
              45.2503463
            ],
            [
              -94.1177976,
              45.2500897
            ],
            [
              -94.1173878,
              45.249862
            ],
            [
              -94.116957,
              45.2496655
            ],
            [
              -94.1165092,
              45.2495021
            ],
            [
              -94.1160488,
              45.2493733
            ],
            [
              -94.1155803,
              45.2492804
            ],
            [
              -94.1151081,
              45.2492243
            ],
            [
              -94.1146368,
              45.2492056
            ],
            [
              -94.1141709,
              45.2492243
            ],
            [
              -94.1137149,
              45.2492804
            ],
            [
              -94.1132732,
              45.2493732
            ],
            [
              -94.1128501,
              45.249502
            ],
            [
              -94.1124496,
              45.2496654
            ],
            [
              -94.1120755,
              45.2498618
            ],
            [
              -94.1117316,
              45.2500895
            ],
            [
              -94.1114211,
              45.2503461
            ],
            [
              -94.111147,
              45.2506293
            ],
            [
              -94.1109119,
              45.2509363
            ],
            [
              -94.1107181,
              45.2512641
            ],
            [
              -94.1105675,
              45.2516095
            ],
            [
              -94.1104614,
              45.2519694
            ],
            [
              -94.110401,
              45.2523401
            ],
            [
              -94.1103869,
              45.2527181
            ],
            [
              -94.1104191,
              45.2530999
            ],
            [
              -94.1104973,
              45.2534816
            ],
            [
              -94.1106208,
              45.2538596
            ],
            [
              -94.1107884,
              45.2542304
            ]
          ]
        ]
      }
    },
    {
      "type": "Feature",
      "properties": {
        "lake": "Bass Lake",
        "depth_ft": 9.0,
        "color": "#68b6ed",
        "weight": 1,
        "fill_opacity": 0.5,
        "line_opacity": 0.8
      },
      "geometry": {
        "type": "Polygon",
        "coordinates": [
          [
            [
              -94.1112846,
              45.2541032
            ],
            [
              -94.1114711,
              45.2544226
            ],
            [
              -94.1116935,
              45.2547292
            ],
            [
              -94.1119496,
              45.2550202
            ],
            [
              -94.1122371,
              45.2552926
            ],
            [
              -94.1125531,
              45.255544
            ],
            [
              -94.1128945,
              45.2557718
            ],
            [
              -94.1132582,
              45.2559738
            ],
            [
              -94.1136406,
              45.2561482
            ],
            [
              -94.114038,
              45.2562933
            ],
            [
              -94.1144466,
              45.2564076
            ],
            [
              -94.1148625,
              45.25649
            ],
            [
              -94.1152816,
              45.2565398
            ],
            [
              -94.1156999,
              45.2565564
            ],
            [
              -94.1161134,
              45.2565398
            ],
            [
              -94.1165181,
              45.25649
            ],
            [
              -94.1169101,
              45.2564076
            ],
            [
              -94.1172856,
              45.2562934
            ],
            [
              -94.1176411,
              45.2561483
            ],
            [
              -94.1179731,
              45.255974
            ],
            [
              -94.1182783,
              45.2557719
            ],
            [
              -94.1185539,
              45.2555441
            ],
            [
              -94.1187972,
              45.2552928
            ],
            [
              -94.1190058,
              45.2550204
            ],
            [
              -94.1191778,
              45.2547295
            ],
            [
              -94.1193115,
              45.2544228
            ],
            [
              -94.1194056,
              45.2541035
            ],
            [
              -94.1194592,
              45.2537744
            ],
            [
              -94.1194718,
              45.2534389
            ],
            [
              -94.1194432,
              45.2531001
            ],
            [
              -94.1193738,
              45.2527613
            ],
            [
              -94.1192642,
              45.2524258
            ],
            [
              -94.1191154,
              45.2520968
            ],
            [
              -94.1189289,
              45.2517774
            ],
            [
              -94.1187065,
              45.2514708
            ],
            [
              -94.1184504,
              45.2511798
            ],
            [
              -94.1181629,
              45.2509074
            ],
            [
              -94.1178469,
              45.250656
            ],
            [
              -94.1175055,
              45.2504282
            ],
            [
              -94.1171418,
              45.2502262
            ],
            [
              -94.1167594,
              45.2500518
            ],
            [
              -94.116362,
              45.2499067
            ],
            [
              -94.1159534,
              45.2497924
            ],
            [
              -94.1155375,
              45.24971
            ],
            [
              -94.1151184,
              45.2496602
            ],
            [
              -94.1147001,
              45.2496436
            ],
            [
              -94.1142866,
              45.2496602
            ],
            [
              -94.1138819,
              45.24971
            ],
            [
              -94.1134899,
              45.2497924
            ],
            [
              -94.1131144,
              45.2499066
            ],
            [
              -94.1127589,
              45.2500517
            ],
            [
              -94.1124269,
              45.250226
            ],
            [
              -94.1121217,
              45.2504281
            ],
            [
              -94.1118461,
              45.2506559
            ],
            [
              -94.1116028,
              45.2509072
            ],
            [
              -94.1113942,
              45.2511796
            ],
            [
              -94.1112222,
              45.2514705
            ],
            [
              -94.1110885,
              45.2517772
            ],
            [
              -94.1109944,
              45.2520965
            ],
            [
              -94.1109408,
              45.2524256
            ],
            [
              -94.1109282,
              45.2527611
            ],
            [
              -94.1109568,
              45.2530999
            ],
            [
              -94.1110262,
              45.2534387
            ],
            [
              -94.1111358,
              45.2537742
            ],
            [
              -94.1112846,
              45.2541032
            ]
          ]
        ]
      }
    },
    {
      "type": "Feature",
      "properties": {
        "lake": "Bass Lake",
        "depth_ft": 12.0,
        "color": "#52a6e7",
        "weight": 1,
        "fill_opacity": 0.5,
        "line_opacity": 0.8
      },
      "geometry": {
        "type": "Polygon",
        "coordinates": [
          [
            [
              -94.1117757,
              45.2539774
            ],
            [
              -94.1119388,
              45.2542567
            ],
            [
              -94.1121333,
              45.2545249
            ],
            [
              -94.1123573,
              45.2547793
            ],
            [
              -94.1126087,
              45.2550176
            ],
            [
              -94.1128851,
              45.2552374
            ],
            [
              -94.1131837,
              45.2554367
            ],
            [
              -94.1135018,
              45.2556134
            ],
            [
              -94.1138362,
              45.2557659
            ],
            [
              -94.1141838,
              45.2558927
            ],
            [
              -94.1145411,
              45.2559927
            ],
            [
              -94.1149048,
              45.2560648
            ],
            [
              -94.1152713,
              45.2561083
            ],
            [
              -94.1156372,
              45.2561229
            ],
            [
              -94.1159988,
              45.2561083
            ],
            [
              -94.1163528,
              45.2560648
            ],
            [
              -94.1166956,
              45.2559927
            ],
            [
              -94.117024,
              45.2558928
            ],
            [
              -94.1173349,
              45.255766
            ],
            [
              -94.1176252,
              45.2556135
            ],
            [
              -94.1178922,
              45.2554368
            ],
            [
              -94.1181332,
              45.2552376
            ],
            [
              -94.118346,
              45.2550178
            ],
            [
              -94.1185285,
              45.2547795
            ],
            [
              -94.1186789,
              45.2545251
            ],
            [
              -94.1187958,
              45.2542569
            ],
            [
              -94.1188781,
              45.2539776
            ],
            [
              -94.118925,
              45.2536898
            ],
            [
              -94.118936,
              45.2533964
            ],
            [
              -94.118911,
              45.2531001
            ],
            [
              -94.1188503,
              45.2528038
            ],
            [
              -94.1187544,
              45.2525104
            ],
            [
              -94.1186243,
              45.2522226
            ],
            [
              -94.1184612,
              45.2519433
            ],
            [
              -94.1182667,
              45.2516751
            ],
            [
              -94.1180427,
              45.2514207
            ],
            [
              -94.1177913,
              45.2511824
            ],
            [
              -94.1175149,
              45.2509626
            ],
            [
              -94.1172163,
              45.2507633
            ],
            [
              -94.1168982,
              45.2505866
            ],
            [
              -94.1165638,
              45.2504341
            ],
            [
              -94.1162162,
              45.2503073
            ],
            [
              -94.1158589,
              45.2502073
            ],
            [
              -94.1154952,
              45.2501352
            ],
            [
              -94.1151287,
              45.2500917
            ],
            [
              -94.1147628,
              45.2500771
            ],
            [
              -94.1144012,
              45.2500917
            ],
            [
              -94.1140472,
              45.2501352
            ],
            [
              -94.1137044,
              45.2502073
            ],
            [
              -94.113376,
              45.2503072
            ],
            [
              -94.1130651,
              45.250434
            ],
            [
              -94.1127748,
              45.2505865
            ],
            [
              -94.1125078,
              45.2507632
            ],
            [
              -94.1122668,
              45.2509624
            ],
            [
              -94.112054,
              45.2511822
            ],
            [
              -94.1118715,
              45.2514205
            ],
            [
              -94.1117211,
              45.2516749
            ],
            [
              -94.1116042,
              45.2519431
            ],
            [
              -94.1115219,
              45.2522224
            ],
            [
              -94.111475,
              45.2525102
            ],
            [
              -94.111464,
              45.2528036
            ],
            [
              -94.111489,
              45.2530999
            ],
            [
              -94.1115497,
              45.2533962
            ],
            [
              -94.1116456,
              45.2536896
            ],
            [
              -94.1117757,
              45.2539774
            ]
          ]
        ]
      }
    },
    {
      "type": "Feature",
      "properties": {
        "lake": "Bass Lake",
        "depth_ft": 15.0,
        "color": "#3f93da",
        "weight": 1,
        "fill_opacity": 0.5,
        "line_opacity": 0.8
      },
      "geometry": {
        "type": "Polygon",
        "coordinates": [
          [
            [
              -94.1122899,
              45.2538456
            ],
            [
              -94.1124285,
              45.254083
            ],
            [
              -94.1125938,
              45.2543109
            ],
            [
              -94.1127842,
              45.2545271
            ],
            [
              -94.1129978,
              45.2547296
            ],
            [
              -94.1132327,
              45.2549164
            ],
            [
              -94.1134865,
              45.2550858
            ],
            [
              -94.1137568,
              45.2552359
            ],
            [
              -94.114041,
              45.2553655
            ],
            [
              -94.1143364,
              45.2554733
            ],
            [
              -94.1146401,
              45.2555583
            ],
            [
              -94.1149491,
              45.2556195
            ],
            [
              -94.1152606,
              45.2556565
            ],
            [
              -94.1155715,
              45.2556689
            ],
            [
              -94.1158789,
              45.2556566
            ],
            [
              -94.1161797,
              45.2556196
            ],
            [
              -94.116471,
              45.2555583
            ],
            [
              -94.1167501,
              45.2554734
            ],
            [
              -94.1170143,
              45.2553656
            ],
            [
              -94.117261,
              45.255236
            ],
            [
              -94.1174879,
              45.2550859
            ],
            [
              -94.1176927,
              45.2549166
            ],
            [
              -94.1178736,
              45.2547298
            ],
            [
              -94.1180286,
              45.2545273
            ],
            [
              -94.1181565,
              45.2543111
            ],
            [
              -94.1182558,
              45.2540832
            ],
            [
              -94.1183258,
              45.2538458
            ],
            [
              -94.1183656,
              45.2536013
            ],
            [
              -94.1183749,
              45.2533519
            ],
            [
              -94.1183537,
              45.2531001
            ],
            [
              -94.1183021,
              45.2528483
            ],
            [
              -94.1182206,
              45.2525989
            ],
            [
              -94.1181101,
              45.2523544
            ],
            [
              -94.1179715,
              45.252117
            ],
            [
              -94.1178062,
              45.2518891
            ],
            [
              -94.1176158,
              45.2516729
            ],
            [
              -94.1174022,
              45.2514704
            ],
            [
              -94.1171673,
              45.2512836
            ],
            [
              -94.1169135,
              45.2511142
            ],
            [
              -94.1166432,
              45.2509641
            ],
            [
              -94.116359,
              45.2508345
            ],
            [
              -94.1160636,
              45.2507267
            ],
            [
              -94.1157599,
              45.2506417
            ],
            [
              -94.1154509,
              45.2505805
            ],
            [
              -94.1151394,
              45.2505435
            ],
            [
              -94.1148285,
              45.2505311
            ],
            [
              -94.1145211,
              45.2505434
            ],
            [
              -94.1142203,
              45.2505804
            ],
            [
              -94.113929,
              45.2506417
            ],
            [
              -94.1136499,
              45.2507266
            ],
            [
              -94.1133857,
              45.2508344
            ],
            [
              -94.113139,
              45.250964
            ],
            [
              -94.1129121,
              45.2511141
            ],
            [
              -94.1127073,
              45.2512834
            ],
            [
              -94.1125264,
              45.2514702
            ],
            [
              -94.1123714,
              45.2516727
            ],
            [
              -94.1122435,
              45.2518889
            ],
            [
              -94.1121442,
              45.2521168
            ],
            [
              -94.1120742,
              45.2523542
            ],
            [
              -94.1120344,
              45.2525987
            ],
            [
              -94.1120251,
              45.2528481
            ],
            [
              -94.1120463,
              45.2530999
            ],
            [
              -94.1120979,
              45.2533517
            ],
            [
              -94.1121794,
              45.2536011
            ],
            [
              -94.1122899,
              45.2538456
            ]
          ]
        ]
      }
    },
    {
      "type": "Feature",
      "properties": {
        "lake": "Bass Lake",
        "depth_ft": 18.0,
        "color": "#3077bc",
        "weight": 1,
        "fill_opacity": 0.5,
        "line_opacity": 0.8
      },
      "geometry": {
        "type": "Polygon",
        "coordinates": [
          [
            [
              -94.1128626,
              45.2536989
            ],
            [
              -94.1129739,
              45.2538896
            ],
            [
              -94.1131067,
              45.2540726
            ],
            [
              -94.1132596,
              45.2542463
            ],
            [
              -94.1134312,
              45.254409
            ],
            [
              -94.1136198,
              45.254559
            ],
            [
              -94.1138237,
              45.254695
            ],
            [
              -94.1140408,
              45.2548156
            ],
            [
              -94.1142691,
              45.2549197
            ],
            [
              -94.1145063,
              45.2550063
            ],
            [
              -94.1147502,
              45.2550745
            ],
            [
              -94.1149985,
              45.2551237
            ],
            [
              -94.1152487,
              45.2551535
            ],
            [
              -94.1154984,
              45.2551634
            ],
            [
              -94.1157453,
              45.2551535
            ],
            [
              -94.1159869,
              45.2551238
            ],
            [
              -94.1162209,
              45.2550746
            ],
            [
              -94.1164451,
              45.2550064
            ],
            [
              -94.1166573,
              45.2549198
            ],
            [
              -94.1168555,
              45.2548157
            ],
            [
              -94.1170377,
              45.2546951
            ],
            [
              -94.1172022,
              45.2545591
            ],
            [
              -94.1173474,
              45.2544091
            ],
            [
              -94.117472,
              45.2542464
            ],
            [
              -94.1175747,
              45.2540727
            ],
            [
              -94.1176545,
              45.2538897
            ],
            [
              -94.1177107,
              45.253699
            ],
            [
              -94.1177427,
              45.2535026
            ],
            [
              -94.1177502,
              45.2533023
            ],
            [
              -94.1177331,
              45.2531001
            ],
            [
              -94.1176917,
              45.2528978
            ],
            [
              -94.1176262,
              45.2526975
            ],
            [
              -94.1175374,
              45.2525011
            ],
            [
              -94.1174261,
              45.2523104
            ],
            [
              -94.1172933,
              45.2521274
            ],
            [
              -94.1171404,
              45.2519537
            ],
            [
              -94.1169688,
              45.251791
            ],
            [
              -94.1167802,
              45.251641
            ],
            [
              -94.1165763,
              45.251505
            ],
            [
              -94.1163592,
              45.2513844
            ],
            [
              -94.1161309,
              45.2512803
            ],
            [
              -94.1158937,
              45.2511937
            ],
            [
              -94.1156498,
              45.2511255
            ],
            [
              -94.1154015,
              45.2510763
            ],
            [
              -94.1151513,
              45.2510465
            ],
            [
              -94.1149016,
              45.2510366
            ],
            [
              -94.1146547,
              45.2510465
            ],
            [
              -94.1144131,
              45.2510762
            ],
            [
              -94.1141791,
              45.2511254
            ],
            [
              -94.1139549,
              45.2511936
            ],
            [
              -94.1137427,
              45.2512802
            ],
            [
              -94.1135445,
              45.2513843
            ],
            [
              -94.1133623,
              45.2515049
            ],
            [
              -94.1131978,
              45.2516409
            ],
            [
              -94.1130526,
              45.2517909
            ],
            [
              -94.112928,
              45.2519536
            ],
            [
              -94.1128253,
              45.2521273
            ],
            [
              -94.1127455,
              45.2523103
            ],
            [
              -94.1126893,
              45.252501
            ],
            [
              -94.1126573,
              45.2526974
            ],
            [
              -94.1126498,
              45.2528977
            ],
            [
              -94.1126669,
              45.2530999
            ],
            [
              -94.1127083,
              45.2533022
            ],
            [
              -94.1127738,
              45.2535025
            ],
            [
              -94.1128626,
              45.2536989
            ]
          ]
        ]
      }
    },
    {
      "type": "Feature",
      "properties": {
        "lake": "Bass Lake",
        "depth_ft": 21.0,
        "color": "#245790",
        "weight": 1,
        "fill_opacity": 0.5,
        "line_opacity": 0.8
      },
      "geometry": {
        "type": "Polygon",
        "coordinates": [
          [
            [
              -94.1135711,
              45.2535174
            ],
            [
              -94.1136487,
              45.2536502
            ],
            [
              -94.1137412,
              45.2537778
            ],
            [
              -94.1138477,
              45.2538989
            ],
            [
              -94.1139673,
              45.2540122
            ],
            [
              -94.1140988,
              45.2541168
            ],
            [
              -94.1142409,
              45.2542115
            ],
            [
              -94.1143922,
              45.2542956
            ],
            [
              -94.1145513,
              45.2543682
            ],
            [
              -94.1147166,
              45.2544285
            ],
            [
              -94.1148866,
              45.254476
            ],
            [
              -94.1150596,
              45.2545103
            ],
            [
              -94.1152339,
              45.254531
            ],
            [
              -94.115408,
              45.254538
            ],
            [
              -94.11558,
              45.2545311
            ],
            [
              -94.1157484,
              45.2545104
            ],
            [
              -94.1159115,
              45.2544761
            ],
            [
              -94.1160677,
              45.2544285
            ],
            [
              -94.1162156,
              45.2543682
            ],
            [
              -94.1163537,
              45.2542957
            ],
            [
              -94.1164807,
              45.2542116
            ],
            [
              -94.1165953,
              45.2541168
            ],
            [
              -94.1166965,
              45.2540123
            ],
            [
              -94.1167833,
              45.2538989
            ],
            [
              -94.1168549,
              45.2537779
            ],
            [
              -94.1169105,
              45.2536503
            ],
            [
              -94.1169497,
              45.2535175
            ],
            [
              -94.116972,
              45.2533806
            ],
            [
              -94.1169772,
              45.253241
            ],
            [
              -94.1169653,
              45.2531001
            ],
            [
              -94.1169364,
              45.2529591
            ],
            [
              -94.1168908,
              45.2528195
            ],
            [
              -94.1168289,
              45.2526826
            ],
            [
              -94.1167513,
              45.2525498
            ],
            [
              -94.1166588,
              45.2524222
            ],
            [
              -94.1165523,
              45.2523011
            ],
            [
              -94.1164327,
              45.2521878
            ],
            [
              -94.1163012,
              45.2520832
            ],
            [
              -94.1161591,
              45.2519885
            ],
            [
              -94.1160078,
              45.2519044
            ],
            [
              -94.1158487,
              45.2518318
            ],
            [
              -94.1156834,
              45.2517715
            ],
            [
              -94.1155134,
              45.251724
            ],
            [
              -94.1153404,
              45.2516897
            ],
            [
              -94.1151661,
              45.251669
            ],
            [
              -94.114992,
              45.251662
            ],
            [
              -94.11482,
              45.2516689
            ],
            [
              -94.1146516,
              45.2516896
            ],
            [
              -94.1144885,
              45.2517239
            ],
            [
              -94.1143323,
              45.2517715
            ],
            [
              -94.1141844,
              45.2518318
            ],
            [
              -94.1140463,
              45.2519043
            ],
            [
              -94.1139193,
              45.2519884
            ],
            [
              -94.1138047,
              45.2520832
            ],
            [
              -94.1137035,
              45.2521877
            ],
            [
              -94.1136167,
              45.2523011
            ],
            [
              -94.1135451,
              45.2524221
            ],
            [
              -94.1134895,
              45.2525497
            ],
            [
              -94.1134503,
              45.2526825
            ],
            [
              -94.113428,
              45.2528194
            ],
            [
              -94.1134228,
              45.252959
            ],
            [
              -94.1134347,
              45.2530999
            ],
            [
              -94.1134636,
              45.2532409
            ],
            [
              -94.1135092,
              45.2533805
            ],
            [
              -94.1135711,
              45.2535174
            ]
          ]
        ]
      }
    }
  ]
}