{"type": "FeatureCollection", "features": [{"type": "Feature", "properties": {"depth_ft": 0.0, "lake": "Bass Lake", "dow": "86023400"}, "geometry": {"type": "Polygon", "coordinates": [[[-94.104517, 45.326059], [-94.103596, 45.326545], [-94.102927, 45.326834], [-94.102109, 45.326984], [-94.101088, 45.327032], [-94.099883, 45.326992], [-94.09884, 45.326848], [-94.097867, 45.326561], [-94.097094, 45.326221], [-94.096554, 45.32566], [-94.096213, 45.325007], [-94.096121, 45.324004], [-94.096266, 45.322986], [-94.096716, 45.32172], [-94.097102, 45.320931], [-94.097418, 45.32031], [-94.098037, 45.319287], [-94.098636, 45.318162], [-94.099007, 45.31754], [-94.099798, 45.316941], [-94.100776, 45.316571], [-94.101848, 45.316368], [-94.103033, 45.316343], [-94.104459, 45.316497], [-94.105414, 45.316822], [-94.106133, 45.317188], [-94.106728, 45.317762], [-94.10699, 45.318081], [-94.10722, 45.318671], [-94.107045, 45.319046], [-94.106541, 45.319398], [-94.105956, 45.31934], [-94.105502, 45.319434], [-94.105116, 45.319283], [-94.104839, 45.319132], [-94.104601, 45.319095], [-94.104348, 45.319239], [-94.104426, 45.319496], [-94.104545, 45.319984], [-94.104934, 45.320251], [-94.105394, 45.320478], [-94.105983, 45.320755], [-94.106516, 45.32093], [-94.107045, 45.320951], [-94.107901, 45.320865], [-94.108268, 45.320978], [-94.108585, 45.321322], [-94.108926, 45.321975], [-94.109159, 45.322668], [-94.109063, 45.323364], [-94.108824, 45.324229], [-94.108289, 45.324826], [-94.107801, 45.325101], [-94.107421, 45.32522], [-94.106656, 45.325331], [-94.10573, 45.325533], [-94.104824, 45.325889], [-94.104517, 45.326059]]]}}, {"type": "Feature", "properties": {"depth_ft": 25.0, "lake": "Bass Lake", "dow": "86023400"}, "geometry": {"type": "Polygon", "coordinates": [[[-94.102068, 45.322587], [-94.101682, 45.322516], [-94.101392, 45.322424], [-94.101227, 45.322317], [-94.101225, 45.322202], [-94.101434, 45.322085], [-94.101625, 45.322042], [-94.101712, 45.322041], [-94.101799, 45.322068], [-94.101936, 45.322209], [-94.10213, 45.322288], [-94.10269, 45.322432], [-94.102952, 45.322552], [-94.10305, 45.322652], [-94.103091, 45.322801], [-94.103064, 45.322916], [-94.102911, 45.322959], [-94.102738, 45.322954], [-94.102602, 45.32284], [-94.102445, 45.322706], [-94.1023, 45.322659], [-94.102068, 45.322587]]]}}, {"type": "Feature", "properties": {"depth_ft": 25.0, "lake": "Bass Lake", "dow": "86023400"}, "geometry": {"type": "Polygon", "coordinates": [[[-94.103279, 45.321586], [-94.102669, 45.321856], [-94.102374, 45.322015], [-94.102308, 45.32209], [-94.10232, 45.322192], [-94.102553, 45.322291], [-94.103121, 45.322353], [-94.103708, 45.322395], [-94.104035, 45.322419], [-94.104402, 45.322531], [-94.104689, 45.322718], [-94.104867, 45.322953], [-94.104978, 45.323257], [-94.104965, 45.323576], [-94.104773, 45.324032], [-94.104471, 45.32436], [-94.104206, 45.324553], [-94.103005, 45.325297], [-94.101941, 45.325958], [-94.101227, 45.326283], [-94.100816, 45.326416], [-94.100534, 45.326466], [-94.100189, 45.326503], [-94.099881, 45.326486], [-94.099436, 45.326361], [-94.098808, 45.326171], [-94.098324, 45.32602], [-94.097908, 45.325834], [-94.097645, 45.32568], [-94.097575, 45.325552], [-94.09763, 45.325409], [-94.09778, 45.325218], [-94.097804, 45.324947], [-94.097827, 45.324655], [-94.097896, 45.324464], [-94.098, 45.324375], [-94.09819, 45.324279], [-94.098304, 45.32421], [-94.098539, 45.323923], [-94.09865, 45.323745], [-94.098944, 45.323519], [-94.099161, 45.3233], [-94.099225, 45.323157], [-94.099175, 45.323035], [-94.098989, 45.322847], [-94.098971, 45.322658], [-94.099081, 45.322413], [-94.099429, 45.322036], [-94.099798, 45.321714], [-94.099948, 45.321537], [-94.099856, 45.321259], [-94.099757, 45.321098], [-94.099793, 45.320969], [-94.099925, 45.320852], [-94.100215, 45.320673], [-94.100501, 45.320535], [-94.100557, 45.320446], [-94.100535, 45.320338], [-94.100021, 45.320078], [-94.099874, 45.319958], [-94.099853, 45.319829], [-94.099927, 45.3197], [-94.099954, 45.319611], [-94.099903, 45.319449], [-94.099538, 45.318964], [-94.099393, 45.318668], [-94.099378, 45.31839], [-94.099517, 45.31811], [-94.099976, 45.317496], [-94.100259, 45.317222], [-94.100506, 45.317084], [-94.101293, 45.316785], [-94.101542, 45.316749], [-94.101705, 45.316754], [-94.101968, 45.316914], [-94.102165, 45.31719], [-94.102367, 45.317656], [-94.102424, 45.318137], [-94.102466, 45.318326], [-94.102742, 45.318676], [-94.102827, 45.318831], [-94.102879, 45.319041], [-94.102977, 45.319135], [-94.103182, 45.319309], [-94.103301, 45.319491], [-94.103302, 45.319572], [-94.103031, 45.319934], [-94.102937, 45.320071], [-94.10296, 45.32026], [-94.103101, 45.320591], [-94.103186, 45.320746], [-94.103227, 45.320915], [-94.103182, 45.321038], [-94.103195, 45.321234], [-94.103235, 45.321335], [-94.103324, 45.321416], [-94.103364, 45.321517], [-94.103279, 45.321586]]]}}, {"type": "Feature", "properties": {"depth_ft": 20.0, "lake": "Bass Lake", "dow": "86023400"}, "geometry": {"type": "Polygon", "coordinates": [[[-94.103402, 45.321998], [-94.103357, 45.322161], [-94.103446, 45.322255], [-94.103601, 45.322322], [-94.104072, 45.322358], [-94.104543, 45.322353], [-94.104849, 45.322296], [-94.105493, 45.322276], [-94.105844, 45.322327], [-94.106212, 45.322459], [-94.106676, 45.322604], [-94.107083, 45.322756], [-94.107307, 45.322903], [-94.10729, 45.323038], [-94.107075, 45.323325], [-94.106715, 45.323627], [-94.106306, 45.323814], [-94.105646, 45.324003], [-94.105284, 45.324136], [-94.105141, 45.324191], [-94.104652, 45.324501], [-94.104233, 45.324722], [-94.104083, 45.32492], [-94.103621, 45.325372], [-94.103232, 45.325626], [-94.103003, 45.325669], [-94.102555, 45.325891], [-94.101762, 45.326373], [-94.101333, 45.326574], [-94.100863, 45.326612], [-94.100191, 45.326639], [-94.099508, 45.326598], [-94.099132, 45.326547], [-94.098765, 45.326442], [-94.098484, 45.326303], [-94.098022, 45.326043], [-94.097741, 45.32593], [-94.097315, 45.325738], [-94.097168, 45.32559], [-94.097175, 45.325461], [-94.097411, 45.325269], [-94.097447, 45.32514], [-94.09739, 45.324666], [-94.097464, 45.324496], [-94.097721, 45.324358], [-94.098172, 45.324082], [-94.098416, 45.323815], [-94.098603, 45.323509], [-94.098667, 45.323339], [-94.098662, 45.323088], [-94.09878, 45.322768], [-94.099025, 45.32225], [-94.099184, 45.322039], [-94.099477, 45.321785], [-94.099609, 45.321641], [-94.099655, 45.321512], [-94.099592, 45.321235], [-94.099588, 45.321038], [-94.099672, 45.320915], [-94.100033, 45.320709], [-94.100346, 45.320509], [-94.100441, 45.320413], [-94.100377, 45.320339], [-94.100192, 45.320253], [-94.099863, 45.320134], [-94.099621, 45.320035], [-94.099514, 45.319961], [-94.099503, 45.319873], [-94.099577, 45.31975], [-94.099622, 45.31956], [-94.09956, 45.319371], [-94.099382, 45.319108], [-94.099164, 45.318744], [-94.099165, 45.318548], [-94.0992, 45.318391], [-94.099491, 45.318009], [-94.099697, 45.317736], [-94.099969, 45.317381], [-94.100234, 45.317188], [-94.1007, 45.316926], [-94.101186, 45.316705], [-94.101491, 45.31662], [-94.101626, 45.316639], [-94.101903, 45.316779], [-94.102223, 45.316966], [-94.102555, 45.31722], [-94.102937, 45.317569], [-94.103355, 45.317823], [-94.103775, 45.318171], [-94.103991, 45.318433], [-94.104013, 45.318555], [-94.103966, 45.318603], [-94.103741, 45.318646], [-94.103454, 45.318744], [-94.103332, 45.318894], [-94.103364, 45.31907], [-94.103542, 45.319292], [-94.103652, 45.319508], [-94.103655, 45.31967], [-94.103475, 45.319808], [-94.103285, 45.319945], [-94.10324, 45.320074], [-94.10329, 45.320182], [-94.103407, 45.320276], [-94.103545, 45.320431], [-94.103578, 45.320647], [-94.103616, 45.321122], [-94.103794, 45.321418], [-94.103759, 45.321568], [-94.103628, 45.321738], [-94.103402, 45.321998]]]}}, {"type": "Feature", "properties": {"depth_ft": 15.0, "lake": "Bass Lake", "dow": "86023400"}, "geometry": {"type": "Polygon", "coordinates": [[[-94.107642, 45.323096], [-94.107444, 45.323315], [-94.107141, 45.323514], [-94.106856, 45.323666], [-94.106551, 45.323811], [-94.106121, 45.323938], [-94.105681, 45.32405], [-94.105395, 45.324182], [-94.105192, 45.324333], [-94.104868, 45.324499], [-94.104526, 45.324678], [-94.104365, 45.324822], [-94.104236, 45.325108], [-94.104098, 45.325442], [-94.103929, 45.32562], [-94.1037, 45.32573], [-94.102946, 45.325975], [-94.102469, 45.326169], [-94.102036, 45.32637], [-94.101779, 45.326508], [-94.101464, 45.326613], [-94.100956, 45.326672], [-94.099841, 45.326683], [-94.099062, 45.326629], [-94.098598, 45.326512], [-94.097709, 45.325985], [-94.097427, 45.325852], [-94.097127, 45.325712], [-94.096999, 45.325565], [-94.097121, 45.325394], [-94.097281, 45.32523], [-94.097261, 45.324708], [-94.097339, 45.32451], [-94.0975, 45.324373], [-94.097861, 45.324173], [-94.098202, 45.323912], [-94.098417, 45.323605], [-94.098546, 45.323292], [-94.098634, 45.322912], [-94.098726, 45.32266], [-94.099111, 45.321951], [-94.099308, 45.321726], [-94.09943, 45.321575], [-94.099419, 45.32102], [-94.099485, 45.320924], [-94.09976, 45.320772], [-94.100041, 45.32062], [-94.100231, 45.32049], [-94.100277, 45.320408], [-94.100228, 45.320361], [-94.099995, 45.320248], [-94.099541, 45.32009], [-94.09925, 45.319984], [-94.09922, 45.319889], [-94.099351, 45.319725], [-94.099493, 45.319636], [-94.099521, 45.319581], [-94.09949, 45.319446], [-94.099116, 45.319023], [-94.099045, 45.3188], [-94.099024, 45.318461], [-94.099105, 45.318203], [-94.099273, 45.317923], [-94.099489, 45.317657], [-94.100077, 45.317258], [-94.100703, 45.316852], [-94.101241, 45.316616], [-94.101461, 45.316546], [-94.101596, 45.316545], [-94.10176, 45.316591], [-94.102315, 45.316965], [-94.102519, 45.317071], [-94.103055, 45.317466], [-94.103521, 45.317726], [-94.103938, 45.317946], [-94.104231, 45.318146], [-94.104377, 45.318253], [-94.104456, 45.318375], [-94.104459, 45.31851], [-94.104365, 45.318626], [-94.104251, 45.318722], [-94.103787, 45.318808], [-94.103587, 45.318891], [-94.103511, 45.318967], [-94.103494, 45.319055], [-94.103612, 45.319196], [-94.103769, 45.319385], [-94.103869, 45.319573], [-94.103871, 45.319662], [-94.103663, 45.319833], [-94.103454, 45.319971], [-94.103447, 45.320093], [-94.103526, 45.320207], [-94.103672, 45.320328], [-94.103713, 45.320463], [-94.103717, 45.320876], [-94.103805, 45.320977], [-94.104019, 45.321104], [-94.104376, 45.321182], [-94.104732, 45.321219], [-94.104858, 45.321279], [-94.104908, 45.321353], [-94.104881, 45.321435], [-94.104785, 45.321463], [-94.10466, 45.321437], [-94.104504, 45.32135], [-94.10435, 45.321311], [-94.104196, 45.321306], [-94.104139, 45.321367], [-94.104132, 45.321469], [-94.104104, 45.32153], [-94.10386, 45.321824], [-94.103843, 45.32196], [-94.10399, 45.322081], [-94.104222, 45.322153], [-94.10453, 45.322184], [-94.105289, 45.322176], [-94.105703, 45.322206], [-94.106281, 45.322302], [-94.107128, 45.322592], [-94.107486, 45.322738], [-94.107671, 45.322858], [-94.107712, 45.322973], [-94.107642, 45.323096]]]}}, {"type": "Feature", "properties": {"depth_ft": 10.0, "lake": "Bass Lake", "dow": "86023400"}, "geometry": {"type": "Polygon", "coordinates": [[[-94.10786, 45.323182], [-94.107405, 45.323485], [-94.106776, 45.323782], [-94.106232, 45.323977], [-94.105736, 45.324165], [-94.10517, 45.324482], [-94.104799, 45.324669], [-94.104581, 45.32482], [-94.104463, 45.325181], [-94.104287, 45.325487], [-94.104146, 45.325685], [-94.103766, 45.325913], [-94.103127, 45.326143], [-94.102357, 45.326347], [-94.101747, 45.32657], [-94.101297, 45.326682], [-94.100789, 45.326721], [-94.099953, 45.326722], [-94.099212, 45.326709], [-94.098861, 45.326679], [-94.098513, 45.32658], [-94.098222, 45.326414], [-94.097687, 45.326087], [-94.096978, 45.325707], [-94.096851, 45.325593], [-94.096849, 45.325485], [-94.09697, 45.325328], [-94.097016, 45.325178], [-94.096994, 45.325029], [-94.096886, 45.324711], [-94.096903, 45.324596], [-94.097045, 45.324479], [-94.097284, 45.324382], [-94.097579, 45.324237], [-94.097864, 45.324072], [-94.0981, 45.323873], [-94.098268, 45.323607], [-94.098434, 45.323232], [-94.098637, 45.322573], [-94.099058, 45.321945], [-94.099251, 45.321509], [-94.09927, 45.320994], [-94.099387, 45.32083], [-94.099748, 45.32063], [-94.100024, 45.320505], [-94.100023, 45.320424], [-94.099954, 45.32033], [-94.099808, 45.320263], [-94.099112, 45.320046], [-94.098966, 45.319953], [-94.099003, 45.319844], [-94.099164, 45.319727], [-94.099306, 45.319651], [-94.099372, 45.319583], [-94.099303, 45.319455], [-94.099027, 45.319132], [-94.098929, 45.31876], [-94.098953, 45.318509], [-94.099033, 45.318169], [-94.099191, 45.317883], [-94.099492, 45.317589], [-94.099957, 45.317252], [-94.100721, 45.316791], [-94.101226, 45.316575], [-94.101456, 45.316512], [-94.1016, 45.316504], [-94.101812, 45.31655], [-94.102006, 45.316663], [-94.102171, 45.316729], [-94.102393, 45.316774], [-94.102652, 45.316772], [-94.102797, 45.316798], [-94.103, 45.316877], [-94.103282, 45.317064], [-94.103497, 45.317252], [-94.103812, 45.317601], [-94.104095, 45.317822], [-94.104679, 45.318006], [-94.105231, 45.318225], [-94.105291, 45.318333], [-94.105256, 45.318523], [-94.105135, 45.318693], [-94.104887, 45.318818], [-94.104359, 45.318837], [-94.104052, 45.318846], [-94.103766, 45.318964], [-94.103691, 45.319073], [-94.10376, 45.319154], [-94.103898, 45.319336], [-94.103998, 45.319552], [-94.103967, 45.319667], [-94.103798, 45.319845], [-94.103627, 45.319989], [-94.10361, 45.320084], [-94.10366, 45.320192], [-94.103817, 45.320333], [-94.103916, 45.320481], [-94.104037, 45.320778], [-94.104261, 45.320939], [-94.1046, 45.321085], [-94.104938, 45.321177], [-94.105102, 45.321209], [-94.10519, 45.321269], [-94.105259, 45.32137], [-94.105069, 45.321467], [-94.104714, 45.321524], [-94.104513, 45.321553], [-94.10428, 45.321705], [-94.104187, 45.321855], [-94.104257, 45.321963], [-94.104604, 45.322047], [-94.105316, 45.322081], [-94.106153, 45.322148], [-94.106626, 45.322245], [-94.107246, 45.32251], [-94.107691, 45.322655], [-94.107943, 45.322774], [-94.108032, 45.322875], [-94.108053, 45.322963], [-94.108016, 45.323065], [-94.10786, 45.323182]]]}}, {"type": "Feature", "properties": {"depth_ft": 5.0, "lake": "Bass Lake", "dow": "86023400"}, "geometry": {"type": "Polygon", "coordinates": [[[-94.107469, 45.322115], [-94.107753, 45.322356], [-94.108073, 45.322543], [-94.108209, 45.322616], [-94.108278, 45.322697], [-94.108272, 45.322873], [-94.108133, 45.323132], [-94.107954, 45.323337], [-94.107688, 45.323502], [-94.107073, 45.323745], [-94.10653, 45.323961], [-94.105845, 45.324313], [-94.105292, 45.324563], [-94.105131, 45.324666], [-94.104991, 45.324864], [-94.104683, 45.325355], [-94.104415, 45.325676], [-94.10395, 45.325959], [-94.103216, 45.326257], [-94.10228, 45.326544], [-94.101219, 45.326846], [-94.100749, 45.326925], [-94.100149, 45.326937], [-94.099523, 45.326889], [-94.098945, 45.32682], [-94.098298, 45.326637], [-94.097948, 45.326443], [-94.097571, 45.326305], [-94.097259, 45.326111], [-94.096889, 45.325844], [-94.096611, 45.325643], [-94.09658, 45.325501], [-94.096654, 45.325344], [-94.096699, 45.325188], [-94.096588, 45.324904], [-94.096504, 45.324573], [-94.096576, 45.324308], [-94.096724, 45.323988], [-94.096886, 45.3232], [-94.097107, 45.322194], [-94.097237, 45.321725], [-94.097303, 45.32163], [-94.097436, 45.321554], [-94.097541, 45.321519], [-94.097617, 45.321498], [-94.097714, 45.321531], [-94.097745, 45.321639], [-94.097624, 45.32183], [-94.097359, 45.322077], [-94.097295, 45.32222], [-94.097288, 45.322342], [-94.097347, 45.322456], [-94.097428, 45.322645], [-94.09742, 45.322754], [-94.097349, 45.323033], [-94.097249, 45.323352], [-94.09723, 45.323827], [-94.097219, 45.323996], [-94.097287, 45.324064], [-94.097384, 45.32409], [-94.097585, 45.324074], [-94.097814, 45.323964], [-94.09802, 45.323711], [-94.09829, 45.323234], [-94.098516, 45.322493], [-94.098654, 45.322166], [-94.098975, 45.321641], [-94.09902, 45.321512], [-94.098955, 45.321112], [-94.098991, 45.32097], [-94.099227, 45.320777], [-94.09956, 45.320584], [-94.099674, 45.320509], [-94.099682, 45.320434], [-94.099594, 45.320374], [-94.099362, 45.320295], [-94.098965, 45.320149], [-94.098746, 45.320009], [-94.098716, 45.319928], [-94.098883, 45.319628], [-94.098881, 45.319493], [-94.098692, 45.319196], [-94.098707, 45.318966], [-94.098738, 45.318592], [-94.098964, 45.318116], [-94.099199, 45.317802], [-94.099425, 45.317569], [-94.099918, 45.317225], [-94.100477, 45.316834], [-94.100953, 45.316592], [-94.101335, 45.316493], [-94.101613, 45.316463], [-94.101873, 45.316461], [-94.102046, 45.316466], [-94.102276, 45.316443], [-94.102372, 45.316463], [-94.102654, 45.316643], [-94.102849, 45.316763], [-94.103241, 45.316909], [-94.103679, 45.317189], [-94.104088, 45.317477], [-94.104562, 45.317669], [-94.105229, 45.317866], [-94.105683, 45.317963], [-94.106126, 45.318006], [-94.106416, 45.318098], [-94.1066, 45.318212], [-94.106671, 45.318401], [-94.106723, 45.318604], [-94.106745, 45.319003], [-94.106651, 45.319099], [-94.10645, 45.319142], [-94.106276, 45.319082], [-94.10613, 45.318996], [-94.105899, 45.318937], [-94.104928, 45.318926], [-94.104697, 45.318901], [-94.104246, 45.318919], [-94.104055, 45.318989], [-94.10396, 45.319051], [-94.103961, 45.319125], [-94.104012, 45.31924], [-94.104121, 45.319429], [-94.104143, 45.319557], [-94.104021, 45.319741], [-94.103901, 45.319953], [-94.103884, 45.320109], [-94.103954, 45.320223], [-94.104139, 45.320371], [-94.104497, 45.32051], [-94.104908, 45.320614], [-94.105043, 45.32066], [-94.10516, 45.320727], [-94.105171, 45.320808], [-94.104954, 45.32102], [-94.104965, 45.321081], [-94.105148, 45.321113], [-94.105984, 45.321105], [-94.10681, 45.321057], [-94.106954, 45.321076], [-94.107099, 45.321142], [-94.107178, 45.321243], [-94.107222, 45.321534], [-94.107275, 45.321791], [-94.107336, 45.321953], [-94.107469, 45.322115]]]}}, {"type": "Feature", "properties": {"depth_ft": 5.0, "lake": "Bass Lake", "dow": "86023400"}, "geometry": {"type": "Polygon", "coordinates": [[[-94.107968, 45.323996], [-94.107813, 45.324218], [-94.107593, 45.324421], [-94.10744, 45.32451], [-94.107257, 45.324536], [-94.107151, 45.324502], [-94.107086, 45.324461], [-94.107064, 45.324345], [-94.107056, 45.324187], [-94.107104, 45.324099], [-94.107389, 45.323903], [-94.107552, 45.32382], [-94.107695, 45.32378], [-94.10786, 45.323803], [-94.107951, 45.323873], [-94.107977, 45.323925], [-94.107968, 45.323996]]]}}, {"type": "Feature", "properties": {"depth_ft": 30.0, "lake": "Bass Lake", "dow": "86023400"}, "geometry": {"type": "Polygon", "coordinates": [[[-94.099082, 45.325987], [-94.098761, 45.325803], [-94.098341, 45.325407], [-94.098122, 45.325138], [-94.098097, 45.325024], [-94.098176, 45.324899], [-94.098285, 45.324835], [-94.09846, 45.324693], [-94.09853, 45.324536], [-94.098593, 45.324364], [-94.098674, 45.323963], [-94.098875, 45.323696], [-94.099108, 45.323517], [-94.099418, 45.323358], [-94.099644, 45.32321], [-94.0997, 45.3231], [-94.099676, 45.322971], [-94.099465, 45.32277], [-94.099344, 45.32261], [-94.099399, 45.322401], [-94.099587, 45.322197], [-94.100165, 45.321806], [-94.100273, 45.321634], [-94.100315, 45.321529], [-94.100297, 45.321353], [-94.100234, 45.321182], [-94.100172, 45.321016], [-94.100222, 45.320901], [-94.100396, 45.320754], [-94.100658, 45.320606], [-94.100785, 45.32049], [-94.100783, 45.320402], [-94.100647, 45.320237], [-94.100586, 45.320102], [-94.100529, 45.319832], [-94.100487, 45.319588], [-94.10035, 45.319345], [-94.099983, 45.318865], [-94.099905, 45.318642], [-94.099855, 45.318346], [-94.099865, 45.318065], [-94.099992, 45.317788], [-94.100383, 45.317218], [-94.100492, 45.317149], [-94.100674, 45.317044], [-94.101077, 45.316915], [-94.101421, 45.316813], [-94.101627, 45.316806], [-94.10179, 45.316825], [-94.101888, 45.316933], [-94.101882, 45.316985], [-94.101566, 45.317446], [-94.101347, 45.317916], [-94.1013, 45.31814], [-94.101325, 45.318337], [-94.101457, 45.318669], [-94.101708, 45.319036], [-94.101873, 45.319377], [-94.101925, 45.319772], [-94.101871, 45.320064], [-94.101801, 45.320257], [-94.101738, 45.320424], [-94.101744, 45.320533], [-94.101864, 45.320646], [-94.101933, 45.320796], [-94.101951, 45.320947], [-94.10188, 45.321093], [-94.101735, 45.321214], [-94.101714, 45.321292], [-94.101739, 45.321427], [-94.101816, 45.321582], [-94.101825, 45.321676], [-94.101746, 45.321781], [-94.101513, 45.321913], [-94.100983, 45.322131], [-94.100756, 45.322237], [-94.100662, 45.322311], [-94.100656, 45.322374], [-94.100798, 45.322487], [-94.101213, 45.322633], [-94.10165, 45.322728], [-94.10188, 45.322788], [-94.101978, 45.322886], [-94.102019, 45.32313], [-94.102001, 45.323349], [-94.101898, 45.323558], [-94.101573, 45.323873], [-94.101458, 45.324035], [-94.101164, 45.324433], [-94.100823, 45.324748], [-94.100785, 45.324879], [-94.100839, 45.325003], [-94.100937, 45.325106], [-94.100983, 45.325215], [-94.100905, 45.325382], [-94.100682, 45.325628], [-94.10015, 45.325935], [-94.099835, 45.326063], [-94.099563, 45.326107], [-94.099319, 45.326078], [-94.099082, 45.325987]]]}}]}