{"type": "FeatureCollection", "features": [{"type": "Feature", "properties": {"depth_ft": 0.0, "lake": "Buffalo Lake", "dow": "86009000"}, "geometry": {"type": "Polygon", "coordinates": [[[-93.905598, 45.170987], [-93.905475, 45.171087], [-93.905167, 45.171236], [-93.904789, 45.171386], [-93.904432, 45.171494], [-93.904445, 45.171511], [-93.903964, 45.171686], [-93.903552, 45.171884], [-93.903314, 45.172106], [-93.903076, 45.172353], [-93.902802, 45.172502], [-93.902319, 45.172554], [-93.901941, 45.172728], [-93.901599, 45.172927], [-93.901328, 45.17332], [-93.901093, 45.173737], [-93.900997, 45.174227], [-93.900763, 45.174694], [-93.900558, 45.174891], [-93.899804, 45.175312], [-93.898877, 45.175711], [-93.897843, 45.17589], [-93.897136, 45.175945], [-93.89665, 45.175826], [-93.896233, 45.175707], [-93.895919, 45.17549], [-93.8955, 45.175273], [-93.894803, 45.174912], [-93.894491, 45.174841], [-93.893661, 45.174774], [-93.89283, 45.174731], [-93.891689, 45.174691], [-93.89086, 45.174698], [-93.890101, 45.174826], [-93.889273, 45.17493], [-93.888585, 45.175156], [-93.887242, 45.17546], [-93.886656, 45.175537], [-93.886136, 45.175444], [-93.885165, 45.175256], [-93.884263, 45.175043], [-93.882945, 45.174759], [-93.881937, 45.174376], [-93.880581, 45.173897], [-93.87924, 45.173174], [-93.878298, 45.172619], [-93.877776, 45.172403], [-93.876796, 45.171628], [-93.87634, 45.171192], [-93.8756, 45.170269], [-93.874791, 45.169297], [-93.87461, 45.168809], [-93.874424, 45.167906], [-93.874479, 45.167001], [-93.874645, 45.16656], [-93.875222, 45.165871], [-93.875836, 45.165377], [-93.876828, 45.16466], [-93.877272, 45.164339], [-93.877504, 45.163677], [-93.877665, 45.162943], [-93.877773, 45.162086], [-93.877693, 45.161353], [-93.877648, 45.160669], [-93.877598, 45.159692], [-93.877371, 45.158398], [-93.877365, 45.158006], [-93.877359, 45.15764], [-93.877561, 45.157296], [-93.878035, 45.156657], [-93.878512, 45.156213], [-93.879365, 45.155497], [-93.879911, 45.155077], [-93.880628, 45.154485], [-93.881621, 45.153891], [-93.882408, 45.153396], [-93.882819, 45.153172], [-93.883438, 45.152972], [-93.883953, 45.152748], [-93.884502, 45.152499], [-93.885258, 45.152249], [-93.886084, 45.152071], [-93.88691, 45.151845], [-93.887601, 45.15184], [-93.888431, 45.151907], [-93.888916, 45.151976], [-93.889265, 45.152218], [-93.889929, 45.152702], [-93.89042, 45.153162], [-93.890945, 45.153598], [-93.891363, 45.153791], [-93.891778, 45.153836], [-93.892361, 45.153514], [-93.893031, 45.153289], [-93.89403, 45.15311], [-93.894893, 45.15303], [-93.895548, 45.152927], [-93.896474, 45.152504], [-93.896985, 45.152011], [-93.897151, 45.151594], [-93.897592, 45.151101], [-93.898035, 45.150707], [-93.898859, 45.150334], [-93.900268, 45.149907], [-93.901751, 45.149724], [-93.903755, 45.149708], [-93.904341, 45.14963], [-93.904442, 45.149483], [-93.90458, 45.149482], [-93.904929, 45.149674], [-93.905382, 45.14994], [-93.905594, 45.150231], [-93.905841, 45.150523], [-93.906681, 45.151201], [-93.906927, 45.151492], [-93.906896, 45.151688], [-93.907107, 45.151931], [-93.907316, 45.152027], [-93.907944, 45.152438], [-93.908748, 45.152994], [-93.909692, 45.153695], [-93.910183, 45.154156], [-93.910503, 45.154715], [-93.911076, 45.156007], [-93.911489, 45.157006], [-93.911814, 45.157834], [-93.912318, 45.159102], [-93.912328, 45.159762], [-93.912165, 45.16035], [-93.911998, 45.160718], [-93.911628, 45.161332], [-93.91125, 45.161506], [-93.911046, 45.161728], [-93.910916, 45.162242], [-93.910816, 45.162439], [-93.91041, 45.163029], [-93.910277, 45.163347], [-93.910181, 45.163837], [-93.909883, 45.164646], [-93.909719, 45.165161], [-93.908846, 45.166782], [-93.908784, 45.167222], [-93.908788, 45.167491], [-93.908485, 45.168007], [-93.90835, 45.168204], [-93.907903, 45.168354], [-93.907596, 45.168576], [-93.907052, 45.169167], [-93.906918, 45.169413], [-93.906922, 45.169657], [-93.906821, 45.169829], [-93.90655, 45.170174], [-93.906076, 45.170813], [-93.905598, 45.170987]]]}}, {"type": "Feature", "properties": {"depth_ft": 5.0, "lake": "Buffalo Lake", "dow": "86009000"}, "geometry": {"type": "Polygon", "coordinates": [[[-93.875065, 45.167451], [-93.875414, 45.166513], [-93.875901, 45.165949], [-93.87717, 45.164677], [-93.877722, 45.164112], [-93.877945, 45.163526], [-93.878258, 45.162425], [-93.878412, 45.161723], [-93.878427, 45.160508], [-93.878181, 45.159575], [-93.87787, 45.158666], [-93.877828, 45.158082], [-93.878149, 45.157449], [-93.878638, 45.157071], [-93.879453, 45.156363], [-93.880166, 45.15547], [-93.880917, 45.154903], [-93.881767, 45.154336], [-93.883009, 45.153508], [-93.884717, 45.152888], [-93.886261, 45.152361], [-93.887976, 45.152185], [-93.88887, 45.152365], [-93.889639, 45.152919], [-93.890374, 45.153475], [-93.890512, 45.153894], [-93.890813, 45.154102], [-93.89144, 45.154097], [-93.892065, 45.153905], [-93.893548, 45.153683], [-93.895033, 45.153625], [-93.896055, 45.153524], [-93.896449, 45.153334], [-93.896738, 45.152817], [-93.897515, 45.151806], [-93.89859, 45.150863], [-93.899672, 45.15041], [-93.900726, 45.150238], [-93.902212, 45.15018], [-93.903799, 45.150331], [-93.904462, 45.150489], [-93.905402, 45.15144], [-93.905506, 45.151766], [-93.90541, 45.151954], [-93.905078, 45.151817], [-93.904811, 45.151655], [-93.904549, 45.151821], [-93.90449, 45.152219], [-93.905029, 45.152892], [-93.905729, 45.153284], [-93.906655, 45.153393], [-93.907547, 45.153409], [-93.908473, 45.153496], [-93.909143, 45.154051], [-93.909379, 45.154376], [-93.909752, 45.154981], [-93.910059, 45.15561], [-93.910269, 45.156332], [-93.910745, 45.157217], [-93.911432, 45.15887], [-93.911575, 45.159524], [-93.911453, 45.160155], [-93.91081, 45.161259], [-93.910202, 45.162502], [-93.909925, 45.163813], [-93.909542, 45.164634], [-93.908901, 45.165878], [-93.908556, 45.167002], [-93.908137, 45.167707], [-93.907614, 45.168038], [-93.906926, 45.168418], [-93.906602, 45.168817], [-93.906478, 45.169286], [-93.906288, 45.169825], [-93.906062, 45.170177], [-93.905739, 45.170647], [-93.905289, 45.170824], [-93.904877, 45.170986], [-93.904525, 45.171124], [-93.90422, 45.171218], [-93.90367, 45.171388], [-93.902522, 45.171934], [-93.901867, 45.17229], [-93.901347, 45.172832], [-93.900959, 45.173396], [-93.90067, 45.173889], [-93.900445, 45.174288], [-93.90022, 45.174734], [-93.899434, 45.17516], [-93.898778, 45.175446], [-93.898021, 45.175616], [-93.897362, 45.175738], [-93.896632, 45.175533], [-93.895831, 45.175072], [-93.895365, 45.174818], [-93.894436, 45.174545], [-93.893278, 45.174461], [-93.891924, 45.174495], [-93.890933, 45.174503], [-93.890008, 45.174533], [-93.888625, 45.174801], [-93.887274, 45.175092], [-93.886317, 45.175123], [-93.884926, 45.1749], [-93.883533, 45.17456], [-93.882537, 45.174236], [-93.880888, 45.173613], [-93.880192, 45.173058], [-93.878778, 45.172152], [-93.877816, 45.171468], [-93.87683, 45.170952], [-93.875782, 45.169838], [-93.875238, 45.168852], [-93.874934, 45.167938], [-93.875183, 45.166964], [-93.875065, 45.167451]]]}}, {"type": "Feature", "properties": {"depth_ft": 10.0, "lake": "Buffalo Lake", "dow": "86009000"}, "geometry": {"type": "Polygon", "coordinates": [[[-93.906932, 45.167539], [-93.906621, 45.167896], [-93.90631, 45.168292], [-93.906032, 45.169098], [-93.905935, 45.169641], [-93.905598, 45.170092], [-93.905074, 45.170358], [-93.904365, 45.170663], [-93.903842, 45.170966], [-93.903448, 45.171156], [-93.902689, 45.171648], [-93.901903, 45.172066], [-93.901277, 45.172594], [-93.901095, 45.172782], [-93.901098, 45.172969], [-93.900968, 45.173101], [-93.900839, 45.173327], [-93.900632, 45.17359], [-93.90032, 45.173891], [-93.899928, 45.174212], [-93.899353, 45.174647], [-93.899013, 45.174818], [-93.898748, 45.17482], [-93.898455, 45.174691], [-93.897766, 45.174547], [-93.896653, 45.174388], [-93.894691, 45.173992], [-93.893817, 45.173868], [-93.893105, 45.173948], [-93.892603, 45.173989], [-93.892129, 45.174105], [-93.891761, 45.174202], [-93.891285, 45.174243], [-93.890597, 45.174136], [-93.890121, 45.174158], [-93.889647, 45.174237], [-93.888777, 45.174412], [-93.888066, 45.174586], [-93.887461, 45.17474], [-93.886615, 45.174728], [-93.885768, 45.17466], [-93.884998, 45.174479], [-93.884175, 45.174242], [-93.883484, 45.173948], [-93.883033, 45.173877], [-93.882422, 45.173657], [-93.881625, 45.173383], [-93.880932, 45.173052], [-93.880905, 45.172996], [-93.880823, 45.172828], [-93.880663, 45.172736], [-93.880208, 45.172366], [-93.879699, 45.171902], [-93.879003, 45.171309], [-93.878282, 45.170866], [-93.877591, 45.17061], [-93.87706, 45.170446], [-93.876739, 45.170224], [-93.876202, 45.169686], [-93.875933, 45.169332], [-93.875607, 45.168793], [-93.875333, 45.168159], [-93.875218, 45.167543], [-93.875552, 45.166905], [-93.876071, 45.166303], [-93.877029, 45.165005], [-93.877523, 45.164478], [-93.877864, 45.164289], [-93.878287, 45.164304], [-93.878632, 45.164376], [-93.879056, 45.164448], [-93.879237, 45.164203], [-93.879312, 45.163922], [-93.879123, 45.163699], [-93.878777, 45.163534], [-93.878509, 45.163274], [-93.878717, 45.163029], [-93.878898, 45.162785], [-93.879049, 45.162298], [-93.879094, 45.161811], [-93.879061, 45.161382], [-93.878943, 45.160579], [-93.879116, 45.159773], [-93.879057, 45.159381], [-93.878841, 45.159102], [-93.878729, 45.158692], [-93.878722, 45.158243], [-93.878948, 45.157456], [-93.879546, 45.156797], [-93.879833, 45.156552], [-93.880142, 45.156064], [-93.880662, 45.155518], [-93.881238, 45.155139], [-93.881736, 45.154892], [-93.882079, 45.15489], [-93.882291, 45.154907], [-93.882636, 45.155035], [-93.882796, 45.155071], [-93.882979, 45.154995], [-93.883241, 45.154862], [-93.883581, 45.154579], [-93.883893, 45.154259], [-93.884287, 45.154125], [-93.884816, 45.154139], [-93.885185, 45.154118], [-93.885474, 45.154022], [-93.885789, 45.153851], [-93.886101, 45.153531], [-93.886256, 45.153287], [-93.886437, 45.153061], [-93.886752, 45.15289], [-93.887067, 45.152813], [-93.887465, 45.152866], [-93.88789, 45.153069], [-93.888186, 45.153365], [-93.888403, 45.153719], [-93.888645, 45.153997], [-93.88905, 45.154555], [-93.889452, 45.154926], [-93.889881, 45.155315], [-93.890392, 45.155891], [-93.890875, 45.156392], [-93.891221, 45.156557], [-93.89162, 45.156704], [-93.892178, 45.156905], [-93.892471, 45.157071], [-93.892579, 45.157238], [-93.892823, 45.157629], [-93.893038, 45.157871], [-93.893466, 45.158148], [-93.894076, 45.15833], [-93.894712, 45.158418], [-93.895239, 45.158358], [-93.895581, 45.158262], [-93.896527, 45.157918], [-93.897023, 45.157522], [-93.897307, 45.157108], [-93.897565, 45.156732], [-93.898269, 45.15611], [-93.899132, 45.155523], [-93.899939, 45.15475], [-93.900144, 45.154375], [-93.900509, 45.154017], [-93.90085, 45.153883], [-93.901485, 45.153934], [-93.901804, 45.154063], [-93.902231, 45.154358], [-93.902954, 45.154913], [-93.903411, 45.155433], [-93.903899, 45.156196], [-93.904224, 45.156717], [-93.904765, 45.157498], [-93.905356, 45.15811], [-93.905808, 45.158312], [-93.906338, 45.158383], [-93.906845, 45.158697], [-93.908027, 45.159921], [-93.908756, 45.160588], [-93.909147, 45.161213], [-93.909418, 45.162303], [-93.909559, 45.163184], [-93.909567, 45.163723], [-93.909406, 45.164203], [-93.909158, 45.164549], [-93.908973, 45.164909], [-93.908627, 45.165719], [-93.908388, 45.166663], [-93.908205, 45.167159], [-93.907658, 45.167312], [-93.907214, 45.167331], [-93.906901, 45.167588], [-93.906715, 45.167813], [-93.906932, 45.167539]]]}}, {"type": "Feature", "properties": {"depth_ft": 10.0, "lake": "Buffalo Lake", "dow": "86009000"}, "geometry": {"type": "Polygon", "coordinates": [[[-93.898032, 45.164979], [-93.898131, 45.16485], [-93.898452, 45.164714], [-93.898667, 45.164655], [-93.898773, 45.164578], [-93.898664, 45.164503], [-93.898395, 45.164486], [-93.898204, 45.164392], [-93.897981, 45.163879], [-93.897787, 45.163537], [-93.897488, 45.163368], [-93.897031, 45.163429], [-93.896332, 45.163549], [-93.895927, 45.163533], [-93.895386, 45.163385], [-93.894874, 45.163408], [-93.893934, 45.163625], [-93.892915, 45.163938], [-93.892541, 45.16415], [-93.891924, 45.164308], [-93.891333, 45.164427], [-93.890874, 45.164373], [-93.890549, 45.16428], [-93.890063, 45.164189], [-93.889633, 45.164288], [-93.889124, 45.164501], [-93.88848, 45.164659], [-93.888211, 45.164699], [-93.887918, 45.164892], [-93.887308, 45.165526], [-93.886965, 45.166062], [-93.886917, 45.166406], [-93.886934, 45.167512], [-93.886836, 45.168122], [-93.88641, 45.168469], [-93.886033, 45.168491], [-93.88557, 45.168189], [-93.885134, 45.167869], [-93.884835, 45.16768], [-93.884841, 45.168119], [-93.885019, 45.169147], [-93.884706, 45.169836], [-93.884416, 45.170219], [-93.88442, 45.170505], [-93.884908, 45.170711], [-93.885799, 45.170761], [-93.886936, 45.171096], [-93.887718, 45.171109], [-93.887931, 45.170935], [-93.888543, 45.170435], [-93.889097, 45.169687], [-93.889361, 45.169323], [-93.889574, 45.169169], [-93.890003, 45.168994], [-93.890431, 45.168819], [-93.890751, 45.168588], [-93.891039, 45.168052], [-93.891167, 45.167631], [-93.891326, 45.16742], [-93.891484, 45.16719], [-93.89175, 45.166978], [-93.892179, 45.166861], [-93.892528, 45.166743], [-93.892902, 45.166531], [-93.893195, 45.166338], [-93.893624, 45.166182], [-93.894, 45.166103], [-93.894621, 45.166193], [-93.894868, 45.166458], [-93.895226, 45.166913], [-93.89518, 45.167447], [-93.895459, 45.168055], [-93.895871, 45.168509], [-93.896524, 45.168943], [-93.897258, 45.169337], [-93.898071, 45.169636], [-93.898829, 45.169821], [-93.899155, 45.169971], [-93.899617, 45.170234], [-93.899808, 45.170385], [-93.900188, 45.170534], [-93.900564, 45.170474], [-93.900968, 45.170433], [-93.901427, 45.170525], [-93.901753, 45.170675], [-93.902162, 45.170957], [-93.902405, 45.170994], [-93.902619, 45.170858], [-93.902696, 45.170629], [-93.902745, 45.170362], [-93.902438, 45.169697], [-93.902082, 45.169337], [-93.901698, 45.168864], [-93.901447, 45.168332], [-93.901226, 45.168029], [-93.900873, 45.167822], [-93.900198, 45.167751], [-93.899874, 45.167715], [-93.899493, 45.16749], [-93.899271, 45.167072], [-93.898997, 45.166807], [-93.898564, 45.166715], [-93.897974, 45.166853], [-93.897408, 45.166896], [-93.896708, 45.166901], [-93.896033, 45.166849], [-93.895601, 45.166777], [-93.895139, 45.166551], [-93.895028, 45.166362], [-93.894891, 45.166172], [-93.894885, 45.16581], [-93.89507, 45.165561], [-93.89539, 45.165348], [-93.895875, 45.165345], [-93.89628, 45.165418], [-93.896685, 45.165472], [-93.897169, 45.165411], [-93.897598, 45.165274], [-93.897785, 45.16512], [-93.898032, 45.164979]]]}}, {"type": "Feature", "properties": {"depth_ft": 10.0, "lake": "Buffalo Lake", "dow": "86009000"}, "geometry": {"type": "Polygon", "coordinates": [[[-93.898619, 45.158388], [-93.898486, 45.158327], [-93.898298, 45.158329], [-93.898137, 45.158368], [-93.89795, 45.158503], [-93.897873, 45.158732], [-93.897903, 45.158923], [-93.898068, 45.159112], [-93.898259, 45.159282], [-93.89853, 45.159413], [-93.89883, 45.159583], [-93.898913, 45.159754], [-93.898861, 45.159849], [-93.898699, 45.15987], [-93.898483, 45.159833], [-93.898321, 45.159777], [-93.898159, 45.159798], [-93.898027, 45.159951], [-93.897948, 45.160066], [-93.897897, 45.160238], [-93.898063, 45.160523], [-93.898391, 45.160844], [-93.898829, 45.161241], [-93.899321, 45.161676], [-93.899674, 45.161864], [-93.900024, 45.16188], [-93.900238, 45.161745], [-93.900694, 45.161589], [-93.900959, 45.161358], [-93.901195, 45.160937], [-93.901135, 45.160499], [-93.90094, 45.160157], [-93.900561, 45.160046], [-93.900102, 45.159954], [-93.89983, 45.159823], [-93.899529, 45.15952], [-93.8992, 45.159179], [-93.898978, 45.158743], [-93.898619, 45.158388]]]}}, {"type": "Feature", "properties": {"depth_ft": 20.0, "lake": "Buffalo Lake", "dow": "86009000"}, "geometry": {"type": "Polygon", "coordinates": [[[-93.896833, 45.171457], [-93.897077, 45.17155], [-93.896834, 45.171495], [-93.896507, 45.171269], [-93.896013, 45.17072], [-93.895409, 45.170038], [-93.895107, 45.169659], [-93.894588, 45.169244], [-93.894207, 45.16898], [-93.893448, 45.1687], [-93.893039, 45.168417], [-93.892872, 45.168094], [-93.892866, 45.167713], [-93.892941, 45.167312], [-93.893233, 45.167043], [-93.893498, 45.166717], [-93.893792, 45.166562], [-93.894276, 45.166539], [-93.894546, 45.166556], [-93.89482, 45.166821], [-93.894907, 45.167201], [-93.894888, 45.167754], [-93.894896, 45.16825], [-93.895226, 45.168686], [-93.896015, 45.169137], [-93.896778, 45.169684], [-93.897137, 45.170215], [-93.897414, 45.17069], [-93.897529, 45.171165], [-93.897454, 45.171509], [-93.897213, 45.171587], [-93.896833, 45.171457]]]}}, {"type": "Feature", "properties": {"depth_ft": 15.0, "lake": "Buffalo Lake", "dow": "86009000"}, "geometry": {"type": "Polygon", "coordinates": [[[-93.880114, 45.156945], [-93.880596, 45.156712], [-93.88089, 45.156577], [-93.881262, 45.156193], [-93.881716, 45.155941], [-93.882036, 45.15571], [-93.882491, 45.155535], [-93.883081, 45.155359], [-93.883833, 45.155181], [-93.884504, 45.155024], [-93.885308, 45.15477], [-93.88622, 45.154496], [-93.886997, 45.154184], [-93.887401, 45.1542], [-93.887915, 45.154311], [-93.88827, 45.154632], [-93.888788, 45.155028], [-93.889581, 45.155766], [-93.890048, 45.156353], [-93.890596, 45.156902], [-93.891057, 45.157127], [-93.891543, 45.15718], [-93.891975, 45.157215], [-93.892383, 45.157441], [-93.892522, 45.157707], [-93.892851, 45.158123], [-93.893233, 45.158426], [-93.893856, 45.158611], [-93.894666, 45.158681], [-93.895097, 45.158697], [-93.895957, 45.158576], [-93.896814, 45.158226], [-93.897379, 45.158145], [-93.897596, 45.158258], [-93.897653, 45.158467], [-93.897768, 45.158905], [-93.897825, 45.159133], [-93.897962, 45.159265], [-93.898127, 45.159474], [-93.898128, 45.15955], [-93.898023, 45.159684], [-93.897756, 45.159858], [-93.897706, 45.160087], [-93.897764, 45.160392], [-93.89804, 45.160771], [-93.898424, 45.161187], [-93.898915, 45.161603], [-93.899486, 45.161942], [-93.899946, 45.162014], [-93.900348, 45.161897], [-93.90075, 45.161722], [-93.901256, 45.161356], [-93.901385, 45.160992], [-93.901324, 45.160535], [-93.901128, 45.160079], [-93.900855, 45.159891], [-93.900612, 45.159855], [-93.900288, 45.159762], [-93.899934, 45.159574], [-93.899387, 45.159025], [-93.899001, 45.158495], [-93.898724, 45.157982], [-93.898658, 45.157258], [-93.899, 45.156741], [-93.899135, 45.156545], [-93.899885, 45.156448], [-93.899798, 45.156379], [-93.899857, 45.15641], [-93.900077, 45.156675], [-93.900431, 45.15692], [-93.901082, 45.157182], [-93.901813, 45.157386], [-93.902329, 45.15763], [-93.902843, 45.157778], [-93.903224, 45.158023], [-93.903416, 45.158231], [-93.90342, 45.158479], [-93.903451, 45.158707], [-93.903538, 45.159088], [-93.903759, 45.159448], [-93.904194, 45.159731], [-93.904815, 45.159802], [-93.905757, 45.159738], [-93.906405, 45.159809], [-93.906704, 45.15994], [-93.907115, 45.160375], [-93.907475, 45.160963], [-93.907998, 45.161684], [-93.90852, 45.16229], [-93.90879, 45.162727], [-93.909115, 45.163173], [-93.909266, 45.163366], [-93.909269, 45.163575], [-93.90923, 45.163815], [-93.909106, 45.163966], [-93.908921, 45.164281], [-93.908611, 45.164762], [-93.908493, 45.165317], [-93.908292, 45.165946], [-93.908236, 45.16641], [-93.908175, 45.16656], [-93.90803, 45.166741], [-93.907755, 45.166728], [-93.907432, 45.16674], [-93.907026, 45.166629], [-93.906731, 45.166727], [-93.906548, 45.167091], [-93.906289, 45.167798], [-93.905714, 45.168889], [-93.905425, 45.169368], [-93.90476, 45.169926], [-93.903963, 45.170638], [-93.903376, 45.171024], [-93.903188, 45.171064], [-93.903025, 45.170989], [-93.902861, 45.170857], [-93.902908, 45.170399], [-93.902793, 45.169942], [-93.902735, 45.169695], [-93.902429, 45.169087], [-93.901909, 45.168614], [-93.901548, 45.167912], [-93.901299, 45.167513], [-93.901053, 45.167325], [-93.900404, 45.167177], [-93.899998, 45.167047], [-93.899427, 45.166747], [-93.898829, 45.166408], [-93.898506, 45.166449], [-93.898185, 45.166604], [-93.897783, 45.166721], [-93.897189, 45.166669], [-93.896165, 45.166639], [-93.895272, 45.166436], [-93.895135, 45.166304], [-93.895049, 45.16598], [-93.895286, 45.165616], [-93.895905, 45.165535], [-93.896742, 45.165624], [-93.897549, 45.165579], [-93.897979, 45.165461], [-93.898164, 45.165269], [-93.898484, 45.165038], [-93.898754, 45.165074], [-93.898973, 45.165263], [-93.899194, 45.165624], [-93.899384, 45.165717], [-93.89957, 45.165544], [-93.899564, 45.165163], [-93.899452, 45.164897], [-93.899231, 45.164556], [-93.899005, 45.163871], [-93.898782, 45.163434], [-93.898564, 45.163264], [-93.898023, 45.163135], [-93.89727, 45.163255], [-93.896598, 45.163356], [-93.895762, 45.163305], [-93.894926, 45.163255], [-93.894307, 45.163317], [-93.893634, 45.163398], [-93.893125, 45.163593], [-93.89235, 45.16398], [-93.892056, 45.164116], [-93.891384, 45.164217], [-93.890925, 45.164201], [-93.890491, 45.164033], [-93.890113, 45.163979], [-93.889765, 45.164096], [-93.889416, 45.164194], [-93.888851, 45.164294], [-93.888206, 45.164394], [-93.888019, 45.164472], [-93.887435, 45.165048], [-93.887013, 45.165623], [-93.886806, 45.166178], [-93.886628, 45.166904], [-93.886664, 45.167495], [-93.886534, 45.167801], [-93.886293, 45.16786], [-93.885968, 45.167786], [-93.885614, 45.167541], [-93.885258, 45.167162], [-93.885013, 45.167031], [-93.884851, 45.167032], [-93.884746, 45.167166], [-93.884698, 45.167586], [-93.884654, 45.168196], [-93.884717, 45.168806], [-93.884696, 45.169168], [-93.88462, 45.169493], [-93.884462, 45.169704], [-93.884275, 45.169839], [-93.883898, 45.169861], [-93.883712, 45.170015], [-93.883661, 45.170225], [-93.883639, 45.170549], [-93.883778, 45.170796], [-93.884293, 45.171021], [-93.885079, 45.171263], [-93.886133, 45.171483], [-93.886915, 45.171477], [-93.887801, 45.171242], [-93.888521, 45.170797], [-93.889156, 45.17003], [-93.889527, 45.169627], [-93.890464, 45.169181], [-93.890994, 45.168624], [-93.891306, 45.167897], [-93.891784, 45.167417], [-93.892505, 45.166972], [-93.893439, 45.166412], [-93.894056, 45.166255], [-93.894597, 45.166365], [-93.894899, 45.166725], [-93.895038, 45.16701], [-93.895047, 45.167582], [-93.895134, 45.167924], [-93.895382, 45.168284], [-93.896339, 45.169173], [-93.897426, 45.169736], [-93.898399, 45.169938], [-93.898887, 45.170106], [-93.899269, 45.170408], [-93.899653, 45.170806], [-93.900033, 45.170955], [-93.900302, 45.170953], [-93.900949, 45.170929], [-93.901543, 45.171019], [-93.902221, 45.171281], [-93.90244, 45.171489], [-93.902496, 45.171641], [-93.902309, 45.171738], [-93.902122, 45.171816], [-93.901719, 45.171895], [-93.901397, 45.171993], [-93.900915, 45.172245], [-93.900462, 45.172572], [-93.900197, 45.17286], [-93.900037, 45.172957], [-93.899875, 45.17292], [-93.899737, 45.172692], [-93.899301, 45.172448], [-93.898787, 45.17228], [-93.89822, 45.172228], [-93.897898, 45.172345], [-93.897392, 45.172692], [-93.897341, 45.172902], [-93.897209, 45.173055], [-93.897078, 45.173342], [-93.896623, 45.173518], [-93.896166, 45.173597], [-93.895816, 45.173638], [-93.895222, 45.173567], [-93.894762, 45.173475], [-93.894197, 45.173518], [-93.89374, 45.173578], [-93.892825, 45.173681], [-93.891912, 45.173898], [-93.891508, 45.173939], [-93.890968, 45.173886], [-93.890267, 45.173872], [-93.889649, 45.173953], [-93.888869, 45.174112], [-93.888065, 45.174385], [-93.887716, 45.174464], [-93.887069, 45.174469], [-93.886582, 45.174378], [-93.886044, 45.17442], [-93.885288, 45.17435], [-93.884854, 45.174181], [-93.88423, 45.1739], [-93.883824, 45.173808], [-93.883282, 45.173583], [-93.882172, 45.173287], [-93.881682, 45.172986], [-93.8816, 45.172872], [-93.881328, 45.172741], [-93.880785, 45.172478], [-93.880267, 45.172082], [-93.879802, 45.171647], [-93.87912, 45.171118], [-93.878657, 45.170817], [-93.878223, 45.170629], [-93.877355, 45.170293], [-93.876676, 45.169917], [-93.876347, 45.169576], [-93.87599, 45.16914], [-93.875766, 45.168627], [-93.875462, 45.168096], [-93.875429, 45.167696], [-93.875559, 45.167371], [-93.875822, 45.166949], [-93.876298, 45.166354], [-93.876506, 45.165876], [-93.876877, 45.165437], [-93.877345, 45.164928], [-93.877604, 45.16459], [-93.878052, 45.164493], [-93.878477, 45.164602], [-93.878902, 45.164748], [-93.879375, 45.164613], [-93.879445, 45.164195], [-93.879493, 45.16387], [-93.879301, 45.163605], [-93.879216, 45.163377], [-93.879239, 45.163072], [-93.879393, 45.162594], [-93.87944, 45.162155], [-93.879374, 45.161374], [-93.879282, 45.16065], [-93.879223, 45.160288], [-93.879511, 45.159752], [-93.879748, 45.159426], [-93.879718, 45.159179], [-93.879579, 45.158951], [-93.879308, 45.158801], [-93.879142, 45.158535], [-93.879084, 45.158307], [-93.879132, 45.157906], [-93.879369, 45.157504], [-93.879607, 45.157216], [-93.880114, 45.156945]]]}}, {"type": "Feature", "properties": {"depth_ft": 15.0, "lake": "Buffalo Lake", "dow": "86009000"}, "geometry": {"type": "Polygon", "coordinates": [[[-93.906158, 45.165902], [-93.90588, 45.16578], [-93.905448, 45.165688], [-93.904746, 45.165656], [-93.904344, 45.165754], [-93.904024, 45.165967], [-93.904001, 45.166253], [-93.904086, 45.166538], [-93.904494, 45.166764], [-93.905038, 45.167045], [-93.905525, 45.167175], [-93.905902, 45.167153], [-93.90625, 45.166979], [-93.906406, 45.166634], [-93.906372, 45.166215], [-93.906158, 45.165902]]]}}, {"type": "Feature", "properties": {"depth_ft": 10.0, "lake": "Buffalo Lake", "dow": "86009000"}, "geometry": {"type": "Polygon", "coordinates": [[[-93.905331, 45.166814], [-93.90514, 45.166682], [-93.905136, 45.166435], [-93.905321, 45.166204], [-93.905535, 45.166088], [-93.905777, 45.166086], [-93.906082, 45.166244], [-93.906159, 45.16635], [-93.906135, 45.16656], [-93.905869, 45.166753], [-93.905654, 45.166831], [-93.905331, 45.166814]]]}}, {"type": "Feature", "properties": {"depth_ft": 20.0, "lake": "Buffalo Lake", "dow": "86009000"}, "geometry": {"type": "Polygon", "coordinates": [[[-93.905639, 45.164143], [-93.905051, 45.164491], [-93.90465, 45.164665], [-93.904087, 45.16486], [-93.903821, 45.16511], [-93.903664, 45.165417], [-93.903591, 45.165875], [-93.903569, 45.16618], [-93.903711, 45.166636], [-93.90393, 45.166844], [-93.904173, 45.1669], [-93.904525, 45.166973], [-93.904742, 45.167067], [-93.904797, 45.167181], [-93.904612, 45.167373], [-93.904263, 45.167471], [-93.903887, 45.167588], [-93.90335, 45.167688], [-93.902704, 45.16775], [-93.902353, 45.167696], [-93.902136, 45.16764], [-93.901756, 45.167415], [-93.901509, 45.167188], [-93.901209, 45.166923], [-93.900883, 45.166773], [-93.900479, 45.166757], [-93.900048, 45.16678], [-93.89975, 45.166725], [-93.899452, 45.166575], [-93.899071, 45.166368], [-93.898987, 45.16614], [-93.899174, 45.166062], [-93.899471, 45.166079], [-93.899823, 45.166191], [-93.900091, 45.166093], [-93.900249, 45.165901], [-93.900352, 45.165595], [-93.900158, 45.165235], [-93.899884, 45.164913], [-93.899581, 45.164515], [-93.899385, 45.164059], [-93.899133, 45.163451], [-93.898803, 45.163053], [-93.898532, 45.16296], [-93.898208, 45.162924], [-93.897886, 45.163003], [-93.897349, 45.163102], [-93.896757, 45.163183], [-93.896191, 45.163169], [-93.895759, 45.163134], [-93.895031, 45.163063], [-93.894438, 45.163068], [-93.893873, 45.163111], [-93.893281, 45.16323], [-93.892933, 45.163366], [-93.892453, 45.163655], [-93.891971, 45.16385], [-93.891569, 45.163986], [-93.891219, 45.164027], [-93.890894, 45.163935], [-93.890461, 45.163785], [-93.890002, 45.16377], [-93.889574, 45.163945], [-93.889198, 45.164062], [-93.888848, 45.164046], [-93.888551, 45.164048], [-93.888228, 45.164089], [-93.887826, 45.164206], [-93.887667, 45.164398], [-93.887456, 45.164667], [-93.887034, 45.165242], [-93.886799, 45.165778], [-93.886644, 45.166198], [-93.886435, 45.166581], [-93.886248, 45.166716], [-93.88606, 45.166775], [-93.885843, 45.166643], [-93.885624, 45.166473], [-93.885403, 45.166132], [-93.885153, 45.165638], [-93.885016, 45.165486], [-93.884827, 45.16545], [-93.884721, 45.165546], [-93.884617, 45.165833], [-93.884541, 45.166119], [-93.884578, 45.166767], [-93.884513, 45.167778], [-93.884446, 45.168675], [-93.884314, 45.168905], [-93.884131, 45.169211], [-93.883893, 45.169556], [-93.883548, 45.169883], [-93.88323, 45.170209], [-93.882962, 45.170326], [-93.882669, 45.170538], [-93.882537, 45.170768], [-93.88254, 45.170958], [-93.882624, 45.171148], [-93.882842, 45.17128], [-93.883032, 45.171393], [-93.883413, 45.171619], [-93.884065, 45.171957], [-93.884717, 45.172257], [-93.885232, 45.172444], [-93.885772, 45.172516], [-93.886257, 45.172531], [-93.886799, 45.172717], [-93.886962, 45.172811], [-93.886964, 45.172945], [-93.887047, 45.17304], [-93.887184, 45.173172], [-93.887079, 45.173363], [-93.886946, 45.173479], [-93.88657, 45.173577], [-93.886193, 45.17358], [-93.885466, 45.173624], [-93.884954, 45.173628], [-93.884548, 45.173536], [-93.883926, 45.173407], [-93.883195, 45.173184], [-93.882842, 45.173015], [-93.882758, 45.172863], [-93.882676, 45.172749], [-93.882241, 45.172543], [-93.881727, 45.172394], [-93.881024, 45.172266], [-93.880699, 45.172135], [-93.880372, 45.171947], [-93.880098, 45.171625], [-93.87947, 45.171096], [-93.879034, 45.170776], [-93.878353, 45.170323], [-93.877917, 45.170002], [-93.877643, 45.1697], [-93.877395, 45.169358], [-93.877068, 45.169132], [-93.876662, 45.169002], [-93.876417, 45.168889], [-93.87609, 45.168606], [-93.875979, 45.168454], [-93.876058, 45.16832], [-93.876271, 45.168166], [-93.87659, 45.16782], [-93.876716, 45.167285], [-93.876711, 45.166942], [-93.876732, 45.166561], [-93.876887, 45.16614], [-93.877307, 45.165393], [-93.877613, 45.165188], [-93.877794, 45.164887], [-93.878055, 45.164717], [-93.878241, 45.164753], [-93.878429, 45.16492], [-93.87859, 45.165106], [-93.878804, 45.165291], [-93.87899, 45.165364], [-93.879361, 45.16538], [-93.879675, 45.165172], [-93.879799, 45.164704], [-93.879662, 45.164289], [-93.879628, 45.163888], [-93.879536, 45.163127], [-93.879583, 45.162688], [-93.879686, 45.162363], [-93.879786, 45.161885], [-93.880074, 45.161311], [-93.880571, 45.160354], [-93.880778, 45.1598], [-93.880933, 45.159379], [-93.880899, 45.158922], [-93.880863, 45.158331], [-93.880803, 45.157931], [-93.880827, 45.157702], [-93.880959, 45.157549], [-93.881281, 45.15747], [-93.881792, 45.157371], [-93.882438, 45.157327], [-93.882895, 45.157248], [-93.883243, 45.15715], [-93.883509, 45.156919], [-93.883909, 45.156611], [-93.884202, 45.156418], [-93.88439, 45.156359], [-93.884633, 45.156433], [-93.884771, 45.156604], [-93.884935, 45.156793], [-93.885154, 45.156982], [-93.885561, 45.15717], [-93.886102, 45.15728], [-93.886667, 45.157276], [-93.887477, 45.157365], [-93.888151, 45.157359], [-93.888688, 45.157279], [-93.88955, 45.157253], [-93.889902, 45.157327], [-93.890362, 45.157438], [-93.89093, 45.157605], [-93.891497, 45.157696], [-93.891957, 45.157806], [-93.892229, 45.157957], [-93.892366, 45.158089], [-93.892504, 45.158298], [-93.892777, 45.158543], [-93.893132, 45.158827], [-93.893349, 45.15892], [-93.894024, 45.158991], [-93.894591, 45.159082], [-93.895452, 45.159018], [-93.896151, 45.158879], [-93.897036, 45.158605], [-93.897441, 45.158659], [-93.897579, 45.158868], [-93.897583, 45.159116], [-93.897612, 45.159268], [-93.897775, 45.159343], [-93.897777, 45.159458], [-93.897698, 45.159592], [-93.897591, 45.159669], [-93.897515, 45.159955], [-93.89752, 45.16026], [-93.897769, 45.160678], [-93.898152, 45.161075], [-93.898427, 45.161378], [-93.898999, 45.161793], [-93.899353, 45.162], [-93.899893, 45.16211], [-93.900297, 45.16205], [-93.900644, 45.161894], [-93.901126, 45.1617], [-93.901443, 45.161278], [-93.90152, 45.16103], [-93.901458, 45.160534], [-93.901479, 45.160153], [-93.901637, 45.159923], [-93.901905, 45.159787], [-93.902388, 45.159688], [-93.902819, 45.159647], [-93.903413, 45.159737], [-93.90412, 45.160113], [-93.904448, 45.160453], [-93.904829, 45.160679], [-93.905208, 45.160791], [-93.905588, 45.160978], [-93.90589, 45.161281], [-93.906142, 45.16187], [-93.906287, 45.162555], [-93.906267, 45.162956], [-93.906166, 45.163395], [-93.905877, 45.163893], [-93.905585, 45.164162], [-93.905639, 45.164143]]]}}, {"type": "Feature", "properties": {"depth_ft": 25.0, "lake": "Buffalo Lake", "dow": "86009000"}, "geometry": {"type": "Polygon", "coordinates": [[[-93.894507, 45.160589], [-93.895317, 45.160697], [-93.895965, 45.160806], [-93.896478, 45.16086], [-93.89707, 45.160817], [-93.897555, 45.160794], [-93.8978, 45.160944], [-93.897964, 45.161115], [-93.898238, 45.16138], [-93.898485, 45.161664], [-93.898866, 45.16187], [-93.899192, 45.162058], [-93.899545, 45.162208], [-93.89995, 45.162281], [-93.900219, 45.162279], [-93.900595, 45.162143], [-93.900865, 45.162236], [-93.901165, 45.162443], [-93.901279, 45.162805], [-93.901174, 45.162996], [-93.900855, 45.163265], [-93.900533, 45.163363], [-93.900748, 45.163304], [-93.900131, 45.1635], [-93.8997, 45.163522], [-93.899292, 45.163297], [-93.899073, 45.163051], [-93.898639, 45.162882], [-93.898341, 45.162809], [-93.897777, 45.162889], [-93.897023, 45.162933], [-93.896617, 45.16286], [-93.896239, 45.162768], [-93.895938, 45.162484], [-93.895746, 45.162295], [-93.895418, 45.162012], [-93.894927, 45.161596], [-93.894275, 45.161296], [-93.893787, 45.161109], [-93.893489, 45.160959], [-93.893352, 45.160827], [-93.89343, 45.160693], [-93.893914, 45.160594], [-93.894507, 45.160589]]]}}, {"type": "Feature", "properties": {"depth_ft": 30.0, "lake": "Buffalo Lake", "dow": "86009000"}, "geometry": {"type": "Polygon", "coordinates": [[[-93.896601, 45.161812], [-93.896867, 45.1616], [-93.897269, 45.161463], [-93.8977, 45.161422], [-93.898134, 45.16159], [-93.89865, 45.161872], [-93.899057, 45.162059], [-93.899221, 45.16223], [-93.899334, 45.162515], [-93.899313, 45.162718], [-93.899258, 45.162839], [-93.899151, 45.162898], [-93.898853, 45.162785], [-93.898285, 45.162637], [-93.897475, 45.162548], [-93.896989, 45.162495], [-93.896717, 45.162345], [-93.896523, 45.162022], [-93.896601, 45.161812]]]}}]}