{
  "type": "FeatureCollection",
  "features": [
    {
      "type": "Feature",
      "properties": {
        "lake": "Buffalo Lake",
        "depth_ft": 2.2,
        "color": "#a5d7f5",
        "weight": 1,
        "fill_opacity": 0.5,
        "line_opacity": 0.8
      },
      "geometry": {
        "type": "Polygon",
        "coordinates": [
          [
            [
              -94.228907,
              45.1972533
            ],
            [
              -94.2301518,
              45.1979447
            ],
            [
              -94.2314471,
              45.1985769
            ],
            [
              -94.2327806,
              45.1991438
            ],
            [
              -94.2341392,
              45.19964
            ],
            [
              -94.23551,
              45.2000607
            ],
            [
              -94.2368797,
              45.2004018
            ],
            [
              -94.2382352,
              45.2006601
            ],
            [
              -94.2395634,
              45.2008331
            ],
            [
              -94.2408515,
              45.2009191
            ],
            [
              -94.2420871,
              45.2009172
            ],
            [
              -94.2432582,
              45.2008276
            ],
            [
              -94.2443537,
              45.200651
            ],
            [
              -94.245363,
              45.2003892
            ],
            [
              -94.2462763,
              45.2000446
            ],
            [
              -94.2470849,
              45.1996207
            ],
            [
              -94.247781,
              45.1991214
            ],
            [
              -94.2483578,
              45.1985516
            ],
            [
              -94.2488098,
              45.1979168
            ],
            [
              -94.2491327,
              45.1972231
            ],
            [
              -94.2493233,
              45.1964772
            ],
            [
              -94.2493798,
              45.1956862
            ],
            [
              -94.2493017,
              45.1948578
            ],
            [
              -94.2490898,
              45.194
            ],
            [
              -94.2487459,
              45.1931209
            ],
            [
              -94.2482736,
              45.1922292
            ],
            [
              -94.2476773,
              45.1913333
            ],
            [
              -94.2469627,
              45.1904419
            ],
            [
              -94.2461368,
              45.1895636
            ],
            [
              -94.2452075,
              45.1887068
            ],
            [
              -94.2441837,
              45.1878798
            ],
            [
              -94.2430753,
              45.1870906
            ],
            [
              -94.241893,
              45.1863467
            ],
            [
              -94.2406482,
              45.1856553
            ],
            [
              -94.2393529,
              45.1850231
            ],
            [
              -94.2380194,
              45.1844562
            ],
            [
              -94.2366608,
              45.18396
            ],
            [
              -94.23529,
              45.1835393
            ],
            [
              -94.2339203,
              45.1831982
            ],
            [
              -94.2325648,
              45.1829399
            ],
            [
              -94.2312366,
              45.1827669
            ],
            [
              -94.2299485,
              45.1826809
            ],
            [
              -94.2287129,
              45.1826828
            ],
            [
              -94.2275418,
              45.1827724
            ],
            [
              -94.2264463,
              45.182949
            ],
            [
              -94.225437,
              45.1832108
            ],
            [
              -94.2245237,
              45.1835554
            ],
            [
              -94.2237151,
              45.1839793
            ],
            [
              -94.223019,
              45.1844786
            ],
            [
              -94.2224422,
              45.1850484
            ],
            [
              -94.2219902,
              45.1856832
            ],
            [
              -94.2216673,
              45.1863769
            ],
            [
              -94.2214767,
              45.1871228
            ],
            [
              -94.2214202,
              45.1879138
            ],
            [
              -94.2214983,
              45.1887422
            ],
            [
              -94.2217102,
              45.1896
            ],
            [
              -94.2220541,
              45.1904791
            ],
            [
              -94.2225264,
              45.1913708
            ],
            [
              -94.2231227,
              45.1922667
            ],
            [
              -94.2238373,
              45.1931581
            ],
            [
              -94.2246632,
              45.1940364
            ],
            [
              -94.2255925,
              45.1948932
            ],
            [
              -94.2266163,
              45.1957202
            ],
            [
              -94.2277247,
              45.1965094
            ],
            [
              -94.228907,
              45.1972533
            ]
          ]
        ]
      }
    },
    {
      "type": "Feature",
      "properties": {
        "lake": "Buffalo Lake",
        "depth_ft": 4.5,
        "color": "#84c6f2",
        "weight": 1,
        "fill_opacity": 0.5,
        "line_opacity": 0.8
      },
      "geometry": {
        "type": "Polygon",
        "coordinates": [
          [
            [
              -94.2296207,
              45.1966539
            ],
            [
              -94.2307287,
              45.1972692
            ],
            [
              -94.2318816,
              45.1978319
            ],
            [
              -94.2330685,
              45.1983365
            ],
            [
              -94.2342778,
              45.1987782
            ],
            [
              -94.2354979,
              45.1991526
            ],
            [
              -94.2367171,
              45.1994563
            ],
            [
              -94.2379236,
              45.1996862
            ],
            [
              -94.2391057,
              45.1998401
            ],
            [
              -94.2402522,
              45.1999167
            ],
            [
              -94.241352,
              45.199915
            ],
            [
              -94.2423944,
              45.1998352
            ],
            [
              -94.2433695,
              45.1996781
            ],
            [
              -94.2442678,
              45.199445
            ],
            [
              -94.2450808,
              45.1991383
            ],
            [
              -94.2458005,
              45.198761
            ],
            [
              -94.24642,
              45.1983166
            ],
            [
              -94.2469334,
              45.1978095
            ],
            [
              -94.2473357,
              45.1972444
            ],
            [
              -94.2476231,
              45.196627
            ],
            [
              -94.2477928,
              45.1959631
            ],
            [
              -94.2478431,
              45.195259
            ],
            [
              -94.2477736,
              45.1945217
            ],
            [
              -94.2475849,
              45.1937581
            ],
            [
              -94.2472789,
              45.1929757
            ],
            [
              -94.2468585,
              45.192182
            ],
            [
              -94.2463277,
              45.1913846
            ],
            [
              -94.2456917,
              45.1905912
            ],
            [
              -94.2449565,
              45.1898094
            ],
            [
              -94.2441294,
              45.1890468
            ],
            [
              -94.2432181,
              45.1883107
            ],
            [
              -94.2422316,
              45.1876082
            ],
            [
              -94.2411793,
              45.1869461
            ],
            [
              -94.2400713,
              45.1863308
            ],
            [
              -94.2389184,
              45.1857681
            ],
            [
              -94.2377315,
              45.1852635
            ],
            [
              -94.2365222,
              45.1848218
            ],
            [
              -94.2353021,
              45.1844474
            ],
            [
              -94.2340829,
              45.1841437
            ],
            [
              -94.2328764,
              45.1839138
            ],
            [
              -94.2316943,
              45.1837599
            ],
            [
              -94.2305478,
              45.1836833
            ],
            [
              -94.229448,
              45.183685
            ],
            [
              -94.2284056,
              45.1837648
            ],
            [
              -94.2274305,
              45.1839219
            ],
            [
              -94.2265322,
              45.184155
            ],
            [
              -94.2257192,
              45.1844617
            ],
            [
              -94.2249995,
              45.184839
            ],
            [
              -94.22438,
              45.1852834
            ],
            [
              -94.2238666,
              45.1857905
            ],
            [
              -94.2234643,
              45.1863556
            ],
            [
              -94.2231769,
              45.186973
            ],
            [
              -94.2230072,
              45.1876369
            ],
            [
              -94.2229569,
              45.188341
            ],
            [
              -94.2230264,
              45.1890783
            ],
            [
              -94.2232151,
              45.1898419
            ],
            [
              -94.2235211,
              45.1906243
            ],
            [
              -94.2239415,
              45.191418
            ],
            [
              -94.2244723,
              45.1922154
            ],
            [
              -94.2251083,
              45.1930088
            ],
            [
              -94.2258435,
              45.1937906
            ],
            [
              -94.2266706,
              45.1945532
            ],
            [
              -94.2275819,
              45.1952893
            ],
            [
              -94.2285684,
              45.1959918
            ],
            [
              -94.2296207,
              45.1966539
            ]
          ]
        ]
      }
    },
    {
      "type": "Feature",
      "properties": {
        "lake": "Buffalo Lake",
        "depth_ft": 6.8,
        "color": "#68b6ed",
        "weight": 1,
        "fill_opacity": 0.5,
        "line_opacity": 0.8
      },
      "geometry": {
        "type": "Polygon",
        "coordinates": [
          [
            [
              -94.2302707,
              45.196108
            ],
            [
              -94.2312541,
              45.1966541
            ],
            [
              -94.2322774,
              45.1971535
            ],
            [
              -94.2333307,
              45.1976014
            ],
            [
              -94.234404,
              45.1979934
            ],
            [
              -94.2354869,
              45.1983257
            ],
            [
              -94.2365689,
              45.1985952
            ],
            [
              -94.2376397,
              45.1987992
            ],
            [
              -94.238689,
              45.1989359
            ],
            [
              -94.2397065,
              45.1990038
            ],
            [
              -94.2406826,
              45.1990023
            ],
            [
              -94.2416078,
              45.1989315
            ],
            [
              -94.2424732,
              45.198792
            ],
            [
              -94.2432705,
              45.1985852
            ],
            [
              -94.243992,
              45.198313
            ],
            [
              -94.2446307,
              45.1979781
            ],
            [
              -94.2451806,
              45.1975837
            ],
            [
              -94.2456362,
              45.1971336
            ],
            [
              -94.2459933,
              45.1966321
            ],
            [
              -94.2462484,
              45.1960841
            ],
            [
              -94.246399,
              45.1954948
            ],
            [
              -94.2464436,
              45.19487
            ],
            [
              -94.2463819,
              45.1942156
            ],
            [
              -94.2462145,
              45.1935379
            ],
            [
              -94.2459429,
              45.1928435
            ],
            [
              -94.2455697,
              45.192139
            ],
            [
              -94.2450987,
              45.1914313
            ],
            [
              -94.2445342,
              45.1907271
            ],
            [
              -94.2438817,
              45.1900333
            ],
            [
              -94.2431476,
              45.1893565
            ],
            [
              -94.2423388,
              45.1887032
            ],
            [
              -94.2414633,
              45.1880797
            ],
            [
              -94.2405293,
              45.187492
            ],
            [
              -94.2395459,
              45.1869459
            ],
            [
              -94.2385226,
              45.1864465
            ],
            [
              -94.2374693,
              45.1859986
            ],
            [
              -94.236396,
              45.1856066
            ],
            [
              -94.2353131,
              45.1852743
            ],
            [
              -94.2342311,
              45.1850048
            ],
            [
              -94.2331603,
              45.1848008
            ],
            [
              -94.232111,
              45.1846641
            ],
            [
              -94.2310935,
              45.1845962
            ],
            [
              -94.2301174,
              45.1845977
            ],
            [
              -94.2291922,
              45.1846685
            ],
            [
              -94.2283268,
              45.184808
            ],
            [
              -94.2275295,
              45.1850148
            ],
            [
              -94.226808,
              45.185287
            ],
            [
              -94.2261693,
              45.1856219
            ],
            [
              -94.2256194,
              45.1860163
            ],
            [
              -94.2251638,
              45.1864664
            ],
            [
              -94.2248067,
              45.1869679
            ],
            [
              -94.2245516,
              45.1875159
            ],
            [
              -94.224401,
              45.1881052
            ],
            [
              -94.2243564,
              45.18873
            ],
            [
              -94.2244181,
              45.1893844
            ],
            [
              -94.2245855,
              45.1900621
            ],
            [
              -94.2248571,
              45.1907565
            ],
            [
              -94.2252303,
              45.191461
            ],
            [
              -94.2257013,
              45.1921687
            ],
            [
              -94.2262658,
              45.1928729
            ],
            [
              -94.2269183,
              45.1935667
            ],
            [
              -94.2276524,
              45.1942435
            ],
            [
              -94.2284612,
              45.1948968
            ],
            [
              -94.2293367,
              45.1955203
            ],
            [
              -94.2302707,
              45.196108
            ]
          ]
        ]
      }
    },
    {
      "type": "Feature",
      "properties": {
        "lake": "Buffalo Lake",
        "depth_ft": 9.0,
        "color": "#52a6e7",
        "weight": 1,
        "fill_opacity": 0.5,
        "line_opacity": 0.8
      },
      "geometry": {
        "type": "Polygon",
        "coordinates": [
          [
            [
              -94.2309141,
              45.1955676
            ],
            [
              -94.2317741,
              45.1960453
            ],
            [
              -94.232669,
              45.196482
            ],
            [
              -94.2335903,
              45.1968737
            ],
            [
              -94.2345289,
              45.1972165
            ],
            [
              -94.235476,
              45.1975072
            ],
            [
              -94.2364223,
              45.1977429
            ],
            [
              -94.2373588,
              45.1979213
            ],
            [
              -94.2382764,
              45.1980408
            ],
            [
              -94.2391663,
              45.1981002
            ],
            [
              -94.24002,
              45.1980989
            ],
            [
              -94.2408291,
              45.198037
            ],
            [
              -94.241586,
              45.197915
            ],
            [
              -94.2422833,
              45.1977341
            ],
            [
              -94.2429143,
              45.1974961
            ],
            [
              -94.2434729,
              45.1972032
            ],
            [
              -94.2439538,
              45.1968582
            ],
            [
              -94.2443523,
              45.1964646
            ],
            [
              -94.2446646,
              45.196026
            ],
            [
              -94.2448877,
              45.1955468
            ],
            [
              -94.2450194,
              45.1950314
            ],
            [
              -94.2450584,
              45.1944849
            ],
            [
              -94.2450045,
              45.1939126
            ],
            [
              -94.244858,
              45.1933199
            ],
            [
              -94.2446205,
              45.1927126
            ],
            [
              -94.2442942,
              45.1920965
            ],
            [
              -94.2438822,
              45.1914776
            ],
            [
              -94.2433885,
              45.1908617
            ],
            [
              -94.2428179,
              45.1902549
            ],
            [
              -94.2421758,
              45.189663
            ],
            [
              -94.2414685,
              45.1890916
            ],
            [
              -94.2407028,
              45.1885463
            ],
            [
              -94.2398859,
              45.1880324
            ],
            [
              -94.2390259,
              45.1875547
            ],
            [
              -94.238131,
              45.187118
            ],
            [
              -94.2372097,
              45.1867263
            ],
            [
              -94.2362711,
              45.1863835
            ],
            [
              -94.235324,
              45.1860928
            ],
            [
              -94.2343777,
              45.1858571
            ],
            [
              -94.2334412,
              45.1856787
            ],
            [
              -94.2325236,
              45.1855592
            ],
            [
              -94.2316337,
              45.1854998
            ],
            [
              -94.23078,
              45.1855011
            ],
            [
              -94.2299709,
              45.185563
            ],
            [
              -94.229214,
              45.185685
            ],
            [
              -94.2285167,
              45.1858659
            ],
            [
              -94.2278857,
              45.1861039
            ],
            [
              -94.2273271,
              45.1863968
            ],
            [
              -94.2268462,
              45.1867418
            ],
            [
              -94.2264477,
              45.1871354
            ],
            [
              -94.2261354,
              45.187574
            ],
            [
              -94.2259123,
              45.1880532
            ],
            [
              -94.2257806,
              45.1885686
            ],
            [
              -94.2257416,
              45.1891151
            ],
            [
              -94.2257955,
              45.1896874
            ],
            [
              -94.225942,
              45.1902801
            ],
            [
              -94.2261795,
              45.1908874
            ],
            [
              -94.2265058,
              45.1915035
            ],
            [
              -94.2269178,
              45.1921224
            ],
            [
              -94.2274115,
              45.1927383
            ],
            [
              -94.2279821,
              45.1933451
            ],
            [
              -94.2286242,
              45.193937
            ],
            [
              -94.2293315,
              45.1945084
            ],
            [
              -94.2300972,
              45.1950537
            ],
            [
              -94.2309141,
              45.1955676
            ]
          ]
        ]
      }
    },
    {
      "type": "Feature",
      "properties": {
        "lake": "Buffalo Lake",
        "depth_ft": 11.2,
        "color": "#3f93da",
        "weight": 1,
        "fill_opacity": 0.5,
        "line_opacity": 0.8
      },
      "geometry": {
        "type": "Polygon",
        "coordinates": [
          [
            [
              -94.2315877,
              45.1950018
            ],
            [
              -94.2323186,
              45.1954077
            ],
            [
              -94.2330791,
              45.1957789
            ],
            [
              -94.233862,
              45.1961118
            ],
            [
              -94.2346597,
              45.1964031
            ],
            [
              -94.2354646,
              45.1966501
            ],
            [
              -94.2362688,
              45.1968504
            ],
            [
              -94.2370646,
              45.1970021
            ],
            [
              -94.2378445,
              45.1971036
            ],
            [
              -94.2386007,
              45.1971541
            ],
            [
              -94.2393262,
              45.197153
            ],
            [
              -94.2400138,
              45.1971004
            ],
            [
              -94.240657,
              45.1969967
            ],
            [
              -94.2412496,
              45.196843
            ],
            [
              -94.2417859,
              45.1966407
            ],
            [
              -94.2422606,
              45.1963918
            ],
            [
              -94.2426693,
              45.1960986
            ],
            [
              -94.2430079,
              45.1957641
            ],
            [
              -94.2432733,
              45.1953914
            ],
            [
              -94.2434629,
              45.1949841
            ],
            [
              -94.2435748,
              45.1945461
            ],
            [
              -94.243608,
              45.1940817
            ],
            [
              -94.2435622,
              45.1935953
            ],
            [
              -94.2434377,
              45.1930917
            ],
            [
              -94.2432358,
              45.1925756
            ],
            [
              -94.2429585,
              45.192052
            ],
            [
              -94.2426084,
              45.191526
            ],
            [
              -94.2421888,
              45.1910026
            ],
            [
              -94.2417039,
              45.1904869
            ],
            [
              -94.2411583,
              45.1899839
            ],
            [
              -94.2405572,
              45.1894983
            ],
            [
              -94.2399064,
              45.1890349
            ],
            [
              -94.2392123,
              45.1885982
            ],
            [
              -94.2384814,
              45.1881923
            ],
            [
              -94.2377209,
              45.1878211
            ],
            [
              -94.236938,
              45.1874882
            ],
            [
              -94.2361403,
              45.1871969
            ],
            [
              -94.2353354,
              45.1869499
            ],
            [
              -94.2345312,
              45.1867496
            ],
            [
              -94.2337354,
              45.1865979
            ],
            [
              -94.2329555,
              45.1864964
            ],
            [
              -94.2321993,
              45.1864459
            ],
            [
              -94.2314738,
              45.186447
            ],
            [
              -94.2307862,
              45.1864996
            ],
            [
              -94.230143,
              45.1866033
            ],
            [
              -94.2295504,
              45.186757
            ],
            [
              -94.2290141,
              45.1869593
            ],
            [
              -94.2285394,
              45.1872082
            ],
            [
              -94.2281307,
              45.1875014
            ],
            [
              -94.2277921,
              45.1878359
            ],
            [
              -94.2275267,
              45.1882086
            ],
            [
              -94.2273371,
              45.1886159
            ],
            [
              -94.2272252,
              45.1890539
            ],
            [
              -94.227192,
              45.1895183
            ],
            [
              -94.2272378,
              45.1900047
            ],
            [
              -94.2273623,
              45.1905083
            ],
            [
              -94.2275642,
              45.1910244
            ],
            [
              -94.2278415,
              45.191548
            ],
            [
              -94.2281916,
              45.192074
            ],
            [
              -94.2286112,
              45.1925974
            ],
            [
              -94.2290961,
              45.1931131
            ],
            [
              -94.2296417,
              45.1936161
            ],
            [
              -94.2302428,
              45.1941017
            ],
            [
              -94.2308936,
              45.1945651
            ],
            [
              -94.2315877,
              45.1950018
            ]
          ]
        ]
      }
    },
    {
      "type": "Feature",
      "properties": {
        "lake": "Buffalo Lake",
        "depth_ft": 13.5,
        "color": "#3077bc",
        "weight": 1,
        "fill_opacity": 0.5,
        "line_opacity": 0.8
      },
      "geometry": {
        "type": "Polygon",
        "coordinates": [
          [
            [
              -94.2323379,
              45.1943718
            ],
            [
              -94.232925,
              45.1946978
            ],
            [
              -94.2335358,
              45.1949959
            ],
            [
              -94.2341647,
              45.1952633
            ],
            [
              -94.2348054,
              45.1954973
            ],
            [
              -94.2354519,
              45.1956957
            ],
            [
              -94.2360978,
              45.1958566
            ],
            [
              -94.2367371,
              45.1959784
            ],
            [
              -94.2373634,
              45.19606
            ],
            [
              -94.2379709,
              45.1961005
            ],
            [
              -94.2385536,
              45.1960996
            ],
            [
              -94.2391059,
              45.1960574
            ],
            [
              -94.2396225,
              45.1959741
            ],
            [
              -94.2400985,
              45.1958506
            ],
            [
              -94.2405292,
              45.1956881
            ],
            [
              -94.2409106,
              45.1954882
            ],
            [
              -94.2412388,
              45.1952527
            ],
            [
              -94.2415108,
              45.194984
            ],
            [
              -94.241724,
              45.1946847
            ],
            [
              -94.2418763,
              45.1943575
            ],
            [
              -94.2419662,
              45.1940057
            ],
            [
              -94.2419928,
              45.1936327
            ],
            [
              -94.241956,
              45.1932421
            ],
            [
              -94.241856,
              45.1928375
            ],
            [
              -94.2416939,
              45.1924229
            ],
            [
              -94.2414711,
              45.1920024
            ],
            [
              -94.2411899,
              45.1915799
            ],
            [
              -94.2408529,
              45.1911595
            ],
            [
              -94.2404634,
              45.1907453
            ],
            [
              -94.2400252,
              45.1903413
            ],
            [
              -94.2395423,
              45.1899513
            ],
            [
              -94.2390196,
              45.1895791
            ],
            [
              -94.2384621,
              45.1892282
            ],
            [
              -94.237875,
              45.1889022
            ],
            [
              -94.2372642,
              45.1886041
            ],
            [
              -94.2366353,
              45.1883367
            ],
            [
              -94.2359946,
              45.1881027
            ],
            [
              -94.2353481,
              45.1879043
            ],
            [
              -94.2347022,
              45.1877434
            ],
            [
              -94.2340629,
              45.1876216
            ],
            [
              -94.2334366,
              45.18754
            ],
            [
              -94.2328291,
              45.1874995
            ],
            [
              -94.2322464,
              45.1875004
            ],
            [
              -94.2316941,
              45.1875426
            ],
            [
              -94.2311775,
              45.1876259
            ],
            [
              -94.2307015,
              45.1877494
            ],
            [
              -94.2302708,
              45.1879119
            ],
            [
              -94.2298894,
              45.1881118
            ],
            [
              -94.2295612,
              45.1883473
            ],
            [
              -94.2292892,
              45.188616
            ],
            [
              -94.229076,
              45.1889153
            ],
            [
              -94.2289237,
              45.1892425
            ],
            [
              -94.2288338,
              45.1895943
            ],
            [
              -94.2288072,
              45.1899673
            ],
            [
              -94.228844,
              45.1903579
            ],
            [
              -94.228944,
              45.1907625
            ],
            [
              -94.2291061,
              45.1911771
            ],
            [
              -94.2293289,
              45.1915976
            ],
            [
              -94.2296101,
              45.1920201
            ],
            [
              -94.2299471,
              45.1924405
            ],
            [
              -94.2303366,
              45.1928547
            ],
            [
              -94.2307748,
              45.1932587
            ],
            [
              -94.2312577,
              45.1936487
            ],
            [
              -94.2317804,
              45.1940209
            ],
            [
              -94.2323379,
              45.1943718
            ]
          ]
        ]
      }
    },
    {
      "type": "Feature",
      "properties": {
        "lake": "Buffalo Lake",
        "depth_ft": 15.8,
        "color": "#245790",
        "weight": 1,
        "fill_opacity": 0.5,
        "line_opacity": 0.8
      },
      "geometry": {
        "type": "Polygon",
        "coordinates": [
          [
            [
              -94.2332661,
              45.1935922
            ],
            [
              -94.2336752,
              45.1938195
            ],
            [
              -94.2341009,
              45.1940272
            ],
            [
              -94.2345391,
              45.1942135
            ],
            [
              -94.2349856,
              45.1943766
            ],
            [
              -94.2354362,
              45.1945149
            ],
            [
              -94.2358863,
              45.194627
            ],
            [
              -94.2363318,
              45.1947119
            ],
            [
              -94.2367683,
              45.1947687
            ],
            [
              -94.2371916,
              45.194797
            ],
            [
              -94.2375977,
              45.1947964
            ],
            [
              -94.2379826,
              45.1947669
            ],
            [
              -94.2383427,
              45.1947089
            ],
            [
              -94.2386744,
              45.1946228
            ],
            [
              -94.2389745,
              45.1945096
            ],
            [
              -94.2392403,
              45.1943703
            ],
            [
              -94.239469,
              45.1942062
            ],
            [
              -94.2396586,
              45.1940189
            ],
            [
              -94.2398071,
              45.1938103
            ],
            [
              -94.2399133,
              45.1935823
            ],
            [
              -94.2399759,
              45.1933372
            ],
            [
              -94.2399945,
              45.1930772
            ],
            [
              -94.2399688,
              45.192805
            ],
            [
              -94.2398992,
              45.192523
            ],
            [
              -94.2397862,
              45.1922341
            ],
            [
              -94.2396309,
              45.191941
            ],
            [
              -94.2394349,
              45.1916466
            ],
            [
              -94.2392001,
              45.1913537
            ],
            [
              -94.2389287,
              45.191065
            ],
            [
              -94.2386232,
              45.1907834
            ],
            [
              -94.2382868,
              45.1905116
            ],
            [
              -94.2379225,
              45.1902522
            ],
            [
              -94.2375339,
              45.1900078
            ],
            [
              -94.2371248,
              45.1897805
            ],
            [
              -94.2366991,
              45.1895728
            ],
            [
              -94.2362609,
              45.1893865
            ],
            [
              -94.2358144,
              45.1892234
            ],
            [
              -94.2353638,
              45.1890851
            ],
            [
              -94.2349137,
              45.188973
            ],
            [
              -94.2344682,
              45.1888881
            ],
            [
              -94.2340317,
              45.1888313
            ],
            [
              -94.2336084,
              45.188803
            ],
            [
              -94.2332023,
              45.1888036
            ],
            [
              -94.2328174,
              45.1888331
            ],
            [
              -94.2324573,
              45.1888911
            ],
            [
              -94.2321256,
              45.1889772
            ],
            [
              -94.2318255,
              45.1890904
            ],
            [
              -94.2315597,
              45.1892297
            ],
            [
              -94.231331,
              45.1893938
            ],
            [
              -94.2311414,
              45.1895811
            ],
            [
              -94.2309929,
              45.1897897
            ],
            [
              -94.2308867,
              45.1900177
            ],
            [
              -94.2308241,
              45.1902628
            ],
            [
              -94.2308055,
              45.1905228
            ],
            [
              -94.2308312,
              45.190795
            ],
            [
              -94.2309008,
              45.191077
            ],
            [
              -94.2310138,
              45.1913659
            ],
            [
              -94.2311691,
              45.191659
            ],
            [
              -94.2313651,
              45.1919534
            ],
            [
              -94.2315999,
              45.1922463
            ],
            [
              -94.2318713,
              45.192535
            ],
            [
              -94.2321768,
              45.1928166
            ],
            [
              -94.2325132,
              45.1930884
            ],
            [
              -94.2328775,
              45.1933478
            ],
            [
              -94.2332661,
              45.1935922
            ]
          ]
        ]
      }
    }
  ]
}