{"type": "FeatureCollection", "features": [{"type": "Feature", "properties": {"depth_ft": 0.0, "lake": "Cedar Lake", "dow": "86022700"}, "geometry": {"type": "Polygon", "coordinates": [[[-94.062112, 45.251171], [-94.062666, 45.252018], [-94.062915, 45.252409], [-94.063127, 45.252865], [-94.063301, 45.253218], [-94.063468, 45.253242], [-94.063769, 45.253449], [-94.064328, 45.253575], [-94.06468, 45.253506], [-94.065518, 45.253695], [-94.06617, 45.253807], [-94.066565, 45.254092], [-94.067018, 45.254507], [-94.067306, 45.254976], [-94.067315, 45.255474], [-94.067338, 45.255723], [-94.067361, 45.255972], [-94.067331, 45.256339], [-94.067134, 45.256695], [-94.066973, 45.257024], [-94.066813, 45.257406], [-94.066764, 45.257747], [-94.066919, 45.2581], [-94.067317, 45.258555], [-94.067584, 45.258932], [-94.067911, 45.259559], [-94.067919, 45.259965], [-94.067688, 45.260544], [-94.067476, 45.261123], [-94.067205, 45.261518], [-94.066856, 45.261692], [-94.065933, 45.261989], [-94.065009, 45.262207], [-94.064326, 45.262397], [-94.065105, 45.262377], [-94.065571, 45.262451], [-94.066167, 45.262577], [-94.066746, 45.262755], [-94.067141, 45.26304], [-94.067482, 45.263377], [-94.067601, 45.263796], [-94.067703, 45.264306], [-94.067559, 45.26453], [-94.067657, 45.264791], [-94.067144, 45.265176], [-94.066794, 45.265311], [-94.066588, 45.265221], [-94.066295, 45.265433], [-94.066395, 45.265799], [-94.066761, 45.266556], [-94.066972, 45.266921], [-94.067186, 45.267444], [-94.067263, 45.267561], [-94.067266, 45.267744], [-94.067253, 45.26802], [-94.067537, 45.268319], [-94.068102, 45.268733], [-94.068498, 45.269103], [-94.068876, 45.26944], [-94.069068, 45.269766], [-94.069486, 45.27026], [-94.069995, 45.270675], [-94.070576, 45.27101], [-94.071597, 45.271971], [-94.072444, 45.272579], [-94.072743, 45.272701], [-94.073345, 45.273088], [-94.073962, 45.273318], [-94.074618, 45.273679], [-94.075197, 45.27387], [-94.075554, 45.274064], [-94.075938, 45.274742], [-94.076248, 45.275434], [-94.076499, 45.275969], [-94.076839, 45.276241], [-94.07742, 45.27655], [-94.077834, 45.276834], [-94.077842, 45.277241], [-94.077889, 45.277778], [-94.077329, 45.278583], [-94.076708, 45.279139], [-94.075534, 45.279884], [-94.074599, 45.280509], [-94.073605, 45.281003], [-94.072426, 45.281506], [-94.070525, 45.282101], [-94.068694, 45.282511], [-94.066935, 45.282777], [-94.065304, 45.282929], [-94.064562, 45.282949], [-94.063687, 45.282853], [-94.063145, 45.282635], [-94.062802, 45.282179], [-94.062497, 45.281763], [-94.062233, 45.28151], [-94.061876, 45.281303], [-94.061457, 45.28077], [-94.060797, 45.280186], [-94.060081, 45.279668], [-94.059443, 45.279281], [-94.058995, 45.279154], [-94.058527, 45.278975], [-94.05821, 45.278873], [-94.05789, 45.278653], [-94.057645, 45.278432], [-94.057586, 45.278269], [-94.057528, 45.278152], [-94.05704, 45.277855], [-94.056363, 45.277415], [-94.055983, 45.276907], [-94.055932, 45.276161], [-94.055956, 45.275492], [-94.056348, 45.274571], [-94.056707, 45.273912], [-94.05782, 45.273875], [-94.057948, 45.273796], [-94.05813, 45.273597], [-94.058428, 45.273621], [-94.058588, 45.273265], [-94.058763, 45.272648], [-94.058932, 45.271768], [-94.059028, 45.270954], [-94.059019, 45.270456], [-94.058858, 45.269815], [-94.058587, 45.269215], [-94.058409, 45.268627], [-94.058399, 45.268076], [-94.058388, 45.267473], [-94.058083, 45.26703], [-94.058094, 45.26665], [-94.057734, 45.266234], [-94.057649, 45.265645], [-94.057474, 45.265266], [-94.057374, 45.264835], [-94.05729, 45.264324], [-94.057168, 45.263762], [-94.057008, 45.263121], [-94.057019, 45.262714], [-94.057139, 45.262176], [-94.057432, 45.261963], [-94.058112, 45.261603], [-94.058567, 45.261153], [-94.058801, 45.260718], [-94.058741, 45.260496], [-94.058585, 45.260104], [-94.058482, 45.259528], [-94.058584, 45.259056], [-94.058948, 45.258659], [-94.059549, 45.25805], [-94.059451, 45.25775], [-94.05926, 45.257476], [-94.05866, 45.257154], [-94.058269, 45.257105], [-94.0581, 45.256963], [-94.058075, 45.256648], [-94.058083, 45.256032], [-94.058003, 45.255758], [-94.058238, 45.255415], [-94.058586, 45.255162], [-94.058469, 45.254836], [-94.058385, 45.254325], [-94.057845, 45.254252], [-94.057451, 45.254019], [-94.057097, 45.253957], [-94.056963, 45.253696], [-94.056978, 45.253512], [-94.057045, 45.253119], [-94.057394, 45.252932], [-94.058151, 45.252715], [-94.058523, 45.252751], [-94.05886, 45.252931], [-94.058994, 45.25314], [-94.058998, 45.25335], [-94.059167, 45.253492], [-94.059391, 45.253542], [-94.059667, 45.253396], [-94.060035, 45.253261], [-94.060086, 45.252972], [-94.059684, 45.252321], [-94.059585, 45.251994], [-94.059489, 45.251837], [-94.059577, 45.251588], [-94.059774, 45.251179], [-94.059728, 45.250682], [-94.059538, 45.250447], [-94.059513, 45.250133], [-94.059615, 45.249634], [-94.059611, 45.249385], [-94.059536, 45.249333], [-94.059588, 45.249136], [-94.059808, 45.249003], [-94.060136, 45.248672], [-94.060726, 45.248496], [-94.061171, 45.248479], [-94.061322, 45.248596], [-94.061436, 45.248752], [-94.061552, 45.249], [-94.06165, 45.249248], [-94.061693, 45.249602], [-94.061777, 45.250112], [-94.062004, 45.250359], [-94.062112, 45.251171]]]}}, {"type": "Feature", "properties": {"depth_ft": 100.0, "lake": "Cedar Lake", "dow": "86022700"}, "geometry": {"type": "Polygon", "coordinates": [[[-94.066175, 45.273118], [-94.065858, 45.272684], [-94.065693, 45.27215], [-94.065732, 45.271756], [-94.065884, 45.271612], [-94.066055, 45.271633], [-94.066212, 45.271762], [-94.066563, 45.272305], [-94.06671, 45.27273], [-94.066623, 45.27307], [-94.066472, 45.273257], [-94.066333, 45.273269], [-94.066175, 45.273118]]]}}, {"type": "Feature", "properties": {"depth_ft": 80.0, "lake": "Cedar Lake", "dow": "86022700"}, "geometry": {"type": "Polygon", "coordinates": [[[-94.067843, 45.272884], [-94.06751, 45.274143], [-94.067255, 45.274539], [-94.066902, 45.274717], [-94.066561, 45.27472], [-94.065969, 45.274475], [-94.065824, 45.274203], [-94.06546, 45.273747], [-94.065015, 45.273118], [-94.064745, 45.27276], [-94.064683, 45.271919], [-94.064609, 45.270477], [-94.064497, 45.270281], [-94.064309, 45.270141], [-94.063999, 45.270122], [-94.063597, 45.270158], [-94.063287, 45.270101], [-94.062873, 45.269504], [-94.06264, 45.268621], [-94.062692, 45.268085], [-94.062946, 45.267602], [-94.063219, 45.267272], [-94.063556, 45.267083], [-94.063755, 45.266982], [-94.06408, 45.266996], [-94.064346, 45.267135], [-94.064519, 45.267298], [-94.065119, 45.268746], [-94.065438, 45.269273], [-94.065645, 45.269566], [-94.066071, 45.27001], [-94.066641, 45.270726], [-94.067293, 45.271648], [-94.067736, 45.272141], [-94.067884, 45.272599], [-94.067843, 45.272884]]]}}, {"type": "Feature", "properties": {"depth_ft": 60.0, "lake": "Cedar Lake", "dow": "86022700"}, "geometry": {"type": "Polygon", "coordinates": [[[-94.06792, 45.274544], [-94.066781, 45.276511], [-94.066463, 45.276896], [-94.065589, 45.277341], [-94.064667, 45.277721], [-94.064359, 45.277757], [-94.063681, 45.277949], [-94.063279, 45.277953], [-94.062844, 45.277859], [-94.062391, 45.277655], [-94.061953, 45.277419], [-94.061371, 45.276889], [-94.061149, 45.27665], [-94.061068, 45.276411], [-94.06117, 45.276104], [-94.061442, 45.27573], [-94.061779, 45.275541], [-94.062531, 45.275206], [-94.063546, 45.274836], [-94.063693, 45.27443], [-94.06394, 45.274428], [-94.064205, 45.274502], [-94.064577, 45.274542], [-94.064854, 45.274452], [-94.064881, 45.274244], [-94.064656, 45.273777], [-94.064164, 45.273169], [-94.063787, 45.272834], [-94.0638, 45.272714], [-94.063967, 45.272537], [-94.064056, 45.272318], [-94.064033, 45.27193], [-94.063904, 45.271658], [-94.063746, 45.271485], [-94.062981, 45.27112], [-94.062215, 45.270701], [-94.061759, 45.270334], [-94.061568, 45.270063], [-94.061514, 45.269626], [-94.061657, 45.269007], [-94.062263, 45.267461], [-94.062637, 45.266802], [-94.062925, 45.266471], [-94.063382, 45.26609], [-94.063888, 45.265834], [-94.064027, 45.265822], [-94.064214, 45.265885], [-94.064497, 45.266112], [-94.064645, 45.266581], [-94.064681, 45.266865], [-94.065039, 45.267779], [-94.065297, 45.268334], [-94.065645, 45.268757], [-94.06618, 45.269211], [-94.067124, 45.270049], [-94.067581, 45.270471], [-94.068161, 45.270881], [-94.068568, 45.271139], [-94.069104, 45.271648], [-94.069297, 45.27205], [-94.069226, 45.27239], [-94.068959, 45.27301], [-94.068388, 45.2739], [-94.068161, 45.274186], [-94.06792, 45.274544]]]}}, {"type": "Feature", "properties": {"depth_ft": 40.0, "lake": "Cedar Lake", "dow": "86022700"}, "geometry": {"type": "Polygon", "coordinates": [[[-94.069838, 45.271985], [-94.069469, 45.272972], [-94.069185, 45.273478], [-94.068699, 45.273996], [-94.06852, 45.274336], [-94.068633, 45.274565], [-94.069102, 45.274855], [-94.070287, 45.275314], [-94.071813, 45.275775], [-94.072201, 45.275837], [-94.072763, 45.276116], [-94.073094, 45.276419], [-94.073272, 45.27681], [-94.073184, 45.277074], [-94.072741, 45.277384], [-94.071988, 45.277697], [-94.070543, 45.278213], [-94.068297, 45.278961], [-94.067666, 45.279152], [-94.067078, 45.279169], [-94.066473, 45.279087], [-94.065929, 45.278961], [-94.065449, 45.278976], [-94.065019, 45.279122], [-94.064667, 45.279377], [-94.06435, 45.279773], [-94.064078, 45.280158], [-94.063863, 45.280248], [-94.063476, 45.280251], [-94.063273, 45.280144], [-94.063239, 45.27997], [-94.063464, 45.279607], [-94.063579, 45.279103], [-94.063373, 45.278854], [-94.062715, 45.278444], [-94.061257, 45.277436], [-94.060804, 45.277189], [-94.06044, 45.27681], [-94.060171, 45.276452], [-94.060086, 45.276059], [-94.060206, 45.275872], [-94.060728, 45.275649], [-94.061481, 45.275358], [-94.062277, 45.274864], [-94.062672, 45.274489], [-94.062791, 45.274237], [-94.062613, 45.273812], [-94.06201, 45.272998], [-94.061721, 45.272433], [-94.061457, 45.271566], [-94.061316, 45.270628], [-94.061301, 45.26983], [-94.061398, 45.269245], [-94.06175, 45.268159], [-94.062213, 45.267281], [-94.062905, 45.266247], [-94.063459, 45.265253], [-94.063942, 45.264582], [-94.064156, 45.264438], [-94.064342, 45.264447], [-94.064483, 45.264555], [-94.064581, 45.264838], [-94.064538, 45.264992], [-94.064484, 45.26544], [-94.064536, 45.265735], [-94.064987, 45.26667], [-94.065497, 45.267463], [-94.066175, 45.268113], [-94.066683, 45.268807], [-94.067425, 45.269615], [-94.067851, 45.270026], [-94.068448, 45.270523], [-94.068967, 45.270922], [-94.069329, 45.271291], [-94.069755, 45.271702], [-94.06985, 45.271794], [-94.069838, 45.271985]]]}}, {"type": "Feature", "properties": {"depth_ft": 20.0, "lake": "Cedar Lake", "dow": "86022700"}, "geometry": {"type": "Polygon", "coordinates": [[[-94.069972, 45.271694], [-94.070568, 45.272978], [-94.071207, 45.274032], [-94.071606, 45.27464], [-94.071828, 45.274928], [-94.072391, 45.275229], [-94.07333, 45.275777], [-94.074255, 45.276446], [-94.074539, 45.276727], [-94.074684, 45.277032], [-94.074583, 45.277383], [-94.07437, 45.277592], [-94.073587, 45.277922], [-94.072066, 45.278526], [-94.07113, 45.278972], [-94.070412, 45.279504], [-94.069777, 45.280285], [-94.069382, 45.280693], [-94.068969, 45.280954], [-94.067921, 45.281172], [-94.067086, 45.281245], [-94.066157, 45.281232], [-94.065039, 45.281056], [-94.063626, 45.280775], [-94.062723, 45.280537], [-94.062394, 45.280333], [-94.062158, 45.280083], [-94.062077, 45.279909], [-94.062101, 45.279516], [-94.061954, 45.279113], [-94.061604, 45.278624], [-94.060799, 45.27779], [-94.060025, 45.276918], [-94.059674, 45.276386], [-94.059651, 45.27597], [-94.059798, 45.275554], [-94.060117, 45.275245], [-94.060501, 45.275088], [-94.060948, 45.274986], [-94.061594, 45.274783], [-94.061977, 45.274567], [-94.062082, 45.274347], [-94.061844, 45.274043], [-94.061417, 45.273588], [-94.061256, 45.273229], [-94.06113, 45.272301], [-94.061048, 45.271226], [-94.060889, 45.270156], [-94.060927, 45.269675], [-94.061268, 45.26888], [-94.061982, 45.267343], [-94.062505, 45.266344], [-94.062627, 45.265397], [-94.062664, 45.264938], [-94.063128, 45.264092], [-94.06361, 45.263378], [-94.063823, 45.263179], [-94.064302, 45.263142], [-94.064753, 45.263247], [-94.0653, 45.263559], [-94.065479, 45.263994], [-94.065913, 45.264886], [-94.066094, 45.265453], [-94.066094, 45.266305], [-94.066245, 45.266916], [-94.066631, 45.26771], [-94.067094, 45.268448], [-94.067601, 45.269067], [-94.068357, 45.269775], [-94.068926, 45.270426], [-94.069449, 45.271044], [-94.069972, 45.271694]]]}}, {"type": "Feature", "properties": {"depth_ft": 100.0, "lake": "Cedar Lake", "dow": "86022700"}, "geometry": {"type": "Polygon", "coordinates": [[[-94.06353, 45.269034], [-94.063458, 45.268477], [-94.063557, 45.267973], [-94.063723, 45.267786], [-94.06397, 45.267718], [-94.064126, 45.267793], [-94.06435, 45.268173], [-94.064386, 45.268435], [-94.064453, 45.268752], [-94.064379, 45.268938], [-94.063965, 45.269139], [-94.063688, 45.269185], [-94.06353, 45.269034]]]}}, {"type": "Feature", "properties": {"depth_ft": 40.0, "lake": "Cedar Lake", "dow": "86022700"}, "geometry": {"type": "Polygon", "coordinates": [[[-94.063858, 45.26079], [-94.062481, 45.260724], [-94.061479, 45.260799], [-94.060256, 45.260981], [-94.059978, 45.26101], [-94.059789, 45.260841], [-94.059615, 45.260501], [-94.059586, 45.259937], [-94.059615, 45.259465], [-94.05983, 45.259069], [-94.060284, 45.258474], [-94.060813, 45.257957], [-94.061028, 45.257522], [-94.061032, 45.256722], [-94.061272, 45.255656], [-94.061485, 45.255129], [-94.061709, 45.254984], [-94.061858, 45.255004], [-94.062069, 45.255159], [-94.062165, 45.255505], [-94.062453, 45.255838], [-94.062739, 45.256014], [-94.063038, 45.256116], [-94.063499, 45.256102], [-94.063959, 45.256055], [-94.06454, 45.256113], [-94.064988, 45.256245], [-94.065364, 45.256494], [-94.065579, 45.256859], [-94.065677, 45.257299], [-94.065724, 45.258249], [-94.065788, 45.25849], [-94.066063, 45.258886], [-94.066281, 45.259399], [-94.06635, 45.259923], [-94.066281, 45.260207], [-94.065988, 45.260456], [-94.06534, 45.260756], [-94.064494, 45.260838], [-94.064182, 45.26083], [-94.063858, 45.26079]]]}}, {"type": "Feature", "properties": {"depth_ft": 20.0, "lake": "Cedar Lake", "dow": "86022700"}, "geometry": {"type": "Polygon", "coordinates": [[[-94.066981, 45.260258], [-94.066927, 45.260584], [-94.066653, 45.261007], [-94.066063, 45.261264], [-94.065162, 45.261556], [-94.064243, 45.261701], [-94.062521, 45.261875], [-94.061467, 45.261926], [-94.060365, 45.261832], [-94.05974, 45.26179], [-94.059295, 45.261878], [-94.059044, 45.261965], [-94.058901, 45.26227], [-94.058848, 45.262628], [-94.059132, 45.263497], [-94.059302, 45.263831], [-94.059305, 45.263978], [-94.059144, 45.264127], [-94.058934, 45.264013], [-94.058494, 45.263555], [-94.058356, 45.263325], [-94.058097, 45.262981], [-94.057865, 45.262511], [-94.05792, 45.262269], [-94.058164, 45.261794], [-94.058777, 45.261201], [-94.059168, 45.260609], [-94.059245, 45.259958], [-94.059513, 45.25922], [-94.060002, 45.258328], [-94.06035, 45.257853], [-94.060445, 45.257358], [-94.060449, 45.256781], [-94.060282, 45.255759], [-94.060354, 45.254866], [-94.060549, 45.254171], [-94.060663, 45.253094], [-94.060743, 45.25261], [-94.060873, 45.252378], [-94.061139, 45.252312], [-94.061318, 45.252353], [-94.061501, 45.252582], [-94.061731, 45.252968], [-94.062048, 45.253259], [-94.062454, 45.253466], [-94.063008, 45.253681], [-94.064831, 45.25421], [-94.065205, 45.254353], [-94.065477, 45.254561], [-94.065705, 45.254863], [-94.0661, 45.256077], [-94.066356, 45.257057], [-94.066605, 45.25843], [-94.066674, 45.258985], [-94.066908, 45.25954], [-94.06699, 45.259964], [-94.066981, 45.260258]]]}}]}