{
  "type": "FeatureCollection",
  "features": [
    {
      "type": "Feature",
      "properties": {
        "lake": "Clearwater",
        "depth_ft": 9.1,
        "color": "#a5d7f5",
        "weight": 1,
        "fill_opacity": 0.5,
        "line_opacity": 0.8
      },
      "geometry": {
        "type": "Polygon",
        "coordinates": [
          [
            [
              -94.0994238,
              45.3129056
            ],
            [
              -94.1010186,
              45.3147
            ],
            [
              -94.1027808,
              45.3164028
            ],
            [
              -94.1046934,
              45.3179978
            ],
            [
              -94.106738,
              45.3194695
            ],
            [
              -94.1088949,
              45.3208038
            ],
            [
              -94.1111434,
              45.3219879
            ],
            [
              -94.1134617,
              45.3230102
            ],
            [
              -94.1158276,
              45.3238611
            ],
            [
              -94.1182183,
              45.3245322
            ],
            [
              -94.1206107,
              45.3250171
            ],
            [
              -94.1229818,
              45.3253112
            ],
            [
              -94.1253088,
              45.3254116
            ],
            [
              -94.1275693,
              45.3253174
            ],
            [
              -94.1297415,
              45.3250294
            ],
            [
              -94.1318044,
              45.3245504
            ],
            [
              -94.1337382,
              45.3238851
            ],
            [
              -94.1355244,
              45.3230399
            ],
            [
              -94.1371456,
              45.3220228
            ],
            [
              -94.1385863,
              45.3208437
            ],
            [
              -94.1398326,
              45.319514
            ],
            [
              -94.1408724,
              45.3180464
            ],
            [
              -94.1416959,
              45.3164551
            ],
            [
              -94.142295,
              45.3147554
            ],
            [
              -94.142664,
              45.3129637
            ],
            [
              -94.1427993,
              45.3110972
            ],
            [
              -94.1426996,
              45.3091739
            ],
            [
              -94.1423659,
              45.3072124
            ],
            [
              -94.1418014,
              45.3052314
            ],
            [
              -94.1410115,
              45.3032502
            ],
            [
              -94.1400039,
              45.3012877
            ],
            [
              -94.1387882,
              45.299363
            ],
            [
              -94.1373762,
              45.2974944
            ],
            [
              -94.1357814,
              45.2957
            ],
            [
              -94.1340192,
              45.2939972
            ],
            [
              -94.1321066,
              45.2924022
            ],
            [
              -94.130062,
              45.2909305
            ],
            [
              -94.1279051,
              45.2895962
            ],
            [
              -94.1256566,
              45.2884121
            ],
            [
              -94.1233383,
              45.2873898
            ],
            [
              -94.1209724,
              45.2865389
            ],
            [
              -94.1185817,
              45.2858678
            ],
            [
              -94.1161893,
              45.2853829
            ],
            [
              -94.1138182,
              45.2850888
            ],
            [
              -94.1114912,
              45.2849884
            ],
            [
              -94.1092307,
              45.2850826
            ],
            [
              -94.1070585,
              45.2853706
            ],
            [
              -94.1049956,
              45.2858496
            ],
            [
              -94.1030618,
              45.2865149
            ],
            [
              -94.1012756,
              45.2873601
            ],
            [
              -94.0996544,
              45.2883772
            ],
            [
              -94.0982137,
              45.2895563
            ],
            [
              -94.0969674,
              45.290886
            ],
            [
              -94.0959276,
              45.2923536
            ],
            [
              -94.0951041,
              45.2939449
            ],
            [
              -94.094505,
              45.2956446
            ],
            [
              -94.094136,
              45.2974363
            ],
            [
              -94.0940007,
              45.2993028
            ],
            [
              -94.0941004,
              45.3012261
            ],
            [
              -94.0944341,
              45.3031876
            ],
            [
              -94.0949986,
              45.3051686
            ],
            [
              -94.0957885,
              45.3071498
            ],
            [
              -94.0967961,
              45.3091123
            ],
            [
              -94.0980118,
              45.311037
            ],
            [
              -94.0994238,
              45.3129056
            ]
          ]
        ]
      }
    },
    {
      "type": "Feature",
      "properties": {
        "lake": "Clearwater",
        "depth_ft": 18.2,
        "color": "#84c6f2",
        "weight": 1,
        "fill_opacity": 0.5,
        "line_opacity": 0.8
      },
      "geometry": {
        "type": "Polygon",
        "coordinates": [
          [
            [
              -94.1015098,
              45.3120586
            ],
            [
              -94.1029293,
              45.3136557
            ],
            [
              -94.1044977,
              45.3151714
            ],
            [
              -94.1062001,
              45.316591
            ],
            [
              -94.1080199,
              45.317901
            ],
            [
              -94.1099398,
              45.3190886
            ],
            [
              -94.1119411,
              45.3201425
            ],
            [
              -94.1140046,
              45.3210524
            ],
            [
              -94.1161104,
              45.3218097
            ],
            [
              -94.1182383,
              45.3224071
            ],
            [
              -94.1203677,
              45.3228387
            ],
            [
              -94.1224782,
              45.3231005
            ],
            [
              -94.1245494,
              45.3231898
            ],
            [
              -94.1265614,
              45.323106
            ],
            [
              -94.1284948,
              45.3228496
            ],
            [
              -94.1303309,
              45.3224233
            ],
            [
              -94.1320522,
              45.3218312
            ],
            [
              -94.133642,
              45.3210788
            ],
            [
              -94.135085,
              45.3201736
            ],
            [
              -94.1363673,
              45.3191241
            ],
            [
              -94.1374766,
              45.3179405
            ],
            [
              -94.1384022,
              45.3166343
            ],
            [
              -94.1391351,
              45.3152179
            ],
            [
              -94.1396683,
              45.313705
            ],
            [
              -94.1399967,
              45.3121103
            ],
            [
              -94.1401172,
              45.3104489
            ],
            [
              -94.1400285,
              45.3087371
            ],
            [
              -94.1397314,
              45.3069912
            ],
            [
              -94.139229,
              45.305228
            ],
            [
              -94.138526,
              45.3034645
            ],
            [
              -94.1376291,
              45.3017178
            ],
            [
              -94.136547,
              45.3000046
            ],
            [
              -94.1352902,
              45.2983414
            ],
            [
              -94.1338707,
              45.2967443
            ],
            [
              -94.1323023,
              45.2952286
            ],
            [
              -94.1305999,
              45.293809
            ],
            [
              -94.1287801,
              45.292499
            ],
            [
              -94.1268602,
              45.2913114
            ],
            [
              -94.1248589,
              45.2902575
            ],
            [
              -94.1227954,
              45.2893476
            ],
            [
              -94.1206896,
              45.2885903
            ],
            [
              -94.1185617,
              45.2879929
            ],
            [
              -94.1164323,
              45.2875613
            ],
            [
              -94.1143218,
              45.2872995
            ],
            [
              -94.1122506,
              45.2872102
            ],
            [
              -94.1102386,
              45.287294
            ],
            [
              -94.1083052,
              45.2875504
            ],
            [
              -94.1064691,
              45.2879767
            ],
            [
              -94.1047478,
              45.2885688
            ],
            [
              -94.103158,
              45.2893212
            ],
            [
              -94.101715,
              45.2902264
            ],
            [
              -94.1004327,
              45.2912759
            ],
            [
              -94.0993234,
              45.2924595
            ],
            [
              -94.0983978,
              45.2937657
            ],
            [
              -94.0976649,
              45.2951821
            ],
            [
              -94.0971317,
              45.296695
            ],
            [
              -94.0968033,
              45.2982897
            ],
            [
              -94.0966828,
              45.2999511
            ],
            [
              -94.0967715,
              45.3016629
            ],
            [
              -94.0970686,
              45.3034088
            ],
            [
              -94.097571,
              45.305172
            ],
            [
              -94.098274,
              45.3069355
            ],
            [
              -94.0991709,
              45.3086822
            ],
            [
              -94.100253,
              45.3103954
            ],
            [
              -94.1015098,
              45.3120586
            ]
          ]
        ]
      }
    },
    {
      "type": "Feature",
      "properties": {
        "lake": "Clearwater",
        "depth_ft": 27.4,
        "color": "#68b6ed",
        "weight": 1,
        "fill_opacity": 0.5,
        "line_opacity": 0.8
      },
      "geometry": {
        "type": "Polygon",
        "coordinates": [
          [
            [
              -94.1034094,
              45.3112872
            ],
            [
              -94.1046693,
              45.3127047
            ],
            [
              -94.1060613,
              45.3140499
            ],
            [
              -94.1075722,
              45.3153099
            ],
            [
              -94.1091874,
              45.3164725
            ],
            [
              -94.1108913,
              45.3175265
            ],
            [
              -94.1126675,
              45.3184619
            ],
            [
              -94.1144989,
              45.3192695
            ],
            [
              -94.1163679,
              45.3199417
            ],
            [
              -94.1182564,
              45.3204718
            ],
            [
              -94.1201464,
              45.3208549
            ],
            [
              -94.1220195,
              45.3210872
            ],
            [
              -94.1238578,
              45.3211665
            ],
            [
              -94.1256435,
              45.3210921
            ],
            [
              -94.1273594,
              45.3208646
            ],
            [
              -94.1289891,
              45.3204862
            ],
            [
              -94.1305167,
              45.3199607
            ],
            [
              -94.1319277,
              45.3192929
            ],
            [
              -94.1332084,
              45.3184895
            ],
            [
              -94.1343465,
              45.317558
            ],
            [
              -94.1353311,
              45.3165076
            ],
            [
              -94.1361525,
              45.3153483
            ],
            [
              -94.136803,
              45.3140912
            ],
            [
              -94.1372763,
              45.3127485
            ],
            [
              -94.1375678,
              45.3113331
            ],
            [
              -94.1376746,
              45.3098586
            ],
            [
              -94.1375959,
              45.3083393
            ],
            [
              -94.1373323,
              45.3067897
            ],
            [
              -94.1368864,
              45.3052248
            ],
            [
              -94.1362624,
              45.3036597
            ],
            [
              -94.1354664,
              45.3021094
            ],
            [
              -94.134506,
              45.3005889
            ],
            [
              -94.1333906,
              45.2991128
            ],
            [
              -94.1321307,
              45.2976953
            ],
            [
              -94.1307387,
              45.2963501
            ],
            [
              -94.1292278,
              45.2950901
            ],
            [
              -94.1276126,
              45.2939275
            ],
            [
              -94.1259087,
              45.2928735
            ],
            [
              -94.1241325,
              45.2919381
            ],
            [
              -94.1223011,
              45.2911305
            ],
            [
              -94.1204321,
              45.2904583
            ],
            [
              -94.1185436,
              45.2899282
            ],
            [
              -94.1166536,
              45.2895451
            ],
            [
              -94.1147805,
              45.2893128
            ],
            [
              -94.1129422,
              45.2892335
            ],
            [
              -94.1111565,
              45.2893079
            ],
            [
              -94.1094406,
              45.2895354
            ],
            [
              -94.1078109,
              45.2899138
            ],
            [
              -94.1062833,
              45.2904393
            ],
            [
              -94.1048723,
              45.2911071
            ],
            [
              -94.1035916,
              45.2919105
            ],
            [
              -94.1024535,
              45.292842
            ],
            [
              -94.1014689,
              45.2938924
            ],
            [
              -94.1006475,
              45.2950517
            ],
            [
              -94.099997,
              45.2963088
            ],
            [
              -94.0995237,
              45.2976515
            ],
            [
              -94.0992322,
              45.2990669
            ],
            [
              -94.0991254,
              45.3005414
            ],
            [
              -94.0992041,
              45.3020607
            ],
            [
              -94.0994677,
              45.3036103
            ],
            [
              -94.0999136,
              45.3051752
            ],
            [
              -94.1005376,
              45.3067403
            ],
            [
              -94.1013336,
              45.3082906
            ],
            [
              -94.102294,
              45.3098111
            ],
            [
              -94.1034094,
              45.3112872
            ]
          ]
        ]
      }
    },
    {
      "type": "Feature",
      "properties": {
        "lake": "Clearwater",
        "depth_ft": 36.5,
        "color": "#52a6e7",
        "weight": 1,
        "fill_opacity": 0.5,
        "line_opacity": 0.8
      },
      "geometry": {
        "type": "Polygon",
        "coordinates": [
          [
            [
              -94.1052897,
              45.3105237
            ],
            [
              -94.1063915,
              45.3117634
            ],
            [
              -94.107609,
              45.3129399
            ],
            [
              -94.1089303,
              45.3140418
            ],
            [
              -94.1103429,
              45.3150586
            ],
            [
              -94.1118331,
              45.3159804
            ],
            [
              -94.1133865,
              45.3167985
            ],
            [
              -94.1149882,
              45.3175048
            ],
            [
              -94.1166228,
              45.3180926
            ],
            [
              -94.1182745,
              45.3185563
            ],
            [
              -94.1199273,
              45.3188913
            ],
            [
              -94.1215655,
              45.3190945
            ],
            [
              -94.1231732,
              45.3191639
            ],
            [
              -94.1247349,
              45.3190988
            ],
            [
              -94.1262356,
              45.3188998
            ],
            [
              -94.1276609,
              45.3185689
            ],
            [
              -94.1289969,
              45.3181092
            ],
            [
              -94.130231,
              45.3175253
            ],
            [
              -94.131351,
              45.3168226
            ],
            [
              -94.1323464,
              45.316008
            ],
            [
              -94.1332074,
              45.3150893
            ],
            [
              -94.1339258,
              45.3140754
            ],
            [
              -94.1344947,
              45.312976
            ],
            [
              -94.1349086,
              45.3118017
            ],
            [
              -94.1351636,
              45.3105638
            ],
            [
              -94.135257,
              45.3092743
            ],
            [
              -94.1351882,
              45.3079455
            ],
            [
              -94.1349576,
              45.3065903
            ],
            [
              -94.1345676,
              45.3052217
            ],
            [
              -94.1340219,
              45.3038529
            ],
            [
              -94.1333258,
              45.3024971
            ],
            [
              -94.1324859,
              45.3011673
            ],
            [
              -94.1315103,
              45.2998763
            ],
            [
              -94.1304085,
              45.2986366
            ],
            [
              -94.129191,
              45.2974601
            ],
            [
              -94.1278697,
              45.2963582
            ],
            [
              -94.1264571,
              45.2953414
            ],
            [
              -94.1249669,
              45.2944196
            ],
            [
              -94.1234135,
              45.2936015
            ],
            [
              -94.1218118,
              45.2928952
            ],
            [
              -94.1201772,
              45.2923074
            ],
            [
              -94.1185255,
              45.2918437
            ],
            [
              -94.1168727,
              45.2915087
            ],
            [
              -94.1152345,
              45.2913055
            ],
            [
              -94.1136268,
              45.2912361
            ],
            [
              -94.1120651,
              45.2913012
            ],
            [
              -94.1105644,
              45.2915002
            ],
            [
              -94.1091391,
              45.2918311
            ],
            [
              -94.1078031,
              45.2922908
            ],
            [
              -94.106569,
              45.2928747
            ],
            [
              -94.105449,
              45.2935774
            ],
            [
              -94.1044536,
              45.294392
            ],
            [
              -94.1035926,
              45.2953107
            ],
            [
              -94.1028742,
              45.2963246
            ],
            [
              -94.1023053,
              45.297424
            ],
            [
              -94.1018914,
              45.2985983
            ],
            [
              -94.1016364,
              45.2998362
            ],
            [
              -94.101543,
              45.3011257
            ],
            [
              -94.1016118,
              45.3024545
            ],
            [
              -94.1018424,
              45.3038097
            ],
            [
              -94.1022324,
              45.3051783
            ],
            [
              -94.1027781,
              45.3065471
            ],
            [
              -94.1034742,
              45.3079029
            ],
            [
              -94.1043141,
              45.3092327
            ],
            [
              -94.1052897,
              45.3105237
            ]
          ]
        ]
      }
    },
    {
      "type": "Feature",
      "properties": {
        "lake": "Clearwater",
        "depth_ft": 45.6,
        "color": "#3f93da",
        "weight": 1,
        "fill_opacity": 0.5,
        "line_opacity": 0.8
      },
      "geometry": {
        "type": "Polygon",
        "coordinates": [
          [
            [
              -94.1072585,
              45.3097242
            ],
            [
              -94.1081948,
              45.3107777
            ],
            [
              -94.1092295,
              45.3117775
            ],
            [
              -94.1103524,
              45.312714
            ],
            [
              -94.1115529,
              45.3135781
            ],
            [
              -94.1128193,
              45.3143615
            ],
            [
              -94.1141394,
              45.3150567
            ],
            [
              -94.1155006,
              45.315657
            ],
            [
              -94.1168897,
              45.3161565
            ],
            [
              -94.1182933,
              45.3165505
            ],
            [
              -94.119698,
              45.3168353
            ],
            [
              -94.1210901,
              45.3170079
            ],
            [
              -94.1224564,
              45.3170669
            ],
            [
              -94.1237836,
              45.3170115
            ],
            [
              -94.1250589,
              45.3168425
            ],
            [
              -94.1262702,
              45.3165612
            ],
            [
              -94.1274056,
              45.3161706
            ],
            [
              -94.1284543,
              45.3156743
            ],
            [
              -94.1294061,
              45.3150772
            ],
            [
              -94.130252,
              45.3143849
            ],
            [
              -94.1309837,
              45.3136042
            ],
            [
              -94.1315943,
              45.3127425
            ],
            [
              -94.1320778,
              45.3118082
            ],
            [
              -94.1324295,
              45.3108103
            ],
            [
              -94.1326461,
              45.3097583
            ],
            [
              -94.1327256,
              45.3086624
            ],
            [
              -94.1326671,
              45.3075332
            ],
            [
              -94.1324711,
              45.3063815
            ],
            [
              -94.1321397,
              45.3052185
            ],
            [
              -94.1316759,
              45.3040552
            ],
            [
              -94.1310843,
              45.302903
            ],
            [
              -94.1303706,
              45.3017729
            ],
            [
              -94.1295415,
              45.3006758
            ],
            [
              -94.1286052,
              45.2996223
            ],
            [
              -94.1275705,
              45.2986225
            ],
            [
              -94.1264476,
              45.297686
            ],
            [
              -94.1252471,
              45.2968219
            ],
            [
              -94.1239807,
              45.2960385
            ],
            [
              -94.1226606,
              45.2953433
            ],
            [
              -94.1212994,
              45.294743
            ],
            [
              -94.1199103,
              45.2942435
            ],
            [
              -94.1185067,
              45.2938495
            ],
            [
              -94.117102,
              45.2935647
            ],
            [
              -94.1157099,
              45.2933921
            ],
            [
              -94.1143436,
              45.2933331
            ],
            [
              -94.1130164,
              45.2933885
            ],
            [
              -94.1117411,
              45.2935575
            ],
            [
              -94.1105298,
              45.2938388
            ],
            [
              -94.1093944,
              45.2942294
            ],
            [
              -94.1083457,
              45.2947257
            ],
            [
              -94.1073939,
              45.2953228
            ],
            [
              -94.106548,
              45.2960151
            ],
            [
              -94.1058163,
              45.2967958
            ],
            [
              -94.1052057,
              45.2976575
            ],
            [
              -94.1047222,
              45.2985918
            ],
            [
              -94.1043705,
              45.2995897
            ],
            [
              -94.1041539,
              45.3006417
            ],
            [
              -94.1040744,
              45.3017376
            ],
            [
              -94.1041329,
              45.3028668
            ],
            [
              -94.1043289,
              45.3040185
            ],
            [
              -94.1046603,
              45.3051815
            ],
            [
              -94.1051241,
              45.3063448
            ],
            [
              -94.1057157,
              45.307497
            ],
            [
              -94.1064294,
              45.3086271
            ],
            [
              -94.1072585,
              45.3097242
            ]
          ]
        ]
      }
    },
    {
      "type": "Feature",
      "properties": {
        "lake": "Clearwater",
        "depth_ft": 54.8,
        "color": "#3077bc",
        "weight": 1,
        "fill_opacity": 0.5,
        "line_opacity": 0.8
      },
      "geometry": {
        "type": "Polygon",
        "coordinates": [
          [
            [
              -94.1094509,
              45.3088339
            ],
            [
              -94.110203,
              45.3096801
            ],
            [
              -94.1110341,
              45.3104832
            ],
            [
              -94.111936,
              45.3112354
            ],
            [
              -94.1129003,
              45.3119294
            ],
            [
              -94.1139175,
              45.3125587
            ],
            [
              -94.1149778,
              45.3131171
            ],
            [
              -94.1160711,
              45.3135992
            ],
            [
              -94.1171869,
              45.3140005
            ],
            [
              -94.1183143,
              45.314317
            ],
            [
              -94.1194426,
              45.3145456
            ],
            [
              -94.1205608,
              45.3146843
            ],
            [
              -94.1216582,
              45.3147317
            ],
            [
              -94.1227242,
              45.3146872
            ],
            [
              -94.1237486,
              45.3145514
            ],
            [
              -94.1247214,
              45.3143256
            ],
            [
              -94.1256334,
              45.3140118
            ],
            [
              -94.1264758,
              45.3136132
            ],
            [
              -94.1272403,
              45.3131335
            ],
            [
              -94.1279197,
              45.3125775
            ],
            [
              -94.1285075,
              45.3119504
            ],
            [
              -94.1289979,
              45.3112583
            ],
            [
              -94.1293862,
              45.3105078
            ],
            [
              -94.1296687,
              45.3097063
            ],
            [
              -94.1298428,
              45.3088613
            ],
            [
              -94.1299066,
              45.3079811
            ],
            [
              -94.1298596,
              45.3070741
            ],
            [
              -94.1297022,
              45.306149
            ],
            [
              -94.129436,
              45.3052148
            ],
            [
              -94.1290635,
              45.3042805
            ],
            [
              -94.1285883,
              45.303355
            ],
            [
              -94.128015,
              45.3024473
            ],
            [
              -94.1273491,
              45.3015661
            ],
            [
              -94.126597,
              45.3007199
            ],
            [
              -94.1257659,
              45.2999168
            ],
            [
              -94.124864,
              45.2991646
            ],
            [
              -94.1238997,
              45.2984706
            ],
            [
              -94.1228825,
              45.2978413
            ],
            [
              -94.1218222,
              45.2972829
            ],
            [
              -94.1207289,
              45.2968008
            ],
            [
              -94.1196131,
              45.2963995
            ],
            [
              -94.1184857,
              45.296083
            ],
            [
              -94.1173574,
              45.2958544
            ],
            [
              -94.1162392,
              45.2957157
            ],
            [
              -94.1151418,
              45.2956683
            ],
            [
              -94.1140758,
              45.2957128
            ],
            [
              -94.1130514,
              45.2958486
            ],
            [
              -94.1120786,
              45.2960744
            ],
            [
              -94.1111666,
              45.2963882
            ],
            [
              -94.1103242,
              45.2967868
            ],
            [
              -94.1095597,
              45.2972665
            ],
            [
              -94.1088803,
              45.2978225
            ],
            [
              -94.1082925,
              45.2984496
            ],
            [
              -94.1078021,
              45.2991417
            ],
            [
              -94.1074138,
              45.2998922
            ],
            [
              -94.1071313,
              45.3006937
            ],
            [
              -94.1069572,
              45.3015387
            ],
            [
              -94.1068934,
              45.3024189
            ],
            [
              -94.1069404,
              45.3033259
            ],
            [
              -94.1070978,
              45.304251
            ],
            [
              -94.107364,
              45.3051852
            ],
            [
              -94.1077365,
              45.3061195
            ],
            [
              -94.1082117,
              45.307045
            ],
            [
              -94.108785,
              45.3079527
            ],
            [
              -94.1094509,
              45.3088339
            ]
          ]
        ]
      }
    },
    {
      "type": "Feature",
      "properties": {
        "lake": "Clearwater",
        "depth_ft": 63.9,
        "color": "#245790",
        "weight": 1,
        "fill_opacity": 0.5,
        "line_opacity": 0.8
      },
      "geometry": {
        "type": "Polygon",
        "coordinates": [
          [
            [
              -94.1121635,
              45.3077325
            ],
            [
              -94.1126876,
              45.3083222
            ],
            [
              -94.1132667,
              45.3088818
            ],
            [
              -94.1138953,
              45.309406
            ],
            [
              -94.1145673,
              45.3098897
            ],
            [
              -94.1152761,
              45.3103282
            ],
            [
              -94.1160151,
              45.3107174
            ],
            [
              -94.116777,
              45.3110533
            ],
            [
              -94.1175546,
              45.311333
            ],
            [
              -94.1183403,
              45.3115535
            ],
            [
              -94.1191265,
              45.3117129
            ],
            [
              -94.1199058,
              45.3118096
            ],
            [
              -94.1206706,
              45.3118426
            ],
            [
              -94.1214135,
              45.3118116
            ],
            [
              -94.1221274,
              45.3117169
            ],
            [
              -94.1228054,
              45.3115595
            ],
            [
              -94.1234409,
              45.3113409
            ],
            [
              -94.1240279,
              45.3110631
            ],
            [
              -94.1245608,
              45.3107288
            ],
            [
              -94.1250342,
              45.3103413
            ],
            [
              -94.1254438,
              45.3099043
            ],
            [
              -94.1257856,
              45.309422
            ],
            [
              -94.1260562,
              45.308899
            ],
            [
              -94.1262531,
              45.3083404
            ],
            [
              -94.1263744,
              45.3077515
            ],
            [
              -94.1264188,
              45.3071381
            ],
            [
              -94.1263861,
              45.306506
            ],
            [
              -94.1262764,
              45.3058614
            ],
            [
              -94.1260909,
              45.3052103
            ],
            [
              -94.1258313,
              45.3045592
            ],
            [
              -94.1255001,
              45.3039142
            ],
            [
              -94.1251006,
              45.3032816
            ],
            [
              -94.1246365,
              45.3026675
            ],
            [
              -94.1241124,
              45.3020778
            ],
            [
              -94.1235333,
              45.3015182
            ],
            [
              -94.1229047,
              45.300994
            ],
            [
              -94.1222327,
              45.3005103
            ],
            [
              -94.1215239,
              45.3000718
            ],
            [
              -94.1207849,
              45.2996826
            ],
            [
              -94.120023,
              45.2993467
            ],
            [
              -94.1192454,
              45.299067
            ],
            [
              -94.1184597,
              45.2988465
            ],
            [
              -94.1176735,
              45.2986871
            ],
            [
              -94.1168942,
              45.2985904
            ],
            [
              -94.1161294,
              45.2985574
            ],
            [
              -94.1153865,
              45.2985884
            ],
            [
              -94.1146726,
              45.2986831
            ],
            [
              -94.1139946,
              45.2988405
            ],
            [
              -94.1133591,
              45.2990591
            ],
            [
              -94.1127721,
              45.2993369
            ],
            [
              -94.1122392,
              45.2996712
            ],
            [
              -94.1117658,
              45.3000587
            ],
            [
              -94.1113562,
              45.3004957
            ],
            [
              -94.1110144,
              45.300978
            ],
            [
              -94.1107438,
              45.301501
            ],
            [
              -94.1105469,
              45.3020596
            ],
            [
              -94.1104256,
              45.3026485
            ],
            [
              -94.1103812,
              45.3032619
            ],
            [
              -94.1104139,
              45.303894
            ],
            [
              -94.1105236,
              45.3045386
            ],
            [
              -94.1107091,
              45.3051897
            ],
            [
              -94.1109687,
              45.3058408
            ],
            [
              -94.1112999,
              45.3064858
            ],
            [
              -94.1116994,
              45.3071184
            ],
            [
              -94.1121635,
              45.3077325
            ]
          ]
        ]
      }
    }
  ]
}