{"type": "FeatureCollection", "features": [{"type": "Feature", "properties": {"depth_ft": 0.0, "lake": "East Lake Sylvia", "dow": "86028900"}, "geometry": {"type": "Polygon", "coordinates": [[[-94.200702, 45.245724], [-94.200629, 45.245987], [-94.200576, 45.246249], [-94.200625, 45.24673], [-94.20042, 45.247131], [-94.200096, 45.247492], [-94.199865, 45.247618], [-94.199671, 45.247662], [-94.199714, 45.247826], [-94.199774, 45.247922], [-94.200027, 45.247906], [-94.200119, 45.247671], [-94.20071, 45.247031], [-94.200902, 45.246933], [-94.20139, 45.246969], [-94.202172, 45.247085], [-94.202385, 45.247055], [-94.202751, 45.246845], [-94.203173, 45.246551], [-94.203676, 45.246354], [-94.204297, 45.246237], [-94.204722, 45.246095], [-94.204952, 45.245927], [-94.205422, 45.246019], [-94.205675, 45.24603], [-94.205751, 45.245919], [-94.206217, 45.245845], [-94.206524, 45.245663], [-94.206798, 45.245688], [-94.206912, 45.24559], [-94.207265, 45.245696], [-94.207444, 45.245873], [-94.207529, 45.246217], [-94.2075, 45.246657], [-94.207364, 45.246686], [-94.206966, 45.247186], [-94.206735, 45.247353], [-94.206544, 45.247493], [-94.206086, 45.247966], [-94.205449, 45.248234], [-94.204872, 45.248598], [-94.204758, 45.248723], [-94.204505, 45.248725], [-94.204292, 45.248783], [-94.203883, 45.248801], [-94.203452, 45.248681], [-94.203161, 45.248753], [-94.20297, 45.24892], [-94.202702, 45.249143], [-94.202591, 45.249433], [-94.202575, 45.249599], [-94.202624, 45.250039], [-94.202756, 45.250794], [-94.202743, 45.251056], [-94.202651, 45.251318], [-94.202343, 45.251514], [-94.202113, 45.251681], [-94.202041, 45.251957], [-94.202105, 45.252232], [-94.202266, 45.252478], [-94.202464, 45.252613], [-94.202698, 45.252625], [-94.20289, 45.252499], [-94.202886, 45.252334], [-94.203079, 45.252249], [-94.203625, 45.252271], [-94.204113, 45.252279], [-94.204348, 45.252346], [-94.204782, 45.252603], [-94.20504, 45.252861], [-94.205186, 45.253286], [-94.205238, 45.253905], [-94.205224, 45.254194], [-94.205035, 45.254444], [-94.204417, 45.254684], [-94.20413, 45.254935], [-94.203277, 45.255137], [-94.202679, 45.255418], [-94.202394, 45.255779], [-94.201778, 45.256102], [-94.201315, 45.256341], [-94.200946, 45.256372], [-94.200691, 45.256306], [-94.199802, 45.256645], [-94.199437, 45.256883], [-94.199057, 45.257341], [-94.198714, 45.257716], [-94.198329, 45.257954], [-94.197889, 45.258317], [-94.197369, 45.258625], [-94.197122, 45.258923], [-94.196954, 45.259255], [-94.196884, 45.259628], [-94.197004, 45.259791], [-94.197181, 45.259845], [-94.197179, 45.259748], [-94.197194, 45.259569], [-94.197307, 45.259362], [-94.197459, 45.259209], [-94.197923, 45.259039], [-94.198077, 45.258913], [-94.198419, 45.258538], [-94.198671, 45.258439], [-94.198996, 45.258147], [-94.199608, 45.257604], [-94.20013, 45.257433], [-94.200655, 45.257359], [-94.200909, 45.257411], [-94.20132, 45.257489], [-94.201474, 45.257405], [-94.201709, 45.257485], [-94.202338, 45.25774], [-94.202164, 45.258705], [-94.201911, 45.258722], [-94.201559, 45.258684], [-94.201093, 45.25873], [-94.200705, 45.258803], [-94.200714, 45.259257], [-94.200366, 45.259357], [-94.200293, 45.259606], [-94.200263, 45.260019], [-94.200443, 45.260237], [-94.200688, 45.260812], [-94.200599, 45.261171], [-94.200377, 45.261737], [-94.20052, 45.262052], [-94.200293, 45.262399], [-94.199716, 45.262749], [-94.199251, 45.262864], [-94.198919, 45.26284], [-94.198137, 45.262724], [-94.197398, 45.262773], [-94.19693, 45.262751], [-94.196207, 45.262676], [-94.195878, 45.262748], [-94.194731, 45.262897], [-94.193426, 45.262911], [-94.19206, 45.262788], [-94.191471, 45.262601], [-94.19035, 45.262104], [-94.189442, 45.261522], [-94.188788, 45.261006], [-94.188348, 45.260473], [-94.187986, 45.259927], [-94.18788, 45.259501], [-94.187948, 45.259019], [-94.188329, 45.257694], [-94.188459, 45.25739], [-94.18839, 45.256868], [-94.18819, 45.256622], [-94.187856, 45.256488], [-94.187499, 45.256175], [-94.187064, 45.255891], [-94.186746, 45.255578], [-94.186563, 45.255222], [-94.186615, 45.254898], [-94.186436, 45.254721], [-94.185916, 45.254094], [-94.185503, 45.253878], [-94.184751, 45.253335], [-94.18453, 45.253007], [-94.184051, 45.252434], [-94.183689, 45.251881], [-94.183174, 45.251487], [-94.182935, 45.251228], [-94.182851, 45.250954], [-94.182879, 45.250403], [-94.183198, 45.249822], [-94.183232, 45.249601], [-94.183436, 45.249118], [-94.184236, 45.248242], [-94.185271, 45.247392], [-94.186021, 45.246944], [-94.18629, 45.24679], [-94.187142, 45.246534], [-94.188068, 45.246111], [-94.188668, 45.245898], [-94.189094, 45.24577], [-94.189463, 45.245739], [-94.189892, 45.245776], [-94.190419, 45.245818], [-94.191253, 45.245658], [-94.191872, 45.245432], [-94.192294, 45.245138], [-94.192956, 45.244182], [-94.193432, 45.24364], [-94.194122, 45.243138], [-94.19497, 45.242716], [-94.195705, 45.242474], [-94.195954, 45.242252], [-94.196274, 45.241725], [-94.197182, 45.241386], [-94.198021, 45.241432], [-94.198823, 45.241589], [-94.200506, 45.241998], [-94.201621, 45.242192], [-94.202131, 45.242366], [-94.202662, 45.242635], [-94.20304, 45.242989], [-94.203617, 45.243575], [-94.20374, 45.243876], [-94.203571, 45.244167], [-94.202912, 45.244325], [-94.202563, 45.244384], [-94.202196, 45.244553], [-94.201947, 45.244762], [-94.200702, 45.245724]]]}}, {"type": "Feature", "properties": {"depth_ft": 10.0, "lake": "East Lake Sylvia", "dow": "86028900"}, "geometry": {"type": "Polygon", "coordinates": [[[-94.197843, 45.253768], [-94.197892, 45.253829], [-94.197773, 45.253853], [-94.197614, 45.253827], [-94.19727, 45.25374], [-94.197029, 45.253597], [-94.196836, 45.25347], [-94.196703, 45.253225], [-94.196805, 45.253156], [-94.197189, 45.25327], [-94.197398, 45.253391], [-94.197843, 45.253768]]]}}, {"type": "Feature", "properties": {"depth_ft": 15.0, "lake": "East Lake Sylvia", "dow": "86028900"}, "geometry": {"type": "Polygon", "coordinates": [[[-94.198062, 45.254002], [-94.197808, 45.253982], [-94.19756, 45.253906], [-94.197232, 45.253791], [-94.196749, 45.253527], [-94.196612, 45.253416], [-94.196514, 45.253288], [-94.196464, 45.25316], [-94.196462, 45.25307], [-94.196587, 45.253001], [-94.196778, 45.253022], [-94.197123, 45.253147], [-94.197517, 45.253384], [-94.197832, 45.253628], [-94.198051, 45.253856], [-94.198062, 45.254002]]]}}, {"type": "Feature", "properties": {"depth_ft": 20.0, "lake": "East Lake Sylvia", "dow": "86028900"}, "geometry": {"type": "Polygon", "coordinates": [[[-94.19821, 45.253837], [-94.198269, 45.254005], [-94.198183, 45.254056], [-94.198032, 45.254075], [-94.197754, 45.254061], [-94.197466, 45.253997], [-94.197226, 45.253909], [-94.196688, 45.253612], [-94.196343, 45.253464], [-94.196206, 45.253376], [-94.196148, 45.253286], [-94.19616, 45.253079], [-94.196372, 45.252942], [-94.196733, 45.252764], [-94.19694, 45.252779], [-94.197125, 45.252861], [-94.197601, 45.253238], [-94.19821, 45.253837]]]}}, {"type": "Feature", "properties": {"depth_ft": 30.0, "lake": "East Lake Sylvia", "dow": "86028900"}, "geometry": {"type": "Polygon", "coordinates": [[[-94.195959, 45.253715], [-94.195646, 45.253584], [-94.195461, 45.253473], [-94.195451, 45.253361], [-94.19559, 45.253158], [-94.196018, 45.252749], [-94.19634, 45.252566], [-94.196608, 45.252451], [-94.197043, 45.252368], [-94.197543, 45.25234], [-94.197894, 45.252404], [-94.198229, 45.252507], [-94.198654, 45.252682], [-94.19916, 45.252957], [-94.19957, 45.253155], [-94.199867, 45.253332], [-94.199863, 45.2535], [-94.199692, 45.253693], [-94.199404, 45.253954], [-94.198996, 45.254205], [-94.198595, 45.254378], [-94.198174, 45.254399], [-94.19776, 45.254353], [-94.197304, 45.254223], [-94.195959, 45.253715]]]}}, {"type": "Feature", "properties": {"depth_ft": 10.0, "lake": "East Lake Sylvia", "dow": "86028900"}, "geometry": {"type": "Polygon", "coordinates": [[[-94.195219, 45.25062], [-94.194436, 45.250409], [-94.193941, 45.250291], [-94.193407, 45.25024], [-94.192732, 45.25023], [-94.192525, 45.250199], [-94.19234, 45.250117], [-94.192354, 45.250032], [-94.192652, 45.249844], [-94.193092, 45.249609], [-94.193412, 45.249337], [-94.19377, 45.248951], [-94.193902, 45.248804], [-94.194238, 45.248537], [-94.194592, 45.248382], [-94.194748, 45.248256], [-94.195181, 45.248084], [-94.195687, 45.247932], [-94.195922, 45.247795], [-94.196136, 45.247754], [-94.196247, 45.247764], [-94.19695, 45.248312], [-94.197235, 45.248646], [-94.197359, 45.248914], [-94.197322, 45.24938], [-94.197194, 45.249752], [-94.196788, 45.250059], [-94.196466, 45.250259], [-94.195799, 45.25063], [-94.195458, 45.250656], [-94.195219, 45.25062]]]}}, {"type": "Feature", "properties": {"depth_ft": 15.0, "lake": "East Lake Sylvia", "dow": "86028900"}, "geometry": {"type": "Polygon", "coordinates": [[[-94.197104, 45.250005], [-94.196431, 45.250478], [-94.19596, 45.250735], [-94.195579, 45.250773], [-94.195165, 45.250699], [-94.194326, 45.250489], [-94.193886, 45.250359], [-94.193512, 45.250301], [-94.192995, 45.250295], [-94.192407, 45.250279], [-94.192184, 45.250236], [-94.192135, 45.25018], [-94.19218, 45.250073], [-94.192517, 45.24984], [-94.192706, 45.249731], [-94.192911, 45.249662], [-94.193028, 45.249571], [-94.193309, 45.249326], [-94.193619, 45.248981], [-94.194001, 45.248618], [-94.194573, 45.248253], [-94.194911, 45.248064], [-94.195233, 45.247915], [-94.195841, 45.247712], [-94.196037, 45.24762], [-94.196164, 45.247596], [-94.196356, 45.247667], [-94.196907, 45.248178], [-94.197198, 45.248416], [-94.19742, 45.24875], [-94.197478, 45.248879], [-94.197462, 45.249249], [-94.19738, 45.249497], [-94.197306, 45.249773], [-94.197104, 45.250005]]]}}, {"type": "Feature", "properties": {"depth_ft": 20.0, "lake": "East Lake Sylvia", "dow": "86028900"}, "geometry": {"type": "Polygon", "coordinates": [[[-94.195804, 45.250888], [-94.195303, 45.25086], [-94.194952, 45.250791], [-94.19456, 45.250632], [-94.194216, 45.250518], [-94.193896, 45.250437], [-94.193267, 45.250382], [-94.192568, 45.25035], [-94.192186, 45.250315], [-94.192082, 45.250299], [-94.191969, 45.250221], [-94.191983, 45.250109], [-94.192374, 45.249841], [-94.192915, 45.249482], [-94.193336, 45.249119], [-94.193811, 45.248659], [-94.194226, 45.248341], [-94.194673, 45.248066], [-94.195185, 45.24787], [-94.195445, 45.247786], [-94.1958, 45.247637], [-94.196224, 45.247447], [-94.196305, 45.247491], [-94.196823, 45.247974], [-94.197244, 45.248351], [-94.197514, 45.248702], [-94.197553, 45.249027], [-94.197513, 45.249437], [-94.197402, 45.249789], [-94.197138, 45.2501], [-94.196606, 45.250498], [-94.196271, 45.250783], [-94.195979, 45.250875], [-94.195804, 45.250888]]]}}, {"type": "Feature", "properties": {"depth_ft": 30.0, "lake": "East Lake Sylvia", "dow": "86028900"}, "geometry": {"type": "Polygon", "coordinates": [[[-94.197712, 45.249421], [-94.197763, 45.249207], [-94.197758, 45.24896], [-94.197692, 45.248475], [-94.197472, 45.248236], [-94.19728, 45.248132], [-94.19703, 45.24796], [-94.196793, 45.247666], [-94.196717, 45.247431], [-94.196736, 45.24724], [-94.196845, 45.247121], [-94.19738, 45.246843], [-94.19764, 45.246778], [-94.197813, 45.246692], [-94.198106, 45.246633], [-94.198451, 45.2464], [-94.198753, 45.24606], [-94.198918, 45.245609], [-94.199014, 45.245221], [-94.198928, 45.244941], [-94.198902, 45.244812], [-94.198979, 45.244716], [-94.199204, 45.244837], [-94.199488, 45.245137], [-94.199573, 45.245392], [-94.199589, 45.245762], [-94.199498, 45.245948], [-94.199158, 45.246807], [-94.198812, 45.247709], [-94.198732, 45.248091], [-94.199117, 45.248643], [-94.199257, 45.248877], [-94.199379, 45.248977], [-94.199481, 45.248953], [-94.199468, 45.248712], [-94.199418, 45.248567], [-94.19958, 45.248369], [-94.199832, 45.248242], [-94.200234, 45.248109], [-94.20089, 45.247956], [-94.201437, 45.247906], [-94.202158, 45.247786], [-94.202761, 45.247774], [-94.203024, 45.247816], [-94.203066, 45.247905], [-94.20302, 45.248007], [-94.202649, 45.248112], [-94.202026, 45.248309], [-94.201451, 45.248576], [-94.201154, 45.248764], [-94.201039, 45.248962], [-94.201053, 45.249271], [-94.201162, 45.249556], [-94.201391, 45.249862], [-94.20145, 45.249999], [-94.201656, 45.25035], [-94.201639, 45.250687], [-94.201518, 45.250991], [-94.201148, 45.251531], [-94.200986, 45.251768], [-94.200897, 45.252033], [-94.200934, 45.252285], [-94.201171, 45.252586], [-94.201579, 45.252727], [-94.20224, 45.252799], [-94.20336, 45.252804], [-94.20368, 45.252902], [-94.203962, 45.253092], [-94.204053, 45.25326], [-94.204034, 45.253507], [-94.203921, 45.253816], [-94.203633, 45.254094], [-94.202956, 45.254348], [-94.201724, 45.254729], [-94.200665, 45.255009], [-94.20004, 45.255095], [-94.199138, 45.255281], [-94.198404, 45.25553], [-94.197569, 45.255842], [-94.196923, 45.256129], [-94.196469, 45.256448], [-94.19568, 45.257093], [-94.195417, 45.257444], [-94.195265, 45.257732], [-94.195117, 45.257873], [-94.194855, 45.258289], [-94.194668, 45.258476], [-94.194486, 45.258506], [-94.194287, 45.258497], [-94.194038, 45.258364], [-94.193829, 45.258249], [-94.193742, 45.258267], [-94.193865, 45.258428], [-94.194131, 45.25861], [-94.194462, 45.258854], [-94.194806, 45.259344], [-94.19497, 45.259612], [-94.194967, 45.259828], [-94.194803, 45.259947], [-94.194581, 45.259994], [-94.194256, 45.260043], [-94.194076, 45.260157], [-94.193992, 45.260304], [-94.193973, 45.260528], [-94.193994, 45.260797], [-94.193928, 45.261079], [-94.193784, 45.26138], [-94.193423, 45.261625], [-94.19299, 45.261804], [-94.192482, 45.26182], [-94.191549, 45.261651], [-94.190941, 45.261477], [-94.190555, 45.261226], [-94.190022, 45.260816], [-94.189492, 45.260194], [-94.189195, 45.259638], [-94.188993, 45.259107], [-94.188969, 45.25833], [-94.188984, 45.257926], [-94.189063, 45.25751], [-94.189046, 45.257073], [-94.188921, 45.256796], [-94.188707, 45.256467], [-94.188537, 45.25629], [-94.188326, 45.256067], [-94.187995, 45.255835], [-94.187688, 45.25558], [-94.18755, 45.255452], [-94.187514, 45.255242], [-94.187496, 45.254782], [-94.18741, 45.254435], [-94.187244, 45.254112], [-94.186975, 45.253797], [-94.186386, 45.253343], [-94.185819, 45.25285], [-94.185137, 45.252119], [-94.184731, 45.251697], [-94.184347, 45.25119], [-94.184125, 45.250814], [-94.184048, 45.250568], [-94.184089, 45.250264], [-94.184333, 45.249757], [-94.184759, 45.249228], [-94.185179, 45.248774], [-94.185553, 45.248422], [-94.186194, 45.247944], [-94.186892, 45.247525], [-94.187576, 45.247175], [-94.188553, 45.246767], [-94.189928, 45.246458], [-94.190625, 45.246333], [-94.191274, 45.246208], [-94.191723, 45.24603], [-94.192201, 45.245733], [-94.192599, 45.24542], [-94.1928, 45.24512], [-94.193137, 45.244536], [-94.193324, 45.24436], [-94.193681, 45.243981], [-94.194152, 45.243701], [-94.195199, 45.243255], [-94.195585, 45.243077], [-94.195773, 45.242951], [-94.195946, 45.242905], [-94.196252, 45.242711], [-94.196796, 45.242503], [-94.197177, 45.242477], [-94.197433, 45.242564], [-94.19825, 45.242928], [-94.198413, 45.243089], [-94.198417, 45.243314], [-94.19814, 45.243721], [-94.197929, 45.243908], [-94.197821, 45.244044], [-94.197808, 45.244179], [-94.197898, 45.244304], [-94.198174, 45.244593], [-94.198402, 45.244871], [-94.198494, 45.245089], [-94.198422, 45.245404], [-94.198314, 45.245596], [-94.198016, 45.245756], [-94.197515, 45.246084], [-94.197241, 45.246311], [-94.197133, 45.24647], [-94.197042, 45.24665], [-94.196838, 45.246776], [-94.19602, 45.247143], [-94.195526, 45.24748], [-94.19511, 45.247711], [-94.194467, 45.248094], [-94.194043, 45.248356], [-94.193707, 45.248607], [-94.193357, 45.248975], [-94.192921, 45.249381], [-94.192356, 45.249718], [-94.192128, 45.249844], [-94.191895, 45.250076], [-94.19166, 45.250247], [-94.191638, 45.250348], [-94.191862, 45.250436], [-94.192372, 45.250487], [-94.193302, 45.250499], [-94.19414, 45.250701], [-94.194758, 45.250986], [-94.195568, 45.251387], [-94.196307, 45.251773], [-94.196498, 45.251765], [-94.196725, 45.251622], [-94.196973, 45.251294], [-94.197172, 45.250975], [-94.197428, 45.250299], [-94.197712, 45.249421]]]}}, {"type": "Feature", "properties": {"depth_ft": 70.0, "lake": "East Lake Sylvia", "dow": "86028900"}, "geometry": {"type": "Polygon", "coordinates": [[[-94.192213, 45.253469], [-94.191362, 45.253009], [-94.191, 45.252861], [-94.190685, 45.252782], [-94.190337, 45.25283], [-94.190102, 45.252763], [-94.189865, 45.252544], [-94.189776, 45.252127], [-94.189649, 45.251667], [-94.189392, 45.251366], [-94.189182, 45.251153], [-94.189151, 45.250963], [-94.189221, 45.250874], [-94.189482, 45.250947], [-94.190089, 45.251276], [-94.190523, 45.251455], [-94.191243, 45.251638], [-94.191836, 45.251701], [-94.192133, 45.251774], [-94.192441, 45.251954], [-94.192891, 45.252462], [-94.193088, 45.252871], [-94.193317, 45.253103], [-94.193627, 45.253365], [-94.193754, 45.253459], [-94.193838, 45.253642], [-94.193779, 45.253775], [-94.193735, 45.253845], [-94.193467, 45.253867], [-94.193152, 45.253788], [-94.192817, 45.253652], [-94.192582, 45.253547], [-94.19243, 45.25353], [-94.192213, 45.253469]]]}}, {"type": "Feature", "properties": {"depth_ft": 60.0, "lake": "East Lake Sylvia", "dow": "86028900"}, "geometry": {"type": "Polygon", "coordinates": [[[-94.189362, 45.253047], [-94.188998, 45.252405], [-94.188602, 45.252003], [-94.188182, 45.251689], [-94.187639, 45.251473], [-94.187097, 45.251258], [-94.186815, 45.250978], [-94.186468, 45.250539], [-94.186398, 45.250186], [-94.186618, 45.249901], [-94.187186, 45.249532], [-94.187817, 45.249163], [-94.189362, 45.248833], [-94.190295, 45.248567], [-94.191139, 45.248213], [-94.191756, 45.247782], [-94.192187, 45.247415], [-94.192489, 45.246899], [-94.192931, 45.245891], [-94.19338, 45.245187], [-94.19354, 45.245053], [-94.193788, 45.244962], [-94.193974, 45.244854], [-94.194435, 45.244796], [-94.194775, 45.244863], [-94.194831, 45.245128], [-94.19468, 45.245731], [-94.194284, 45.247124], [-94.193812, 45.247907], [-94.19331, 45.248451], [-94.192496, 45.249044], [-94.19183, 45.249488], [-94.19145, 45.249899], [-94.190623, 45.250438], [-94.190042, 45.250816], [-94.190156, 45.250903], [-94.190636, 45.251075], [-94.191112, 45.251079], [-94.191849, 45.251036], [-94.192289, 45.251084], [-94.192578, 45.251143], [-94.1935, 45.251531], [-94.194057, 45.251831], [-94.194287, 45.252058], [-94.194318, 45.252323], [-94.1943, 45.252686], [-94.194521, 45.253073], [-94.194854, 45.253423], [-94.195434, 45.254204], [-94.195795, 45.254691], [-94.195926, 45.254973], [-94.195983, 45.255317], [-94.195888, 45.255539], [-94.195506, 45.255853], [-94.195244, 45.255891], [-94.194791, 45.255789], [-94.193993, 45.25532], [-94.193053, 45.25472], [-94.192353, 45.25417], [-94.19192, 45.253803], [-94.191198, 45.25343], [-94.19076, 45.253408], [-94.190486, 45.253486], [-94.190293, 45.25386], [-94.190154, 45.254401], [-94.190211, 45.254701], [-94.190285, 45.255832], [-94.190266, 45.256128], [-94.190146, 45.256404], [-94.189775, 45.25662], [-94.189487, 45.256632], [-94.189234, 45.256502], [-94.188889, 45.256143], [-94.188267, 45.255734], [-94.187949, 45.255507], [-94.187872, 45.255402], [-94.187882, 45.255313], [-94.188117, 45.255143], [-94.188883, 45.254675], [-94.189193, 45.254548], [-94.18945, 45.254253], [-94.189642, 45.253862], [-94.189561, 45.253567], [-94.189362, 45.253047]]]}}, {"type": "Feature", "properties": {"depth_ft": 50.0, "lake": "East Lake Sylvia", "dow": "86028900"}, "geometry": {"type": "Polygon", "coordinates": [[[-94.193432, 45.257249], [-94.192922, 45.256202], [-94.192645, 45.255569], [-94.192485, 45.255084], [-94.19211, 45.254522], [-94.191891, 45.254215], [-94.191776, 45.254092], [-94.191576, 45.254121], [-94.191465, 45.254219], [-94.191407, 45.254405], [-94.191299, 45.255247], [-94.191127, 45.256018], [-94.190717, 45.256738], [-94.190509, 45.257006], [-94.190101, 45.257249], [-94.189702, 45.257306], [-94.189394, 45.256964], [-94.189084, 45.256525], [-94.188638, 45.256123], [-94.188306, 45.255844], [-94.187964, 45.255626], [-94.187849, 45.255521], [-94.187769, 45.255301], [-94.187813, 45.255018], [-94.188018, 45.254644], [-94.188111, 45.254263], [-94.188138, 45.253785], [-94.188041, 45.2533], [-94.187867, 45.252793], [-94.187649, 45.252521], [-94.187358, 45.252383], [-94.186566, 45.252214], [-94.186011, 45.252025], [-94.185581, 45.251844], [-94.185034, 45.251416], [-94.184573, 45.250935], [-94.184339, 45.250526], [-94.184396, 45.250233], [-94.184736, 45.249717], [-94.184967, 45.249405], [-94.185458, 45.248949], [-94.186149, 45.248438], [-94.186494, 45.2482], [-94.187884, 45.24761], [-94.188579, 45.24732], [-94.188963, 45.247086], [-94.189646, 45.24684], [-94.190305, 45.246639], [-94.191203, 45.246479], [-94.191737, 45.246257], [-94.192345, 45.245985], [-94.192737, 45.245592], [-94.193087, 45.244969], [-94.193355, 45.244613], [-94.19365, 45.244353], [-94.194171, 45.244118], [-94.194505, 45.243942], [-94.195526, 45.243666], [-94.195739, 45.243673], [-94.195891, 45.243777], [-94.195947, 45.24406], [-94.195817, 45.244424], [-94.195438, 45.244834], [-94.195222, 45.245305], [-94.194918, 45.246325], [-94.194414, 45.247361], [-94.193892, 45.248145], [-94.193129, 45.248772], [-94.191663, 45.249923], [-94.191036, 45.250469], [-94.191002, 45.250647], [-94.191194, 45.250813], [-94.191633, 45.250879], [-94.192197, 45.250882], [-94.192914, 45.251042], [-94.193482, 45.251284], [-94.193976, 45.251549], [-94.194321, 45.25189], [-94.194648, 45.252541], [-94.194757, 45.252955], [-94.195129, 45.253394], [-94.19576, 45.25424], [-94.196134, 45.254723], [-94.196182, 45.255253], [-94.196115, 45.255652], [-94.195858, 45.25592], [-94.195662, 45.256134], [-94.195415, 45.256291], [-94.195103, 45.25633], [-94.194738, 45.256245], [-94.194538, 45.256265], [-94.194465, 45.256337], [-94.194509, 45.256681], [-94.194632, 45.257157], [-94.19455, 45.258007], [-94.194479, 45.25822], [-94.194343, 45.258301], [-94.194142, 45.258259], [-94.19386, 45.25797], [-94.193576, 45.257566], [-94.193432, 45.257249]]]}}, {"type": "Feature", "properties": {"depth_ft": 40.0, "lake": "East Lake Sylvia", "dow": "86028900"}, "geometry": {"type": "Polygon", "coordinates": [[[-94.197417, 45.255642], [-94.196189, 45.256186], [-94.195235, 45.256629], [-94.19495, 45.256783], [-94.19483, 45.257023], [-94.194862, 45.257367], [-94.194831, 45.257704], [-94.194727, 45.258111], [-94.194495, 45.258388], [-94.194408, 45.258415], [-94.193928, 45.258217], [-94.193599, 45.258061], [-94.1935, 45.258124], [-94.193567, 45.258318], [-94.193848, 45.258572], [-94.194126, 45.258697], [-94.194265, 45.258775], [-94.194407, 45.25895], [-94.194552, 45.25932], [-94.194547, 45.259656], [-94.194338, 45.259871], [-94.193817, 45.26008], [-94.193644, 45.260205], [-94.19356, 45.260357], [-94.193767, 45.260673], [-94.193772, 45.260947], [-94.193613, 45.261103], [-94.193354, 45.261318], [-94.192882, 45.261491], [-94.192243, 45.261489], [-94.191538, 45.261284], [-94.190869, 45.261026], [-94.190258, 45.260555], [-94.189681, 45.259897], [-94.18916, 45.258957], [-94.189136, 45.258404], [-94.189083, 45.258263], [-94.189257, 45.25758], [-94.189196, 45.25705], [-94.188999, 45.256646], [-94.188385, 45.255993], [-94.188016, 45.255723], [-94.187749, 45.255549], [-94.187621, 45.255382], [-94.187603, 45.255117], [-94.187568, 45.25464], [-94.187498, 45.254313], [-94.187277, 45.253891], [-94.187033, 45.253597], [-94.186842, 45.253449], [-94.186614, 45.253328], [-94.186105, 45.252926], [-94.18571, 45.252594], [-94.185389, 45.252235], [-94.184773, 45.251498], [-94.184427, 45.251126], [-94.184179, 45.250625], [-94.184293, 45.250093], [-94.184399, 45.249791], [-94.184925, 45.249193], [-94.185256, 45.248845], [-94.185785, 45.248384], [-94.186215, 45.248026], [-94.186463, 45.247882], [-94.186785, 45.247746], [-94.187218, 45.247458], [-94.187453, 45.247332], [-94.18836, 45.246995], [-94.189231, 45.246739], [-94.190265, 45.246489], [-94.191324, 45.246279], [-94.192045, 45.246033], [-94.192304, 45.245844], [-94.192647, 45.245496], [-94.192902, 45.245104], [-94.193169, 45.244677], [-94.193672, 45.244194], [-94.194042, 45.243938], [-94.194488, 45.243739], [-94.195635, 45.243479], [-94.196472, 45.2434], [-94.196961, 45.24343], [-94.197239, 45.243569], [-94.197444, 45.243787], [-94.197577, 45.244184], [-94.197511, 45.244583], [-94.197316, 45.24485], [-94.19638, 45.245576], [-94.196087, 45.245951], [-94.195784, 45.246414], [-94.19522, 45.247008], [-94.195012, 45.247204], [-94.194843, 45.247507], [-94.194251, 45.247938], [-94.193723, 45.248447], [-94.193418, 45.248795], [-94.19279, 45.249319], [-94.192358, 45.249633], [-94.192024, 45.249787], [-94.191828, 45.25001], [-94.191681, 45.250171], [-94.191472, 45.250341], [-94.191412, 45.250457], [-94.191464, 45.250545], [-94.192229, 45.250625], [-94.192883, 45.250751], [-94.193361, 45.250896], [-94.193868, 45.251174], [-94.194507, 45.251773], [-94.194724, 45.251983], [-94.194867, 45.252238], [-94.195039, 45.252696], [-94.1953, 45.253206], [-94.195405, 45.253513], [-94.195609, 45.25373], [-94.196059, 45.254157], [-94.196557, 45.254477], [-94.197101, 45.254627], [-94.197723, 45.25467], [-94.198464, 45.254662], [-94.19898, 45.254466], [-94.199416, 45.254235], [-94.199868, 45.253914], [-94.2001, 45.253629], [-94.200132, 45.253372], [-94.199986, 45.252993], [-94.199027, 45.252048], [-94.198352, 45.251481], [-94.198092, 45.251063], [-94.197996, 45.250666], [-94.198141, 45.249807], [-94.198169, 45.249329], [-94.198215, 45.249143], [-94.198536, 45.248918], [-94.198759, 45.248819], [-94.198959, 45.248821], [-94.199161, 45.248872], [-94.199251, 45.248986], [-94.199241, 45.24911], [-94.199156, 45.24927], [-94.199283, 45.249348], [-94.199495, 45.249284], [-94.199641, 45.249106], [-94.19965, 45.248902], [-94.199644, 45.248646], [-94.199778, 45.248485], [-94.200139, 45.248375], [-94.20099, 45.248331], [-94.201104, 45.24841], [-94.20112, 45.24856], [-94.200988, 45.248862], [-94.200843, 45.249111], [-94.200965, 45.249561], [-94.201173, 45.249912], [-94.201367, 45.250202], [-94.201461, 45.250502], [-94.201418, 45.250829], [-94.201162, 45.251177], [-94.200858, 45.251574], [-94.200742, 45.252044], [-94.200735, 45.252291], [-94.200852, 45.252511], [-94.201169, 45.252702], [-94.201585, 45.252822], [-94.202162, 45.252851], [-94.202788, 45.252889], [-94.203343, 45.253069], [-94.203674, 45.25333], [-94.203694, 45.253666], [-94.203585, 45.25384], [-94.20314, 45.254145], [-94.202867, 45.254237], [-94.20208, 45.254333], [-94.200427, 45.254324], [-94.199086, 45.254825], [-94.198155, 45.25521], [-94.197417, 45.255642]]]}}, {"type": "Feature", "properties": {"depth_ft": 50.0, "lake": "East Lake Sylvia", "dow": "86028900"}, "geometry": {"type": "Polygon", "coordinates": [[[-94.201876, 45.2532], [-94.202821, 45.253353], [-94.203214, 45.253483], [-94.203316, 45.253567], [-94.203258, 45.253674], [-94.20301, 45.253782], [-94.202561, 45.253837], [-94.202168, 45.25377], [-94.201293, 45.253595], [-94.20097, 45.253471], [-94.200868, 45.25338], [-94.200986, 45.253259], [-94.201406, 45.253226], [-94.201876, 45.2532]]]}}, {"type": "Feature", "properties": {"depth_ft": 30.0, "lake": "East Lake Sylvia", "dow": "86028900"}, "geometry": {"type": "Polygon", "coordinates": [[[-94.20081, 45.248881], [-94.200578, 45.249002], [-94.200392, 45.24906], [-94.200129, 45.249047], [-94.199953, 45.248936], [-94.19989, 45.248824], [-94.199968, 45.248754], [-94.200322, 45.248664], [-94.200429, 45.248623], [-94.200531, 45.248539], [-94.20067, 45.248495], [-94.200891, 45.248529], [-94.201033, 45.2486], [-94.201035, 45.248663], [-94.200926, 45.248836], [-94.20081, 45.248881]]]}}, {"type": "Feature", "properties": {"depth_ft": 20.0, "lake": "East Lake Sylvia", "dow": "86028900"}, "geometry": {"type": "Polygon", "coordinates": [[[-94.193152, 45.262066], [-94.19252, 45.262088], [-94.191766, 45.262004], [-94.190988, 45.261789], [-94.190295, 45.261449], [-94.189817, 45.261016], [-94.189282, 45.260444], [-94.188956, 45.259978], [-94.188755, 45.259238], [-94.188732, 45.258645], [-94.188807, 45.258052], [-94.188902, 45.257507], [-94.188904, 45.257187], [-94.188891, 45.256971], [-94.188773, 45.256732], [-94.188637, 45.256506], [-94.188512, 45.25636], [-94.188209, 45.256048], [-94.187849, 45.25582], [-94.187559, 45.255616], [-94.18748, 45.255489], [-94.187397, 45.255224], [-94.187346, 45.254771], [-94.18727, 45.254444], [-94.187139, 45.254185], [-94.186904, 45.253946], [-94.186683, 45.253756], [-94.186356, 45.253459], [-94.185981, 45.25316], [-94.185249, 45.252513], [-94.184979, 45.252249], [-94.184649, 45.251827], [-94.184447, 45.251489], [-94.184211, 45.251201], [-94.184037, 45.250912], [-94.183935, 45.250699], [-94.183985, 45.250408], [-94.184006, 45.250097], [-94.184147, 45.2498], [-94.184309, 45.249538], [-94.18488, 45.248835], [-94.185619, 45.248187], [-94.186092, 45.24778], [-94.186795, 45.247384], [-94.187091, 45.247214], [-94.187491, 45.246988], [-94.187989, 45.24681], [-94.189377, 45.246483], [-94.190258, 45.246296], [-94.190697, 45.246267], [-94.190953, 45.246206], [-94.191694, 45.245954], [-94.192086, 45.245699], [-94.192429, 45.245419], [-94.192728, 45.245052], [-94.193099, 45.244435], [-94.193337, 45.244151], [-94.193604, 45.243937], [-94.194134, 45.243611], [-94.195591, 45.242909], [-94.196231, 45.242538], [-94.196672, 45.242267], [-94.196899, 45.242137], [-94.197023, 45.242081], [-94.197212, 45.242089], [-94.197499, 45.242157], [-94.197767, 45.242298], [-94.198679, 45.242559], [-94.19905, 45.242668], [-94.199339, 45.242813], [-94.199411, 45.242921], [-94.199394, 45.243078], [-94.198968, 45.243413], [-94.198481, 45.243765], [-94.198346, 45.243978], [-94.198302, 45.244205], [-94.198343, 45.244481], [-94.198453, 45.24477], [-94.198549, 45.245013], [-94.198568, 45.245239], [-94.198448, 45.245521], [-94.198285, 45.24572], [-94.1981, 45.24586], [-94.197833, 45.246104], [-94.197711, 45.246285], [-94.197651, 45.246414], [-94.197765, 45.246526], [-94.198097, 45.246409], [-94.198462, 45.246189], [-94.198687, 45.24593], [-94.1988, 45.245683], [-94.198888, 45.245204], [-94.19881, 45.244821], [-94.198799, 45.244631], [-94.198867, 45.244566], [-94.199062, 45.244545], [-94.199293, 45.244586], [-94.19956, 45.244702], [-94.199731, 45.244843], [-94.19991, 45.245087], [-94.199946, 45.245451], [-94.199702, 45.246153], [-94.1995, 45.246793], [-94.199224, 45.247254], [-94.199041, 45.247542], [-94.198929, 45.247836], [-94.198898, 45.248014], [-94.198979, 45.248234], [-94.199087, 45.248391], [-94.199315, 45.24862], [-94.199435, 45.248372], [-94.199516, 45.248249], [-94.199925, 45.248106], [-94.200979, 45.247829], [-94.201875, 45.247662], [-94.20266, 45.247553], [-94.203645, 45.247287], [-94.203937, 45.247279], [-94.204148, 45.24736], [-94.204221, 45.247527], [-94.204161, 45.24765], [-94.204033, 45.247834], [-94.203941, 45.248101], [-94.203803, 45.248191], [-94.203491, 45.248253], [-94.203107, 45.248248], [-94.202655, 45.248287], [-94.202252, 45.248375], [-94.201824, 45.248552], [-94.201451, 45.248723], [-94.201294, 45.248882], [-94.201242, 45.249053], [-94.201305, 45.249427], [-94.201458, 45.249725], [-94.201741, 45.250264], [-94.201829, 45.250477], [-94.201795, 45.250837], [-94.201614, 45.251159], [-94.201302, 45.251567], [-94.201129, 45.251985], [-94.201129, 45.252324], [-94.201188, 45.252472], [-94.201294, 45.252544], [-94.201574, 45.252596], [-94.202218, 45.252692], [-94.202943, 45.252699], [-94.203279, 45.25273], [-94.203838, 45.252828], [-94.204106, 45.252933], [-94.204353, 45.253101], [-94.204373, 45.253371], [-94.204214, 45.253762], [-94.20408, 45.25402], [-94.203549, 45.254306], [-94.202593, 45.254609], [-94.201921, 45.254818], [-94.201097, 45.255073], [-94.200466, 45.255257], [-94.199912, 45.255443], [-94.198829, 45.255685], [-94.198206, 45.255889], [-94.19777, 45.256071], [-94.197468, 45.256269], [-94.197064, 45.256637], [-94.19655, 45.257061], [-94.195927, 45.257607], [-94.195722, 45.257836], [-94.195609, 45.258073], [-94.195623, 45.258413], [-94.195667, 45.259179], [-94.195656, 45.259656], [-94.195585, 45.25994], [-94.195423, 45.260188], [-94.19523, 45.260294], [-94.19502, 45.260266], [-94.194809, 45.26016], [-94.194579, 45.260163], [-94.194413, 45.260243], [-94.194283, 45.260368], [-94.194184, 45.260605], [-94.194071, 45.260887], [-94.194008, 45.261205], [-94.193994, 45.26156], [-94.193914, 45.261699], [-94.193653, 45.261889], [-94.193328, 45.262055], [-94.193152, 45.262066]]]}}, {"type": "Feature", "properties": {"depth_ft": 15.0, "lake": "East Lake Sylvia", "dow": "86028900"}, "geometry": {"type": "Polygon", "coordinates": [[[-94.194105, 45.26185], [-94.19381, 45.262074], [-94.193289, 45.262198], [-94.192712, 45.262248], [-94.192041, 45.262206], [-94.191263, 45.262017], [-94.190751, 45.261862], [-94.190185, 45.261474], [-94.189689, 45.261105], [-94.189289, 45.260656], [-94.188908, 45.260121], [-94.188621, 45.259375], [-94.188519, 45.258852], [-94.188611, 45.258265], [-94.188763, 45.257827], [-94.188815, 45.25731], [-94.1888, 45.25696], [-94.188662, 45.256656], [-94.188446, 45.25637], [-94.188254, 45.25618], [-94.187984, 45.255951], [-94.187659, 45.255748], [-94.187447, 45.255597], [-94.187332, 45.255436], [-94.187244, 45.254883], [-94.18724, 45.254681], [-94.187072, 45.254353], [-94.18695, 45.254152], [-94.1868, 45.253981], [-94.186424, 45.253677], [-94.186055, 45.253366], [-94.185728, 45.253084], [-94.185408, 45.252806], [-94.184974, 45.252345], [-94.184622, 45.251886], [-94.184372, 45.251578], [-94.184006, 45.251087], [-94.183846, 45.250788], [-94.183792, 45.250518], [-94.183819, 45.250139], [-94.183889, 45.249835], [-94.184194, 45.249408], [-94.184604, 45.248976], [-94.184882, 45.248633], [-94.185448, 45.248024], [-94.185867, 45.247704], [-94.186398, 45.247398], [-94.186784, 45.247197], [-94.187294, 45.246894], [-94.187964, 45.246621], [-94.188707, 45.24646], [-94.189638, 45.246318], [-94.189896, 45.246303], [-94.190667, 45.246162], [-94.191159, 45.246048], [-94.191706, 45.245841], [-94.192207, 45.245476], [-94.192412, 45.245274], [-94.192757, 45.244783], [-94.193102, 45.244252], [-94.193416, 45.243949], [-94.19356, 45.243812], [-94.194483, 45.24331], [-94.194974, 45.243083], [-94.195643, 45.242741], [-94.195953, 45.24258], [-94.196428, 45.242282], [-94.196882, 45.242011], [-94.197125, 45.241955], [-94.197552, 45.242029], [-94.197889, 45.242158], [-94.198753, 45.242445], [-94.199223, 45.2426], [-94.199491, 45.242725], [-94.199536, 45.242892], [-94.199582, 45.243084], [-94.199476, 45.243351], [-94.199305, 45.243515], [-94.198911, 45.243647], [-94.198669, 45.243743], [-94.19847, 45.243933], [-94.198398, 45.244113], [-94.198416, 45.244315], [-94.198518, 45.244521], [-94.198528, 45.244688], [-94.198608, 45.244815], [-94.198633, 45.245017], [-94.198644, 45.245224], [-94.198654, 45.245344], [-94.1985, 45.245681], [-94.198316, 45.24589], [-94.198123, 45.24598], [-94.198, 45.2461], [-94.197947, 45.246204], [-94.197969, 45.246268], [-94.198073, 45.246271], [-94.198162, 45.246192], [-94.198356, 45.246101], [-94.19852, 45.245937], [-94.198668, 45.245689], [-94.19878, 45.245402], [-94.198796, 45.245136], [-94.198698, 45.244822], [-94.198689, 45.244689], [-94.198728, 45.244565], [-94.198858, 45.24448], [-94.199081, 45.244453], [-94.199367, 45.24446], [-94.199676, 45.244546], [-94.19981, 45.244648], [-94.199977, 45.244956], [-94.200052, 45.245202], [-94.200007, 45.245704], [-94.199857, 45.246233], [-94.199711, 45.24655], [-94.199484, 45.247022], [-94.199262, 45.247404], [-94.199092, 45.247637], [-94.199041, 45.247859], [-94.199115, 45.248058], [-94.199167, 45.24821], [-94.199252, 45.248288], [-94.19937, 45.248267], [-94.199507, 45.248153], [-94.199742, 45.248052], [-94.200533, 45.247841], [-94.201255, 45.247691], [-94.201852, 45.247596], [-94.203012, 45.247389], [-94.203643, 45.247215], [-94.20397, 45.247182], [-94.204243, 45.247224], [-94.204384, 45.247311], [-94.204389, 45.247542], [-94.204198, 45.248051], [-94.203972, 45.248276], [-94.203743, 45.248327], [-94.203332, 45.248307], [-94.2029, 45.248331], [-94.202371, 45.248401], [-94.201964, 45.248568], [-94.201543, 45.248774], [-94.201378, 45.248909], [-94.201326, 45.249094], [-94.201395, 45.249359], [-94.201605, 45.249746], [-94.2019, 45.250206], [-94.202009, 45.250389], [-94.202021, 45.250626], [-94.201937, 45.250937], [-94.201768, 45.25118], [-94.20144, 45.251538], [-94.201252, 45.251872], [-94.201237, 45.252153], [-94.201313, 45.252433], [-94.201629, 45.252543], [-94.202125, 45.252607], [-94.202524, 45.252662], [-94.202733, 45.252665], [-94.203025, 45.252632], [-94.203375, 45.252653], [-94.203955, 45.252745], [-94.204103, 45.252813], [-94.204371, 45.25297], [-94.204488, 45.253185], [-94.204466, 45.253481], [-94.204422, 45.253703], [-94.204233, 45.253991], [-94.203917, 45.254226], [-94.203703, 45.254349], [-94.203052, 45.254557], [-94.20227, 45.254812], [-94.201709, 45.255035], [-94.20119, 45.255203], [-94.200476, 45.255405], [-94.19954, 45.255666], [-94.198786, 45.25594], [-94.198344, 45.256131], [-94.197985, 45.256325], [-94.197601, 45.256634], [-94.197171, 45.257072], [-94.196481, 45.257742], [-94.196179, 45.258006], [-94.195909, 45.258427], [-94.195832, 45.258758], [-94.195809, 45.259283], [-94.195875, 45.25978], [-94.195771, 45.26015], [-94.19563, 45.26043], [-94.195389, 45.260575], [-94.195143, 45.260469], [-94.194855, 45.260359], [-94.194667, 45.260361], [-94.194412, 45.260521], [-94.194229, 45.260765], [-94.194152, 45.261115], [-94.194141, 45.261568], [-94.194137, 45.261733], [-94.194105, 45.26185]]]}}, {"type": "Feature", "properties": {"depth_ft": 10.0, "lake": "East Lake Sylvia", "dow": "86028900"}, "geometry": {"type": "Polygon", "coordinates": [[[-94.194317, 45.260958], [-94.194249, 45.261392], [-94.194251, 45.261826], [-94.19413, 45.262059], [-94.193793, 45.262289], [-94.193432, 45.262356], [-94.192547, 45.262361], [-94.191988, 45.262322], [-94.191315, 45.262152], [-94.190647, 45.261925], [-94.189878, 45.261455], [-94.189351, 45.260958], [-94.188809, 45.260361], [-94.188489, 45.259729], [-94.188383, 45.259343], [-94.188387, 45.25856], [-94.188478, 45.258224], [-94.188684, 45.257717], [-94.188725, 45.257377], [-94.188689, 45.256964], [-94.188571, 45.256682], [-94.188328, 45.256364], [-94.188079, 45.256125], [-94.18752, 45.255732], [-94.187151, 45.255438], [-94.187098, 45.255227], [-94.187081, 45.254789], [-94.187027, 45.254538], [-94.186861, 45.254269], [-94.186597, 45.253959], [-94.186306, 45.253701], [-94.185973, 45.253478], [-94.185823, 45.253302], [-94.185397, 45.252942], [-94.185091, 45.252622], [-94.184626, 45.252066], [-94.184233, 45.251582], [-94.183881, 45.251116], [-94.183693, 45.250788], [-94.183644, 45.250433], [-94.183653, 45.25018], [-94.183919, 45.249601], [-94.18438, 45.24897], [-94.184781, 45.248471], [-94.185191, 45.248039], [-94.185844, 45.247579], [-94.186221, 45.247301], [-94.186586, 45.247076], [-94.187159, 45.246784], [-94.187601, 45.246607], [-94.188837, 45.246348], [-94.190818, 45.246044], [-94.191289, 45.245892], [-94.191689, 45.245705], [-94.192143, 45.245388], [-94.192409, 45.245134], [-94.192699, 45.244673], [-94.193037, 45.244162], [-94.193275, 45.243871], [-94.193902, 45.243505], [-94.194632, 45.243089], [-94.195295, 45.242786], [-94.195771, 45.242557], [-94.196329, 45.242197], [-94.196776, 45.241946], [-94.196984, 45.24185], [-94.19722, 45.241818], [-94.19757, 45.241878], [-94.198146, 45.242074], [-94.198883, 45.24232], [-94.199226, 45.242415], [-94.199423, 45.242507], [-94.199586, 45.242603], [-94.199728, 45.24275], [-94.199775, 45.242991], [-94.199821, 45.243177], [-94.19979, 45.243335], [-94.199604, 45.243485], [-94.199093, 45.243719], [-94.198755, 45.243866], [-94.198563, 45.244001], [-94.198524, 45.244144], [-94.198569, 45.244291], [-94.198647, 45.244389], [-94.198829, 45.244407], [-94.198988, 45.244356], [-94.199482, 45.244316], [-94.199769, 45.244338], [-94.199973, 45.244439], [-94.20011, 45.244669], [-94.200163, 45.244851], [-94.200167, 45.24569], [-94.199983, 45.246249], [-94.199892, 45.246533], [-94.199336, 45.247642], [-94.199236, 45.247828], [-94.199233, 45.24802], [-94.199387, 45.248048], [-94.199706, 45.247976], [-94.200074, 45.247913], [-94.200566, 45.24775], [-94.201127, 45.247596], [-94.202059, 45.247483], [-94.20249, 45.247392], [-94.202947, 45.24725], [-94.20369, 45.247099], [-94.204079, 45.247065], [-94.204386, 45.247082], [-94.204676, 45.247261], [-94.204727, 45.247359], [-94.204612, 45.247528], [-94.204396, 45.24786], [-94.204317, 45.248087], [-94.204105, 45.248301], [-94.203919, 45.248382], [-94.203439, 45.248456], [-94.202999, 45.248426], [-94.202713, 45.248419], [-94.202186, 45.248538], [-94.201717, 45.248779], [-94.201524, 45.248897], [-94.201486, 45.249055], [-94.201463, 45.249297], [-94.201608, 45.249556], [-94.20178, 45.249781], [-94.202039, 45.250177], [-94.20215, 45.250474], [-94.20211, 45.250888], [-94.201962, 45.251126], [-94.201669, 45.251454], [-94.201425, 45.25178], [-94.201387, 45.251982], [-94.201442, 45.252277], [-94.201535, 45.252374], [-94.2019, 45.252489], [-94.202271, 45.252588], [-94.202456, 45.252632], [-94.202635, 45.252645], [-94.202841, 45.252616], [-94.203063, 45.252542], [-94.203527, 45.252597], [-94.203856, 45.252625], [-94.204081, 45.25267], [-94.204358, 45.25284], [-94.204522, 45.253028], [-94.204635, 45.25345], [-94.204532, 45.253821], [-94.204315, 45.254109], [-94.203901, 45.254337], [-94.203155, 45.25466], [-94.202013, 45.255091], [-94.201313, 45.255266], [-94.199989, 45.255666], [-94.199061, 45.255957], [-94.198571, 45.256223], [-94.198031, 45.256699], [-94.197547, 45.257251], [-94.196603, 45.258115], [-94.196134, 45.258701], [-94.19601, 45.259114], [-94.196069, 45.259906], [-94.195983, 45.260139], [-94.195843, 45.260438], [-94.19568, 45.260647], [-94.195556, 45.260722], [-94.19541, 45.260743], [-94.195206, 45.260681], [-94.194994, 45.260545], [-94.19477, 45.260499], [-94.194562, 45.260565], [-94.194385, 45.260749], [-94.194317, 45.260958]]]}}]}