{"type": "FeatureCollection", "features": [{"type": "Feature", "properties": {"depth_ft": 0.0, "lake": "French Lake", "dow": "86027300"}, "geometry": {"type": "Polygon", "coordinates": [[[-94.16881, 45.203188], [-94.168367, 45.203101], [-94.167999, 45.203092], [-94.167316, 45.20293], [-94.166524, 45.202886], [-94.166435, 45.203017], [-94.166214, 45.203006], [-94.165685, 45.203233], [-94.165588, 45.202974], [-94.16541, 45.202724], [-94.165346, 45.202846], [-94.165389, 45.203145], [-94.165281, 45.203237], [-94.165339, 45.203405], [-94.165266, 45.203406], [-94.165107, 45.203707], [-94.164739, 45.203736], [-94.164484, 45.203843], [-94.164378, 45.204026], [-94.164571, 45.204505], [-94.164648, 45.204673], [-94.16469, 45.204933], [-94.164858, 45.205061], [-94.164957, 45.205372], [-94.16533, 45.205641], [-94.165875, 45.206195], [-94.166346, 45.206762], [-94.166761, 45.207264], [-94.166896, 45.207562], [-94.166936, 45.207744], [-94.16672, 45.20798], [-94.166781, 45.208252], [-94.1669, 45.208693], [-94.167054, 45.209016], [-94.167448, 45.209415], [-94.167915, 45.209775], [-94.168692, 45.209988], [-94.169413, 45.210162], [-94.169911, 45.210235], [-94.170152, 45.210324], [-94.170285, 45.210556], [-94.1706, 45.210644], [-94.170827, 45.210941], [-94.171151, 45.211496], [-94.171174, 45.211756], [-94.171348, 45.212131], [-94.171375, 45.212547], [-94.171235, 45.212899], [-94.170948, 45.213266], [-94.170386, 45.213649], [-94.16982, 45.213876], [-94.168834, 45.214237], [-94.16817, 45.21414], [-94.168059, 45.214089], [-94.167983, 45.21396], [-94.167612, 45.21382], [-94.167449, 45.213939], [-94.167045, 45.213982], [-94.166785, 45.213855], [-94.166678, 45.214012], [-94.166608, 45.214169], [-94.166296, 45.214211], [-94.166097, 45.214395], [-94.165896, 45.214449], [-94.165549, 45.21457], [-94.165461, 45.214778], [-94.165315, 45.214819], [-94.165168, 45.21482], [-94.164931, 45.214914], [-94.164618, 45.21493], [-94.164508, 45.214918], [-94.164304, 45.214855], [-94.163865, 45.214977], [-94.163423, 45.214916], [-94.162375, 45.21494], [-94.162376, 45.214979], [-94.162322, 45.215057], [-94.162193, 45.215046], [-94.161988, 45.214918], [-94.161786, 45.214933], [-94.161512, 45.215001], [-94.161459, 45.215105], [-94.161241, 45.215276], [-94.161044, 45.215499], [-94.161066, 45.215707], [-94.160958, 45.215786], [-94.160793, 45.215814], [-94.160554, 45.215816], [-94.16035, 45.215766], [-94.160222, 45.215807], [-94.160208, 45.216002], [-94.160007, 45.216082], [-94.159774, 45.216357], [-94.159553, 45.216359], [-94.159445, 45.216452], [-94.159448, 45.216621], [-94.159338, 45.216661], [-94.159266, 45.216713], [-94.159069, 45.216975], [-94.158886, 45.217016], [-94.158666, 45.217083], [-94.158427, 45.21706], [-94.157526, 45.217069], [-94.157138, 45.216995], [-94.15675, 45.216882], [-94.156306, 45.216756], [-94.155988, 45.216513], [-94.155669, 45.216191], [-94.155591, 45.215971], [-94.155715, 45.215761], [-94.155286, 45.215454], [-94.155152, 45.215182], [-94.155019, 45.215001], [-94.154845, 45.214548], [-94.155026, 45.214429], [-94.154967, 45.214209], [-94.154833, 45.213976], [-94.154787, 45.213509], [-94.154863, 45.212728], [-94.1552, 45.212101], [-94.155179, 45.211971], [-94.155325, 45.211905], [-94.155579, 45.211772], [-94.155578, 45.211694], [-94.155793, 45.211445], [-94.155753, 45.211276], [-94.155822, 45.211042], [-94.155708, 45.210874], [-94.155742, 45.210704], [-94.156056, 45.209882], [-94.156693, 45.208667], [-94.15751, 45.207229], [-94.157995, 45.206678], [-94.158721, 45.206176], [-94.158735, 45.205968], [-94.159007, 45.205796], [-94.158949, 45.205615], [-94.15909, 45.205341], [-94.159269, 45.205092], [-94.159249, 45.205001], [-94.159536, 45.204647], [-94.159568, 45.204452], [-94.159437, 45.20431], [-94.159361, 45.20422], [-94.159432, 45.20405], [-94.159541, 45.203984], [-94.159461, 45.203686], [-94.15953, 45.203464], [-94.159342, 45.203245], [-94.159446, 45.202932], [-94.15937, 45.202816], [-94.159276, 45.202739], [-94.159175, 45.202285], [-94.159499, 45.201918], [-94.160243, 45.201468], [-94.160974, 45.20124], [-94.161652, 45.201116], [-94.16176, 45.201011], [-94.162109, 45.200994], [-94.162456, 45.200887], [-94.162971, 45.200868], [-94.163116, 45.200763], [-94.163704, 45.200744], [-94.163775, 45.200639], [-94.163922, 45.200638], [-94.164397, 45.200451], [-94.165093, 45.200327], [-94.16575, 45.200112], [-94.166096, 45.199953], [-94.166372, 45.199924], [-94.166757, 45.199881], [-94.167051, 45.199878], [-94.167514, 45.200029], [-94.168095, 45.200569], [-94.168487, 45.200877], [-94.169048, 45.201313], [-94.169346, 45.201518], [-94.169442, 45.201699], [-94.169314, 45.201753], [-94.169673, 45.20223], [-94.169746, 45.202177], [-94.169876, 45.202241], [-94.16973, 45.20232], [-94.169954, 45.202448], [-94.170218, 45.202796], [-94.169834, 45.202878], [-94.169543, 45.203037], [-94.16916, 45.203184], [-94.168958, 45.203199], [-94.16881, 45.203188]]]}}, {"type": "Feature", "properties": {"depth_ft": 40.0, "lake": "French Lake", "dow": "86027300"}, "geometry": {"type": "Polygon", "coordinates": [[[-94.167484, 45.201627], [-94.167622, 45.201715], [-94.167705, 45.201843], [-94.167661, 45.201948], [-94.167525, 45.201966], [-94.16741, 45.201935], [-94.167329, 45.201879], [-94.167237, 45.20184], [-94.166928, 45.20177], [-94.16647, 45.201734], [-94.166253, 45.201729], [-94.166116, 45.201682], [-94.166034, 45.201586], [-94.166041, 45.201392], [-94.166005, 45.201304], [-94.165924, 45.201256], [-94.165648, 45.201154], [-94.165556, 45.20109], [-94.16553, 45.200962], [-94.165586, 45.200896], [-94.165722, 45.200847], [-94.166019, 45.200876], [-94.166607, 45.201144], [-94.167103, 45.201405], [-94.167484, 45.201627]]]}}, {"type": "Feature", "properties": {"depth_ft": 50.0, "lake": "French Lake", "dow": "86027300"}, "geometry": {"type": "Polygon", "coordinates": [[[-94.165898, 45.201087], [-94.166024, 45.20111], [-94.166093, 45.201158], [-94.166164, 45.201246], [-94.166085, 45.201279], [-94.166004, 45.201255], [-94.165923, 45.201208], [-94.165876, 45.201144], [-94.165898, 45.201087]]]}}, {"type": "Feature", "properties": {"depth_ft": 30.0, "lake": "French Lake", "dow": "86027300"}, "geometry": {"type": "Polygon", "coordinates": [[[-94.168108, 45.201876], [-94.167928, 45.201994], [-94.167875, 45.202046], [-94.167876, 45.202136], [-94.167889, 45.202298], [-94.167845, 45.202375], [-94.167808, 45.202382], [-94.167679, 45.2023], [-94.167521, 45.202159], [-94.167335, 45.202019], [-94.167152, 45.201963], [-94.16697, 45.201991], [-94.166842, 45.202018], [-94.166687, 45.202007], [-94.166539, 45.201898], [-94.166327, 45.201817], [-94.166172, 45.201799], [-94.165959, 45.201665], [-94.165745, 45.201448], [-94.165644, 45.201417], [-94.165432, 45.201348], [-94.165348, 45.201239], [-94.165317, 45.201053], [-94.16536, 45.200923], [-94.165611, 45.200695], [-94.165737, 45.200648], [-94.165975, 45.200639], [-94.166167, 45.200663], [-94.166367, 45.200655], [-94.166533, 45.200705], [-94.1667, 45.200832], [-94.166839, 45.200972], [-94.167005, 45.201055], [-94.167179, 45.201053], [-94.167306, 45.201032], [-94.167443, 45.20105], [-94.167655, 45.201132], [-94.167831, 45.201272], [-94.168074, 45.201541], [-94.168187, 45.201707], [-94.168179, 45.201772], [-94.168108, 45.201876]]]}}, {"type": "Feature", "properties": {"depth_ft": 20.0, "lake": "French Lake", "dow": "86027300"}, "geometry": {"type": "Polygon", "coordinates": [[[-94.168659, 45.202025], [-94.168707, 45.202121], [-94.168644, 45.202167], [-94.168516, 45.202175], [-94.168297, 45.20219], [-94.168179, 45.202217], [-94.168081, 45.202315], [-94.168074, 45.202425], [-94.168067, 45.202509], [-94.167976, 45.202568], [-94.167876, 45.202543], [-94.167746, 45.202435], [-94.167551, 45.202282], [-94.167357, 45.202193], [-94.16723, 45.202207], [-94.167012, 45.202255], [-94.166884, 45.202243], [-94.166579, 45.202072], [-94.166321, 45.201972], [-94.166028, 45.201897], [-94.165754, 45.2019], [-94.165653, 45.201869], [-94.165551, 45.201812], [-94.165522, 45.201741], [-94.165406, 45.2014], [-94.165274, 45.201214], [-94.165225, 45.201041], [-94.16525, 45.200918], [-94.165356, 45.200755], [-94.165526, 45.200586], [-94.165716, 45.200487], [-94.165916, 45.200459], [-94.166188, 45.200385], [-94.166372, 45.200416], [-94.166611, 45.20051], [-94.166886, 45.200585], [-94.167254, 45.200704], [-94.167347, 45.200819], [-94.167451, 45.200953], [-94.16757, 45.20101], [-94.167894, 45.2012], [-94.167996, 45.20129], [-94.168081, 45.201418], [-94.16825, 45.201681], [-94.168362, 45.201783], [-94.168659, 45.202025]]]}}, {"type": "Feature", "properties": {"depth_ft": 15.0, "lake": "French Lake", "dow": "86027300"}, "geometry": {"type": "Polygon", "coordinates": [[[-94.164608, 45.201202], [-94.164523, 45.201093], [-94.164522, 45.201022], [-94.164602, 45.200924], [-94.164765, 45.200865], [-94.164993, 45.200856], [-94.165165, 45.200802], [-94.165282, 45.200711], [-94.165425, 45.200554], [-94.165642, 45.20043], [-94.165832, 45.200383], [-94.166177, 45.200256], [-94.166396, 45.200261], [-94.166662, 45.200342], [-94.166918, 45.200365], [-94.167056, 45.200415], [-94.167158, 45.200492], [-94.167299, 45.200664], [-94.167411, 45.200799], [-94.167559, 45.200888], [-94.167836, 45.201065], [-94.167967, 45.2012], [-94.168088, 45.201334], [-94.168228, 45.201481], [-94.168674, 45.201857], [-94.16889, 45.202158], [-94.168874, 45.202281], [-94.168766, 45.202347], [-94.168611, 45.202361], [-94.168474, 45.202363], [-94.168365, 45.202389], [-94.168257, 45.202449], [-94.168222, 45.20252], [-94.168206, 45.20261], [-94.168134, 45.202689], [-94.168052, 45.202709], [-94.167961, 45.20269], [-94.16785, 45.202621], [-94.167581, 45.202417], [-94.167416, 45.20238], [-94.167234, 45.202395], [-94.167024, 45.202423], [-94.166895, 45.202379], [-94.166618, 45.20222], [-94.166398, 45.202171], [-94.166151, 45.202147], [-94.165867, 45.20206], [-94.165525, 45.201889], [-94.164905, 45.20147], [-94.164608, 45.201202]]]}}, {"type": "Feature", "properties": {"depth_ft": 10.0, "lake": "French Lake", "dow": "86027300"}, "geometry": {"type": "Polygon", "coordinates": [[[-94.165981, 45.202304], [-94.165821, 45.202306], [-94.165436, 45.202213], [-94.165217, 45.202196], [-94.165035, 45.202223], [-94.164861, 45.202193], [-94.164649, 45.202085], [-94.164018, 45.201627], [-94.163881, 45.201583], [-94.163845, 45.201629], [-94.163904, 45.201815], [-94.164016, 45.201969], [-94.163972, 45.202015], [-94.163816, 45.20201], [-94.163496, 45.201987], [-94.163159, 45.202004], [-94.162839, 45.201988], [-94.16249, 45.201888], [-94.162224, 45.201833], [-94.162115, 45.201847], [-94.162043, 45.201899], [-94.162051, 45.202034], [-94.162155, 45.202214], [-94.162212, 45.202349], [-94.162169, 45.202478], [-94.161999, 45.202622], [-94.161773, 45.202754], [-94.161537, 45.202827], [-94.161494, 45.202937], [-94.161505, 45.20304], [-94.161775, 45.203321], [-94.161825, 45.203534], [-94.161719, 45.20389], [-94.16157, 45.204208], [-94.161527, 45.204324], [-94.161657, 45.204439], [-94.161831, 45.20447], [-94.162022, 45.204448], [-94.162367, 45.204329], [-94.162899, 45.204046], [-94.163098, 45.203947], [-94.163272, 45.203977], [-94.16343, 45.204085], [-94.163579, 45.204252], [-94.163819, 45.204378], [-94.163968, 45.204512], [-94.164138, 45.204788], [-94.164206, 45.205026], [-94.164182, 45.205188], [-94.164204, 45.205329], [-94.164395, 45.205521], [-94.164529, 45.20583], [-94.164659, 45.20597], [-94.165046, 45.206134], [-94.165195, 45.206274], [-94.165199, 45.206462], [-94.165247, 45.206577], [-94.165551, 45.206735], [-94.165672, 45.20685], [-94.165732, 45.207108], [-94.165808, 45.207475], [-94.166063, 45.207866], [-94.166178, 45.208155], [-94.166194, 45.208484], [-94.166145, 45.208782], [-94.166212, 45.209129], [-94.166408, 45.209366], [-94.166705, 45.209589], [-94.167047, 45.209798], [-94.167446, 45.210123], [-94.167624, 45.210335], [-94.167744, 45.210372], [-94.168182, 45.210381], [-94.168914, 45.210463], [-94.169171, 45.210532], [-94.169338, 45.21064], [-94.169686, 45.210939], [-94.170019, 45.211155], [-94.170546, 45.21144], [-94.170732, 45.211639], [-94.170699, 45.211813], [-94.170714, 45.212065], [-94.170846, 45.212276], [-94.170885, 45.212418], [-94.170851, 45.212541], [-94.17075, 45.212735], [-94.17049, 45.212964], [-94.17033, 45.213159], [-94.170167, 45.213258], [-94.169962, 45.213473], [-94.169645, 45.213618], [-94.169055, 45.213766], [-94.168708, 45.213795], [-94.168525, 45.213771], [-94.16803, 45.213654], [-94.167715, 45.213644], [-94.167415, 45.213699], [-94.167179, 45.213779], [-94.166997, 45.2138], [-94.166712, 45.213719], [-94.166391, 45.213658], [-94.166227, 45.213672], [-94.16601, 45.213746], [-94.165394, 45.213991], [-94.16474, 45.214152], [-94.163996, 45.214198], [-94.163513, 45.21421], [-94.162985, 45.214293], [-94.162741, 45.214405], [-94.162613, 45.214406], [-94.162521, 45.214381], [-94.162401, 45.214305], [-94.162227, 45.214294], [-94.162091, 45.214347], [-94.161966, 45.21449], [-94.161749, 45.214563], [-94.161512, 45.214579], [-94.161383, 45.214541], [-94.161256, 45.214562], [-94.161165, 45.214595], [-94.161095, 45.214718], [-94.160941, 45.214817], [-94.160497, 45.214963], [-94.159983, 45.215046], [-94.159948, 45.215111], [-94.159987, 45.215265], [-94.159881, 45.215428], [-94.158966, 45.215798], [-94.158302, 45.215915], [-94.157481, 45.215962], [-94.157216, 45.215939], [-94.156464, 45.215772], [-94.156155, 45.215607], [-94.156098, 45.215505], [-94.156224, 45.215433], [-94.156488, 45.215398], [-94.157054, 45.215379], [-94.157218, 45.215332], [-94.157226, 45.215287], [-94.157134, 45.215249], [-94.156942, 45.215245], [-94.156613, 45.215235], [-94.156329, 45.215173], [-94.156199, 45.215071], [-94.156197, 45.214975], [-94.156265, 45.214742], [-94.156252, 45.214561], [-94.156241, 45.214458], [-94.156081, 45.214221], [-94.156041, 45.213795], [-94.155926, 45.213545], [-94.155655, 45.213257], [-94.155495, 45.213026], [-94.155454, 45.212801], [-94.155525, 45.212665], [-94.155705, 45.21256], [-94.155957, 45.212383], [-94.156132, 45.21222], [-94.156256, 45.212057], [-94.156282, 45.211954], [-94.156334, 45.21185], [-94.156406, 45.211772], [-94.15656, 45.211731], [-94.156834, 45.211735], [-94.157061, 45.211668], [-94.157123, 45.211577], [-94.157103, 45.211494], [-94.156964, 45.211392], [-94.157108, 45.211274], [-94.157508, 45.21118], [-94.157543, 45.211115], [-94.157505, 45.211064], [-94.157266, 45.210969], [-94.157007, 45.210804], [-94.156904, 45.210702], [-94.156811, 45.2106], [-94.156575, 45.210428], [-94.156527, 45.210312], [-94.15657, 45.210208], [-94.156795, 45.210019], [-94.157138, 45.209841], [-94.157445, 45.209677], [-94.157634, 45.209526], [-94.157824, 45.209428], [-94.158051, 45.209367], [-94.158458, 45.209208], [-94.158557, 45.209136], [-94.158601, 45.209033], [-94.158589, 45.208891], [-94.158488, 45.208653], [-94.158423, 45.208583], [-94.158402, 45.20848], [-94.158455, 45.208402], [-94.158546, 45.208356], [-94.158854, 45.208269], [-94.159072, 45.208182], [-94.159171, 45.20811], [-94.159205, 45.208], [-94.159158, 45.207911], [-94.159201, 45.20782], [-94.159318, 45.207741], [-94.15948, 45.207591], [-94.159496, 45.207494], [-94.159467, 45.20741], [-94.1594, 45.207269], [-94.159444, 45.207159], [-94.159534, 45.207094], [-94.159696, 45.207027], [-94.15985, 45.206955], [-94.160071, 45.206804], [-94.160275, 45.206544], [-94.160418, 45.206349], [-94.16046, 45.206213], [-94.160439, 45.206052], [-94.160304, 45.205679], [-94.16025, 45.205286], [-94.160268, 45.204615], [-94.160247, 45.204473], [-94.160173, 45.204415], [-94.159995, 45.204204], [-94.159982, 45.204024], [-94.160131, 45.2037], [-94.160443, 45.203341], [-94.160513, 45.203205], [-94.160524, 45.203063], [-94.160363, 45.202774], [-94.160368, 45.202587], [-94.160585, 45.202443], [-94.160892, 45.202298], [-94.161135, 45.202115], [-94.161232, 45.201972], [-94.16141, 45.201751], [-94.161655, 45.201651], [-94.16201, 45.201602], [-94.162856, 45.201484], [-94.16311, 45.201411], [-94.163214, 45.201332], [-94.163285, 45.201228], [-94.163438, 45.201149], [-94.163639, 45.201141], [-94.163876, 45.201132], [-94.164012, 45.201072], [-94.164153, 45.200858], [-94.164289, 45.200785], [-94.164579, 45.200712], [-94.164971, 45.200656], [-94.165234, 45.200576], [-94.165531, 45.200366], [-94.165703, 45.200319], [-94.165903, 45.200272], [-94.166084, 45.200186], [-94.16623, 45.200166], [-94.166715, 45.200251], [-94.167008, 45.20028], [-94.167146, 45.200324], [-94.167285, 45.200465], [-94.167361, 45.200612], [-94.167629, 45.200771], [-94.167861, 45.200936], [-94.168067, 45.201205], [-94.168596, 45.201626], [-94.168997, 45.202035], [-94.16914, 45.20233], [-94.169079, 45.202472], [-94.168907, 45.202565], [-94.168716, 45.202579], [-94.168534, 45.202594], [-94.168416, 45.202615], [-94.168307, 45.202674], [-94.168209, 45.202785], [-94.168055, 45.202812], [-94.167963, 45.202781], [-94.167731, 45.202628], [-94.167537, 45.202514], [-94.167446, 45.202509], [-94.167346, 45.202522], [-94.167282, 45.202555], [-94.167164, 45.202576], [-94.16699, 45.202552], [-94.166907, 45.202495], [-94.166759, 45.20238], [-94.166575, 45.202324], [-94.166374, 45.2023], [-94.165981, 45.202304]]]}}, {"type": "Feature", "properties": {"depth_ft": 5.0, "lake": "French Lake", "dow": "86027300"}, "geometry": {"type": "Polygon", "coordinates": [[[-94.169347, 45.202412], [-94.169436, 45.202514], [-94.169519, 45.202565], [-94.169903, 45.202593], [-94.169941, 45.20267], [-94.169843, 45.2028], [-94.169617, 45.202874], [-94.169188, 45.202871], [-94.168767, 45.202831], [-94.168461, 45.202827], [-94.168352, 45.202835], [-94.168234, 45.202881], [-94.168116, 45.202895], [-94.167987, 45.202877], [-94.167766, 45.202757], [-94.167591, 45.202701], [-94.167436, 45.202715], [-94.167291, 45.202762], [-94.167154, 45.20275], [-94.16697, 45.202694], [-94.166632, 45.202659], [-94.166246, 45.202534], [-94.166008, 45.202523], [-94.165834, 45.20246], [-94.165733, 45.202449], [-94.165543, 45.202522], [-94.165415, 45.202529], [-94.165351, 45.202517], [-94.165259, 45.202466], [-94.165149, 45.202435], [-94.16491, 45.202392], [-94.164549, 45.202112], [-94.164456, 45.202062], [-94.164393, 45.202069], [-94.164422, 45.202152], [-94.164637, 45.202402], [-94.164786, 45.202536], [-94.164736, 45.202575], [-94.16445, 45.202442], [-94.164055, 45.202317], [-94.163909, 45.202306], [-94.163608, 45.202315], [-94.163297, 45.202273], [-94.16282, 45.202149], [-94.162728, 45.20215], [-94.162693, 45.202221], [-94.162724, 45.202395], [-94.16276, 45.202795], [-94.162748, 45.203118], [-94.16258, 45.203378], [-94.162289, 45.203645], [-94.162254, 45.20371], [-94.162391, 45.203728], [-94.162591, 45.2037], [-94.163009, 45.203593], [-94.163501, 45.203549], [-94.163766, 45.203572], [-94.163932, 45.203648], [-94.164025, 45.203737], [-94.164018, 45.203841], [-94.163883, 45.203945], [-94.163785, 45.204056], [-94.163797, 45.204172], [-94.164057, 45.204421], [-94.164255, 45.204735], [-94.164399, 45.205044], [-94.164567, 45.205248], [-94.164644, 45.205441], [-94.164615, 45.205583], [-94.164654, 45.205731], [-94.164896, 45.205929], [-94.165293, 45.206177], [-94.165377, 45.206266], [-94.16539, 45.206447], [-94.165448, 45.206575], [-94.165678, 45.206702], [-94.165836, 45.206816], [-94.165892, 45.206874], [-94.165906, 45.2071], [-94.166004, 45.207234], [-94.166117, 45.207394], [-94.166156, 45.207517], [-94.16626, 45.207664], [-94.166326, 45.207786], [-94.166391, 45.208276], [-94.166441, 45.208966], [-94.166532, 45.209139], [-94.166856, 45.209355], [-94.167079, 45.209553], [-94.167395, 45.20984], [-94.16761, 45.210102], [-94.167703, 45.21016], [-94.167922, 45.210177], [-94.168472, 45.210294], [-94.168985, 45.210359], [-94.169561, 45.210424], [-94.169901, 45.210518], [-94.170164, 45.210657], [-94.170285, 45.210766], [-94.17028, 45.210953], [-94.170328, 45.211094], [-94.170541, 45.211228], [-94.170811, 45.211496], [-94.170838, 45.211902], [-94.170954, 45.21243], [-94.170942, 45.212734], [-94.170835, 45.212864], [-94.170638, 45.213033], [-94.170358, 45.213223], [-94.170116, 45.21342], [-94.169854, 45.213577], [-94.169619, 45.213696], [-94.169366, 45.213782], [-94.169057, 45.213889], [-94.168875, 45.213916], [-94.168747, 45.213898], [-94.168279, 45.213774], [-94.168032, 45.213738], [-94.167794, 45.213721], [-94.167594, 45.213742], [-94.167307, 45.213816], [-94.167089, 45.213851], [-94.166952, 45.213839], [-94.166796, 45.213802], [-94.166677, 45.21379], [-94.166496, 45.213857], [-94.166215, 45.213995], [-94.165646, 45.214253], [-94.165092, 45.2144], [-94.164691, 45.214469], [-94.1644, 45.21453], [-94.163984, 45.214683], [-94.163712, 45.214789], [-94.163543, 45.214797], [-94.162958, 45.214745], [-94.162693, 45.21476], [-94.162164, 45.214785], [-94.161351, 45.214767], [-94.161225, 45.214833], [-94.161036, 45.214977], [-94.160836, 45.215011], [-94.160618, 45.215078], [-94.160548, 45.215214], [-94.160405, 45.215384], [-94.160125, 45.215535], [-94.159799, 45.215667], [-94.159641, 45.215766], [-94.159561, 45.215863], [-94.159418, 45.216033], [-94.159202, 45.216177], [-94.159032, 45.21634], [-94.158852, 45.216458], [-94.158753, 45.216543], [-94.158638, 45.216705], [-94.158494, 45.216816], [-94.158313, 45.216876], [-94.158057, 45.216879], [-94.157617, 45.216799], [-94.156918, 45.216548], [-94.156429, 45.216315], [-94.156262, 45.216181], [-94.156214, 45.216059], [-94.156221, 45.215929], [-94.15621, 45.215859], [-94.156154, 45.215801], [-94.156071, 45.21575], [-94.15597, 45.215745], [-94.15586, 45.215714], [-94.155795, 45.215637], [-94.155774, 45.215534], [-94.155828, 45.215475], [-94.155867, 45.215391], [-94.155874, 45.215275], [-94.155782, 45.215211], [-94.155697, 45.215096], [-94.155689, 45.214709], [-94.155608, 45.214322], [-94.155541, 45.214142], [-94.155502, 45.214027], [-94.155564, 45.213942], [-94.155671, 45.213818], [-94.155697, 45.213715], [-94.155668, 45.213657], [-94.155431, 45.213459], [-94.155252, 45.21319], [-94.155246, 45.2129], [-94.155376, 45.212518], [-94.155593, 45.212225], [-94.155988, 45.211886], [-94.156321, 45.211663], [-94.156455, 45.211519], [-94.156588, 45.211325], [-94.156704, 45.211149], [-94.156711, 45.211046], [-94.156571, 45.210918], [-94.156355, 45.21063], [-94.15627, 45.210463], [-94.156289, 45.210276], [-94.156457, 45.210016], [-94.156645, 45.209827], [-94.156879, 45.209676], [-94.157322, 45.209452], [-94.157721, 45.209306], [-94.157874, 45.209214], [-94.158008, 45.209077], [-94.158014, 45.208935], [-94.157967, 45.208845], [-94.157865, 45.208782], [-94.157642, 45.208578], [-94.157607, 45.20843], [-94.157687, 45.208319], [-94.157796, 45.208286], [-94.158087, 45.208231], [-94.158286, 45.208158], [-94.158367, 45.208067], [-94.158398, 45.207815], [-94.158565, 45.207504], [-94.158675, 45.207089], [-94.158836, 45.206894], [-94.158962, 45.206815], [-94.159497, 45.206629], [-94.159838, 45.206555], [-94.160135, 45.206391], [-94.160206, 45.206267], [-94.160194, 45.206132], [-94.160165, 45.206035], [-94.160015, 45.205863], [-94.15993, 45.205696], [-94.159973, 45.205598], [-94.159998, 45.205463], [-94.159977, 45.205314], [-94.159963, 45.205076], [-94.160006, 45.204959], [-94.160029, 45.204759], [-94.159993, 45.204533], [-94.159908, 45.204418], [-94.159759, 45.204258], [-94.15972, 45.20413], [-94.159811, 45.203664], [-94.160047, 45.203145], [-94.160035, 45.203023], [-94.159988, 45.202933], [-94.159731, 45.202678], [-94.159682, 45.202504], [-94.159753, 45.202387], [-94.159852, 45.202334], [-94.160142, 45.202202], [-94.160359, 45.202097], [-94.160521, 45.202005], [-94.160728, 45.20188], [-94.160827, 45.201769], [-94.161159, 45.201495], [-94.161358, 45.201441], [-94.162116, 45.201427], [-94.162516, 45.201378], [-94.162734, 45.201305], [-94.163022, 45.201102], [-94.163257, 45.200983], [-94.163852, 45.200842], [-94.16437, 45.20072], [-94.164732, 45.200607], [-94.165266, 45.200363], [-94.16571, 45.200197], [-94.166191, 45.200076], [-94.166429, 45.200099], [-94.166566, 45.200085], [-94.16671, 45.200012], [-94.166828, 45.199985], [-94.167002, 45.200009], [-94.167221, 45.20022], [-94.167447, 45.200553], [-94.167578, 45.200694], [-94.167789, 45.200776], [-94.167901, 45.200871], [-94.167977, 45.201045], [-94.16807, 45.201134], [-94.168669, 45.20138], [-94.1689, 45.201539], [-94.169107, 45.201814], [-94.169347, 45.202412]]]}}, {"type": "Feature", "properties": {"depth_ft": 10.0, "lake": "French Lake", "dow": "86027300"}, "geometry": {"type": "Polygon", "coordinates": [[[-94.162935, 45.20693], [-94.162677, 45.207223], [-94.162496, 45.207315], [-94.162149, 45.207306], [-94.16192, 45.207282], [-94.1618, 45.207206], [-94.161853, 45.207115], [-94.162033, 45.206991], [-94.16214, 45.20688], [-94.162128, 45.206757], [-94.161915, 45.206579], [-94.161793, 45.206438], [-94.161827, 45.206296], [-94.161905, 45.206114], [-94.162032, 45.206042], [-94.162268, 45.206007], [-94.162807, 45.206008], [-94.162963, 45.206039], [-94.163019, 45.20609], [-94.162993, 45.206168], [-94.162805, 45.206357], [-94.162725, 45.206448], [-94.162745, 45.206558], [-94.162792, 45.206641], [-94.162867, 45.206737], [-94.162905, 45.206782], [-94.162935, 45.20693]]]}}, {"type": "Feature", "properties": {"depth_ft": 15.0, "lake": "French Lake", "dow": "86027300"}, "geometry": {"type": "Polygon", "coordinates": [[[-94.163245, 45.20692], [-94.16306, 45.207213], [-94.162863, 45.207415], [-94.162646, 45.207501], [-94.162427, 45.207503], [-94.162143, 45.207454], [-94.161748, 45.207355], [-94.161535, 45.207209], [-94.161532, 45.207067], [-94.161649, 45.206962], [-94.161748, 45.20691], [-94.16181, 45.206806], [-94.161799, 45.206716], [-94.161697, 45.20662], [-94.161595, 45.206556], [-94.161601, 45.206434], [-94.161623, 45.206162], [-94.161565, 45.205989], [-94.161361, 45.205849], [-94.161341, 45.205765], [-94.161459, 45.205719], [-94.161614, 45.205704], [-94.162403, 45.20589], [-94.162704, 45.2059], [-94.162841, 45.205892], [-94.162996, 45.205884], [-94.163189, 45.205927], [-94.163282, 45.206004], [-94.16332, 45.206081], [-94.163267, 45.206178], [-94.163187, 45.206295], [-94.163088, 45.20638], [-94.163045, 45.206484], [-94.163083, 45.206561], [-94.163168, 45.206689], [-94.163245, 45.20692]]]}}, {"type": "Feature", "properties": {"depth_ft": 20.0, "lake": "French Lake", "dow": "86027300"}, "geometry": {"type": "Polygon", "coordinates": [[[-94.163211, 45.207476], [-94.163315, 45.207404], [-94.163422, 45.207293], [-94.163491, 45.207111], [-94.163468, 45.206847], [-94.163344, 45.20659], [-94.163351, 45.20648], [-94.163467, 45.206344], [-94.163602, 45.206252], [-94.163672, 45.206142], [-94.163662, 45.20609], [-94.163551, 45.20602], [-94.16345, 45.205995], [-94.163349, 45.205971], [-94.163082, 45.205825], [-94.162908, 45.20582], [-94.162707, 45.205822], [-94.162679, 45.20579], [-94.162706, 45.205764], [-94.163311, 45.205442], [-94.163576, 45.205439], [-94.163696, 45.205509], [-94.163809, 45.205676], [-94.163923, 45.205881], [-94.164071, 45.205983], [-94.164529, 45.206049], [-94.164777, 45.206163], [-94.164807, 45.206272], [-94.164782, 45.206395], [-94.164758, 45.20655], [-94.164833, 45.206665], [-94.164944, 45.206709], [-94.165257, 45.206829], [-94.16531, 45.207003], [-94.165277, 45.207171], [-94.165319, 45.207422], [-94.165481, 45.207749], [-94.16568, 45.208122], [-94.165731, 45.20836], [-94.165699, 45.208805], [-94.165851, 45.209114], [-94.165883, 45.20932], [-94.165913, 45.209449], [-94.166024, 45.209531], [-94.166402, 45.209715], [-94.166605, 45.209848], [-94.166718, 45.209976], [-94.166767, 45.210182], [-94.166789, 45.210362], [-94.166943, 45.210522], [-94.167091, 45.210585], [-94.167339, 45.210692], [-94.167552, 45.210826], [-94.16773, 45.211063], [-94.167916, 45.211203], [-94.168146, 45.211297], [-94.168432, 45.211417], [-94.168843, 45.211432], [-94.169553, 45.21136], [-94.170038, 45.2114], [-94.170278, 45.211514], [-94.170372, 45.211655], [-94.170323, 45.211733], [-94.170217, 45.211902], [-94.170246, 45.211992], [-94.170376, 45.212088], [-94.170589, 45.212208], [-94.170701, 45.212336], [-94.170676, 45.212478], [-94.170426, 45.212713], [-94.170003, 45.213021], [-94.169842, 45.213197], [-94.169773, 45.213384], [-94.169683, 45.213463], [-94.169329, 45.213557], [-94.168974, 45.213631], [-94.168546, 45.213642], [-94.167922, 45.213494], [-94.16782, 45.213424], [-94.167814, 45.213353], [-94.167674, 45.213206], [-94.167434, 45.213066], [-94.167387, 45.213034], [-94.167414, 45.212995], [-94.167786, 45.212908], [-94.167949, 45.212822], [-94.167957, 45.212751], [-94.167909, 45.212668], [-94.167762, 45.212592], [-94.167541, 45.21251], [-94.167466, 45.212421], [-94.167381, 45.212299], [-94.167331, 45.212054], [-94.167318, 45.211893], [-94.167251, 45.211719], [-94.167249, 45.211629], [-94.167328, 45.21146], [-94.167497, 45.211265], [-94.167496, 45.21122], [-94.167386, 45.211189], [-94.167195, 45.211197], [-94.166849, 45.211265], [-94.166277, 45.21142], [-94.166006, 45.211564], [-94.165853, 45.211682], [-94.165806, 45.211844], [-94.165892, 45.212024], [-94.165831, 45.212173], [-94.165669, 45.212284], [-94.165498, 45.212408], [-94.165482, 45.212518], [-94.165502, 45.21257], [-94.165794, 45.21256], [-94.16585, 45.212637], [-94.165842, 45.212715], [-94.165735, 45.212845], [-94.165546, 45.212944], [-94.165447, 45.213041], [-94.16545, 45.213164], [-94.165524, 45.213241], [-94.16569, 45.213323], [-94.165784, 45.213445], [-94.16575, 45.213555], [-94.165551, 45.213666], [-94.165378, 45.213668], [-94.165221, 45.213592], [-94.16504, 45.213426], [-94.164804, 45.213074], [-94.164673, 45.212882], [-94.16459, 45.21285], [-94.164434, 45.212839], [-94.164289, 45.212898], [-94.164065, 45.213068], [-94.163803, 45.213232], [-94.163596, 45.213351], [-94.163287, 45.213451], [-94.163042, 45.213485], [-94.162832, 45.213526], [-94.162623, 45.213574], [-94.162431, 45.213563], [-94.162257, 45.213506], [-94.162065, 45.213495], [-94.161856, 45.21353], [-94.161611, 45.213616], [-94.161446, 45.213598], [-94.161455, 45.213566], [-94.161536, 45.213527], [-94.161699, 45.213447], [-94.16206, 45.213237], [-94.162405, 45.212943], [-94.162554, 45.212658], [-94.162577, 45.212406], [-94.162423, 45.212027], [-94.162207, 45.211758], [-94.162107, 45.211746], [-94.161949, 45.211638], [-94.161948, 45.211586], [-94.161965, 45.211502], [-94.162082, 45.211411], [-94.162171, 45.211319], [-94.16217, 45.211255], [-94.162132, 45.211184], [-94.161993, 45.211089], [-94.161763, 45.211014], [-94.16159, 45.211003], [-94.161489, 45.21101], [-94.161354, 45.211095], [-94.161242, 45.211213], [-94.16119, 45.211355], [-94.161095, 45.211621], [-94.160989, 45.211777], [-94.160827, 45.211908], [-94.160574, 45.212], [-94.160402, 45.212112], [-94.160249, 45.212178], [-94.159984, 45.212206], [-94.159584, 45.212262], [-94.159458, 45.212341], [-94.15946, 45.212451], [-94.159544, 45.212527], [-94.1598, 45.212589], [-94.16002, 45.2126], [-94.160132, 45.212728], [-94.160125, 45.212818], [-94.160045, 45.212935], [-94.159796, 45.21306], [-94.159178, 45.213196], [-94.158952, 45.213288], [-94.158872, 45.213425], [-94.158958, 45.213591], [-94.159108, 45.213784], [-94.159101, 45.213906], [-94.15903, 45.213984], [-94.158867, 45.214044], [-94.158176, 45.214187], [-94.157977, 45.214273], [-94.157878, 45.214364], [-94.157708, 45.214514], [-94.157525, 45.214535], [-94.157443, 45.214523], [-94.157323, 45.214466], [-94.157147, 45.214326], [-94.156793, 45.213975], [-94.156783, 45.213917], [-94.156789, 45.213775], [-94.156813, 45.21362], [-94.156793, 45.213536], [-94.156718, 45.213446], [-94.156636, 45.213421], [-94.156434, 45.213391], [-94.156314, 45.213341], [-94.15612, 45.213233], [-94.156044, 45.213072], [-94.156047, 45.212782], [-94.156132, 45.212691], [-94.156331, 45.212598], [-94.156521, 45.212493], [-94.156638, 45.212395], [-94.156654, 45.212285], [-94.156633, 45.212189], [-94.15665, 45.212111], [-94.156722, 45.212046], [-94.156957, 45.21196], [-94.157156, 45.211848], [-94.157265, 45.211821], [-94.15742, 45.211819], [-94.157629, 45.211766], [-94.157719, 45.211694], [-94.157718, 45.211642], [-94.157707, 45.211539], [-94.157741, 45.211442], [-94.15784, 45.21137], [-94.157966, 45.211285], [-94.158001, 45.211188], [-94.157981, 45.21111], [-94.157943, 45.211059], [-94.157736, 45.210964], [-94.157633, 45.210843], [-94.15764, 45.210707], [-94.157601, 45.210592], [-94.157526, 45.210528], [-94.15737, 45.210452], [-94.15724, 45.210356], [-94.157237, 45.210234], [-94.157272, 45.210143], [-94.157399, 45.210097], [-94.157579, 45.209966], [-94.157913, 45.209788], [-94.158366, 45.209603], [-94.158618, 45.20942], [-94.158772, 45.209366], [-94.158926, 45.2093], [-94.159124, 45.209202], [-94.159282, 45.209071], [-94.159566, 45.208713], [-94.15988, 45.208419], [-94.160178, 45.208262], [-94.160313, 45.20815], [-94.160355, 45.208008], [-94.160262, 45.207925], [-94.160243, 45.207841], [-94.160268, 45.207744], [-94.160367, 45.207679], [-94.160457, 45.207594], [-94.160473, 45.20751], [-94.160444, 45.20742], [-94.160333, 45.20735], [-94.16024, 45.207254], [-94.160247, 45.207164], [-94.160273, 45.207086], [-94.160345, 45.20706], [-94.160516, 45.206942], [-94.160669, 45.206811], [-94.160811, 45.206603], [-94.160888, 45.206383], [-94.160919, 45.206079], [-94.160942, 45.20586], [-94.160995, 45.205769], [-94.161105, 45.205793], [-94.161319, 45.206004], [-94.161367, 45.206146], [-94.161389, 45.206333], [-94.16142, 45.206481], [-94.161477, 45.206583], [-94.161544, 45.206725], [-94.161491, 45.206841], [-94.161375, 45.206978], [-94.161223, 45.207109], [-94.161179, 45.207206], [-94.16119, 45.207309], [-94.16144, 45.207449], [-94.161715, 45.207536], [-94.161872, 45.207625], [-94.162101, 45.207674], [-94.162467, 45.20767], [-94.16283, 45.207602], [-94.163211, 45.207476]]]}}, {"type": "Feature", "properties": {"depth_ft": 15.0, "lake": "French Lake", "dow": "86027300"}, "geometry": {"type": "Polygon", "coordinates": [[[-94.165476, 45.206865], [-94.165532, 45.207349], [-94.165609, 45.207561], [-94.16576, 45.207772], [-94.165927, 45.207925], [-94.165994, 45.208073], [-94.166025, 45.208228], [-94.165931, 45.208539], [-94.165916, 45.208732], [-94.166031, 45.208976], [-94.166151, 45.209259], [-94.166209, 45.209433], [-94.166413, 45.209573], [-94.166662, 45.209693], [-94.166893, 45.209832], [-94.167135, 45.210049], [-94.167275, 45.210235], [-94.167519, 45.210555], [-94.167731, 45.210637], [-94.167858, 45.210623], [-94.168121, 45.210523], [-94.168385, 45.210488], [-94.168641, 45.210498], [-94.168925, 45.210541], [-94.16921, 45.210641], [-94.169377, 45.210801], [-94.169476, 45.210935], [-94.169525, 45.211083], [-94.169646, 45.211185], [-94.169931, 45.211292], [-94.17028, 45.211411], [-94.170494, 45.211577], [-94.170569, 45.211692], [-94.170571, 45.211789], [-94.170501, 45.211925], [-94.170549, 45.212073], [-94.170698, 45.212194], [-94.170796, 45.212322], [-94.170825, 45.212386], [-94.170665, 45.212601], [-94.170523, 45.212809], [-94.17037, 45.212901], [-94.170216, 45.212973], [-94.1701, 45.213078], [-94.170012, 45.21324], [-94.169915, 45.213396], [-94.16978, 45.213494], [-94.169353, 45.213615], [-94.16889, 45.213723], [-94.168579, 45.213713], [-94.167991, 45.213551], [-94.167507, 45.213537], [-94.166941, 45.213555], [-94.166362, 45.213555], [-94.166124, 45.213557], [-94.165788, 45.213651], [-94.16519, 45.21387], [-94.164591, 45.214018], [-94.164208, 45.214035], [-94.16386, 45.213987], [-94.163504, 45.214003], [-94.162862, 45.214074], [-94.161806, 45.21424], [-94.161343, 45.214361], [-94.161117, 45.214473], [-94.161, 45.214558], [-94.160863, 45.214579], [-94.160681, 45.214594], [-94.160474, 45.214731], [-94.160318, 45.214707], [-94.160189, 45.214624], [-94.160075, 45.214438], [-94.160064, 45.214329], [-94.16018, 45.214218], [-94.160453, 45.214138], [-94.160651, 45.21402], [-94.16082, 45.213792], [-94.161054, 45.213609], [-94.161603, 45.213223], [-94.161907, 45.212929], [-94.162243, 45.21239], [-94.162208, 45.212235], [-94.161972, 45.211864], [-94.161861, 45.211768], [-94.161705, 45.211763], [-94.161551, 45.211823], [-94.161435, 45.211953], [-94.161283, 45.212096], [-94.161121, 45.212208], [-94.161098, 45.212408], [-94.160991, 45.212571], [-94.160758, 45.212754], [-94.160361, 45.212996], [-94.160027, 45.213161], [-94.159608, 45.213211], [-94.159307, 45.213227], [-94.15918, 45.213279], [-94.159127, 45.21339], [-94.159147, 45.21348], [-94.159305, 45.213601], [-94.1596, 45.213753], [-94.159777, 45.213912], [-94.159779, 45.214022], [-94.159708, 45.214126], [-94.159491, 45.214193], [-94.159217, 45.214195], [-94.158815, 45.214187], [-94.158647, 45.21424], [-94.158603, 45.214298], [-94.158614, 45.214395], [-94.158579, 45.214486], [-94.158426, 45.214578], [-94.158175, 45.214819], [-94.157903, 45.214938], [-94.157385, 45.215059], [-94.156784, 45.215091], [-94.156646, 45.215067], [-94.156645, 45.215002], [-94.156742, 45.214846], [-94.156812, 45.214684], [-94.156763, 45.214543], [-94.156614, 45.214377], [-94.156475, 45.214268], [-94.156463, 45.214152], [-94.156447, 45.21381], [-94.15637, 45.213631], [-94.15622, 45.213413], [-94.155847, 45.213055], [-94.155742, 45.212817], [-94.155777, 45.212714], [-94.156047, 45.212537], [-94.156241, 45.212406], [-94.156364, 45.212204], [-94.156526, 45.212061], [-94.15666, 45.211943], [-94.156759, 45.211852], [-94.156904, 45.211786], [-94.157213, 45.211744], [-94.157395, 45.211697], [-94.157466, 45.211606], [-94.157446, 45.211516], [-94.157462, 45.211406], [-94.157552, 45.211347], [-94.157688, 45.211281], [-94.157749, 45.211151], [-94.157683, 45.211068], [-94.15748, 45.210941], [-94.157341, 45.210839], [-94.157274, 45.210711], [-94.157158, 45.21059], [-94.156973, 45.210501], [-94.156807, 45.2104], [-94.156768, 45.210258], [-94.156865, 45.210115], [-94.157127, 45.209977], [-94.157588, 45.209753], [-94.157969, 45.20962], [-94.158285, 45.209442], [-94.158574, 45.209278], [-94.158725, 45.209109], [-94.158878, 45.208985], [-94.159045, 45.208893], [-94.159052, 45.20877], [-94.158967, 45.208648], [-94.158893, 45.20861], [-94.158855, 45.20852], [-94.158907, 45.208404], [-94.159024, 45.208318], [-94.159206, 45.208265], [-94.159506, 45.208223], [-94.159688, 45.208183], [-94.159778, 45.208137], [-94.159795, 45.208072], [-94.159674, 45.207944], [-94.159608, 45.207854], [-94.159679, 45.207737], [-94.159787, 45.207646], [-94.15992, 45.20747], [-94.15992, 45.207238], [-94.160053, 45.207056], [-94.160349, 45.206808], [-94.160624, 45.206418], [-94.160674, 45.20614], [-94.160631, 45.205856], [-94.1607, 45.205656], [-94.16077, 45.205494], [-94.160744, 45.205345], [-94.160596, 45.20525], [-94.160539, 45.205122], [-94.160616, 45.204882], [-94.160658, 45.204682], [-94.160654, 45.204527], [-94.160552, 45.204437], [-94.160313, 45.204324], [-94.160201, 45.204241], [-94.160189, 45.204073], [-94.16033, 45.203833], [-94.16049, 45.203625], [-94.160553, 45.203586], [-94.160717, 45.203565], [-94.160864, 45.203589], [-94.161039, 45.203703], [-94.161105, 45.203774], [-94.161135, 45.203935], [-94.161084, 45.204116], [-94.161104, 45.204193], [-94.161197, 45.204282], [-94.1614, 45.204384], [-94.16166, 45.204575], [-94.161883, 45.204772], [-94.162012, 45.204842], [-94.162231, 45.204853], [-94.162384, 45.204741], [-94.162482, 45.204605], [-94.162599, 45.204552], [-94.162773, 45.204576], [-94.163005, 45.204748], [-94.163097, 45.204799], [-94.163244, 45.204829], [-94.163416, 45.20477], [-94.163587, 45.204665], [-94.163714, 45.204618], [-94.163787, 45.204611], [-94.163916, 45.204661], [-94.163937, 45.20479], [-94.163941, 45.204984], [-94.163882, 45.20521], [-94.163893, 45.205313], [-94.164115, 45.205466], [-94.164246, 45.205619], [-94.164266, 45.205729], [-94.164287, 45.205819], [-94.164426, 45.205927], [-94.16461, 45.205996], [-94.164845, 45.206104], [-94.164956, 45.206199], [-94.165032, 45.206315], [-94.165036, 45.206515], [-94.16512, 45.206604], [-94.165239, 45.206655], [-94.165359, 45.206718], [-94.165433, 45.206775], [-94.165476, 45.206865]]]}}, {"type": "Feature", "properties": {"depth_ft": 40.0, "lake": "French Lake", "dow": "86027300"}, "geometry": {"type": "Polygon", "coordinates": [[[-94.159675, 45.209998], [-94.159866, 45.209983], [-94.160041, 45.210033], [-94.160034, 45.210136], [-94.159963, 45.210259], [-94.159939, 45.210421], [-94.160024, 45.210581], [-94.160181, 45.210657], [-94.160456, 45.210719], [-94.160795, 45.210774], [-94.160934, 45.210869], [-94.160954, 45.210953], [-94.160892, 45.211024], [-94.160738, 45.211084], [-94.160209, 45.211147], [-94.160082, 45.211194], [-94.160066, 45.211304], [-94.160114, 45.211387], [-94.160206, 45.211457], [-94.160399, 45.211513], [-94.160446, 45.211577], [-94.160429, 45.211629], [-94.160247, 45.21167], [-94.159992, 45.211698], [-94.159764, 45.211713], [-94.159528, 45.211761], [-94.159301, 45.211808], [-94.159081, 45.211798], [-94.158686, 45.211673], [-94.158501, 45.211526], [-94.158454, 45.211469], [-94.158424, 45.211353], [-94.158477, 45.211281], [-94.158503, 45.211197], [-94.158455, 45.211094], [-94.15825, 45.210851], [-94.158192, 45.21069], [-94.158216, 45.210555], [-94.158342, 45.210437], [-94.158459, 45.210397], [-94.158759, 45.21033], [-94.159158, 45.210158], [-94.159675, 45.209998]]]}}, {"type": "Feature", "properties": {"depth_ft": 30.0, "lake": "French Lake", "dow": "86027300"}, "geometry": {"type": "Polygon", "coordinates": [[[-94.158214, 45.209974], [-94.158388, 45.209791], [-94.158587, 45.209686], [-94.158939, 45.209521], [-94.159444, 45.209213], [-94.159797, 45.209054], [-94.159924, 45.209027], [-94.160153, 45.209031], [-94.160273, 45.209108], [-94.160321, 45.20921], [-94.160277, 45.209288], [-94.160232, 45.20936], [-94.160161, 45.209425], [-94.160094, 45.209497], [-94.160104, 45.20958], [-94.160161, 45.20967], [-94.160326, 45.20972], [-94.160537, 45.20975], [-94.160702, 45.209807], [-94.160741, 45.209929], [-94.160707, 45.210039], [-94.160609, 45.21013], [-94.160602, 45.210234], [-94.160649, 45.21033], [-94.16088, 45.210469], [-94.16116, 45.210757], [-94.161173, 45.210963], [-94.16112, 45.211054], [-94.16094, 45.211166], [-94.160749, 45.211219], [-94.160678, 45.211298], [-94.160731, 45.21142], [-94.160733, 45.211555], [-94.160609, 45.211737], [-94.160267, 45.211986], [-94.159931, 45.212073], [-94.159713, 45.212108], [-94.159366, 45.212124], [-94.158789, 45.212007], [-94.158725, 45.212014], [-94.158625, 45.212048], [-94.158572, 45.2121], [-94.158546, 45.212203], [-94.15864, 45.212312], [-94.158805, 45.212368], [-94.158898, 45.212451], [-94.15891, 45.21258], [-94.158795, 45.212769], [-94.158437, 45.213108], [-94.158295, 45.213309], [-94.158255, 45.213594], [-94.158104, 45.213815], [-94.157769, 45.213928], [-94.157632, 45.213929], [-94.157494, 45.213879], [-94.157297, 45.213623], [-94.157036, 45.213374], [-94.157034, 45.213271], [-94.157114, 45.213154], [-94.157368, 45.213086], [-94.157594, 45.212968], [-94.157665, 45.212845], [-94.157711, 45.212664], [-94.157699, 45.212535], [-94.157615, 45.212439], [-94.157468, 45.212376], [-94.157331, 45.212383], [-94.157093, 45.212341], [-94.157, 45.212245], [-94.156961, 45.212148], [-94.157078, 45.212038], [-94.15726, 45.212003], [-94.157687, 45.211902], [-94.157967, 45.211796], [-94.158084, 45.211705], [-94.1581, 45.211582], [-94.158106, 45.211401], [-94.15824, 45.211258], [-94.158246, 45.211135], [-94.158153, 45.211052], [-94.157949, 45.210906], [-94.157874, 45.210784], [-94.157871, 45.210642], [-94.158214, 45.209974]]]}}, {"type": "Feature", "properties": {"depth_ft": 30.0, "lake": "French Lake", "dow": "86027300"}, "geometry": {"type": "Polygon", "coordinates": [[[-94.16465, 45.21156], [-94.164351, 45.211647], [-94.163886, 45.211697], [-94.163475, 45.211708], [-94.163301, 45.211652], [-94.163263, 45.211587], [-94.163398, 45.211483], [-94.163386, 45.211367], [-94.163339, 45.211264], [-94.163145, 45.211189], [-94.162962, 45.211152], [-94.162879, 45.211094], [-94.162849, 45.210972], [-94.162901, 45.210843], [-94.162944, 45.210732], [-94.162924, 45.210636], [-94.16285, 45.210566], [-94.162639, 45.210523], [-94.162455, 45.210479], [-94.162363, 45.210429], [-94.162362, 45.210383], [-94.162488, 45.210305], [-94.163057, 45.210002], [-94.163183, 45.209878], [-94.163217, 45.209775], [-94.163186, 45.209594], [-94.163147, 45.209485], [-94.163218, 45.209355], [-94.163653, 45.209202], [-94.163989, 45.209128], [-94.164316, 45.209066], [-94.164571, 45.209044], [-94.164782, 45.209055], [-94.164819, 45.209094], [-94.164793, 45.209165], [-94.164677, 45.209314], [-94.164651, 45.20936], [-94.164671, 45.209456], [-94.164746, 45.20954], [-94.165261, 45.209709], [-94.16539, 45.209804], [-94.165456, 45.209894], [-94.165495, 45.209997], [-94.165666, 45.210317], [-94.165779, 45.210503], [-94.16579, 45.21062], [-94.165729, 45.21073], [-94.165639, 45.210808], [-94.165212, 45.210884], [-94.164739, 45.210992], [-94.164567, 45.211064], [-94.164596, 45.211135], [-94.16468, 45.211225], [-94.164818, 45.211301], [-94.164839, 45.211404], [-94.164777, 45.211508], [-94.16465, 45.21156]]]}}, {"type": "Feature", "properties": {"depth_ft": 10.0, "lake": "French Lake", "dow": "86027300"}, "geometry": {"type": "Polygon", "coordinates": [[[-94.16701, 45.21222], [-94.166848, 45.212332], [-94.166795, 45.212416], [-94.166797, 45.2125], [-94.166862, 45.212564], [-94.166991, 45.212608], [-94.167111, 45.212671], [-94.167084, 45.212717], [-94.166948, 45.212757], [-94.166683, 45.212727], [-94.166351, 45.212601], [-94.166175, 45.212461], [-94.166146, 45.212358], [-94.166188, 45.212197], [-94.166377, 45.212072], [-94.166594, 45.211967], [-94.166712, 45.211927], [-94.166886, 45.211944], [-94.166978, 45.211982], [-94.167035, 45.212091], [-94.16701, 45.21222]]]}}, {"type": "Feature", "properties": {"depth_ft": 15.0, "lake": "French Lake", "dow": "86027300"}, "geometry": {"type": "Polygon", "coordinates": [[[-94.166651, 45.211637], [-94.16702, 45.211827], [-94.167123, 45.211929], [-94.167173, 45.212135], [-94.167177, 45.212367], [-94.167234, 45.212463], [-94.1673, 45.21254], [-94.167365, 45.212591], [-94.167429, 45.212636], [-94.167458, 45.212719], [-94.167405, 45.212778], [-94.167278, 45.212824], [-94.166785, 45.212823], [-94.166612, 45.212825], [-94.166437, 45.212788], [-94.16616, 45.212642], [-94.166021, 45.212534], [-94.165947, 45.212451], [-94.165935, 45.212348], [-94.165988, 45.212224], [-94.166086, 45.212127], [-94.166111, 45.212004], [-94.166107, 45.211817], [-94.166187, 45.211713], [-94.166341, 45.211627], [-94.166459, 45.211613], [-94.166651, 45.211637]]]}}, {"type": "Feature", "properties": {"depth_ft": 40.0, "lake": "French Lake", "dow": "86027300"}, "geometry": {"type": "Polygon", "coordinates": [[[-94.169554, 45.212956], [-94.169311, 45.213126], [-94.169167, 45.213237], [-94.169032, 45.213303], [-94.168895, 45.213318], [-94.168748, 45.213274], [-94.168655, 45.213184], [-94.168679, 45.213029], [-94.168631, 45.212894], [-94.168507, 45.21265], [-94.168476, 45.212476], [-94.168519, 45.212353], [-94.168637, 45.212294], [-94.168782, 45.21226], [-94.168883, 45.212292], [-94.168976, 45.212349], [-94.16904, 45.21238], [-94.169233, 45.212424], [-94.16948, 45.212447], [-94.169636, 45.212497], [-94.169765, 45.21256], [-94.169831, 45.212643], [-94.169806, 45.212753], [-94.169662, 45.21289], [-94.169554, 45.212956]]]}}, {"type": "Feature", "properties": {"depth_ft": 30.0, "lake": "French Lake", "dow": "86027300"}, "geometry": {"type": "Polygon", "coordinates": [[[-94.170475, 45.21245], [-94.170072, 45.212847], [-94.169766, 45.213044], [-94.16955, 45.213214], [-94.169444, 45.213376], [-94.169336, 45.213449], [-94.169173, 45.213502], [-94.168881, 45.213544], [-94.168516, 45.213528], [-94.168324, 45.213536], [-94.168268, 45.213485], [-94.168294, 45.213395], [-94.168364, 45.213271], [-94.168362, 45.213162], [-94.168268, 45.213021], [-94.168275, 45.212898], [-94.168273, 45.212801], [-94.168234, 45.212685], [-94.168259, 45.212569], [-94.168374, 45.212387], [-94.168397, 45.2122], [-94.168411, 45.211974], [-94.168417, 45.211812], [-94.168497, 45.211728], [-94.168588, 45.211701], [-94.168825, 45.211679], [-94.168998, 45.211639], [-94.169143, 45.211586], [-94.169278, 45.211526], [-94.169415, 45.211525], [-94.169626, 45.211574], [-94.169811, 45.211701], [-94.169943, 45.211881], [-94.170065, 45.212028], [-94.170157, 45.212104], [-94.17025, 45.212155], [-94.17048, 45.212262], [-94.170509, 45.212333], [-94.170475, 45.21245]]]}}, {"type": "Feature", "properties": {"depth_ft": 10.0, "lake": "French Lake", "dow": "86027300"}, "geometry": {"type": "Polygon", "coordinates": [[[-94.161544, 45.2127], [-94.161189, 45.213188], [-94.16083, 45.213514], [-94.160631, 45.213607], [-94.160476, 45.213621], [-94.160228, 45.213533], [-94.160125, 45.213412], [-94.160195, 45.213256], [-94.160521, 45.213124], [-94.16072, 45.213025], [-94.160882, 45.212894], [-94.160997, 45.212725], [-94.161194, 45.212549], [-94.161473, 45.212353], [-94.161709, 45.212253], [-94.161836, 45.212246], [-94.161885, 45.212381], [-94.161823, 45.212491], [-94.161652, 45.212615], [-94.161544, 45.2127]]]}}]}