{"type": "FeatureCollection", "features": [{"type": "Feature", "properties": {"depth_ft": 0.0, "lake": "Granite Lake", "dow": "86021700"}, "geometry": {"type": "Polygon", "coordinates": [[[-94.110552, 45.191876], [-94.109954, 45.19264], [-94.109442, 45.192915], [-94.109027, 45.193231], [-94.108646, 45.193343], [-94.108573, 45.193519], [-94.108175, 45.193713], [-94.107738, 45.193893], [-94.106937, 45.194063], [-94.106554, 45.194026], [-94.105389, 45.194214], [-94.104398, 45.19444], [-94.103806, 45.194527], [-94.103444, 45.194584], [-94.10275, 45.194361], [-94.101902, 45.194071], [-94.101417, 45.193765], [-94.101124, 45.193429], [-94.101212, 45.193036], [-94.101619, 45.192301], [-94.101568, 45.191638], [-94.101511, 45.190677], [-94.101578, 45.190176], [-94.101446, 45.189311], [-94.10145, 45.188512], [-94.10167, 45.188009], [-94.102269, 45.187299], [-94.102664, 45.186943], [-94.104012, 45.186375], [-94.104961, 45.185906], [-94.10545, 45.185454], [-94.105796, 45.184544], [-94.106201, 45.183741], [-94.106763, 45.183113], [-94.107738, 45.182021], [-94.107938, 45.181491], [-94.107907, 45.180895], [-94.107742, 45.180274], [-94.107827, 45.179732], [-94.108085, 45.179229], [-94.108689, 45.178776], [-94.10922, 45.178514], [-94.110308, 45.178354], [-94.111702, 45.178192], [-94.112503, 45.178062], [-94.113381, 45.177891], [-94.11376, 45.177698], [-94.113984, 45.177452], [-94.114096, 45.177302], [-94.114167, 45.176976], [-94.114124, 45.176747], [-94.113947, 45.176518], [-94.113715, 45.176412], [-94.113427, 45.176347], [-94.113196, 45.176295], [-94.113155, 45.17616], [-94.113245, 45.175862], [-94.11381, 45.175396], [-94.114646, 45.175049], [-94.115542, 45.174892], [-94.116059, 45.1749], [-94.116675, 45.175084], [-94.11685, 45.175231], [-94.116893, 45.175461], [-94.116761, 45.17557], [-94.116441, 45.175803], [-94.116462, 45.175925], [-94.116523, 45.176087], [-94.116392, 45.176264], [-94.116149, 45.176551], [-94.116268, 45.17678], [-94.116964, 45.177138], [-94.117313, 45.177352], [-94.118111, 45.178007], [-94.118755, 45.178678], [-94.119034, 45.179244], [-94.119123, 45.179865], [-94.118693, 45.180384], [-94.118395, 45.180793], [-94.117161, 45.181347], [-94.115868, 45.181779], [-94.115203, 45.182043], [-94.114921, 45.182289], [-94.113818, 45.182638], [-94.113879, 45.182827], [-94.114092, 45.182988], [-94.114328, 45.18327], [-94.114472, 45.183823], [-94.114581, 45.184472], [-94.114478, 45.185096], [-94.114393, 45.185652], [-94.114426, 45.186355], [-94.114323, 45.186979], [-94.114159, 45.187387], [-94.113975, 45.187754], [-94.113656, 45.188109], [-94.113394, 45.188423], [-94.11321, 45.188804], [-94.112727, 45.189526], [-94.112335, 45.190044], [-94.111901, 45.190387], [-94.111428, 45.190689], [-94.111108, 45.190977], [-94.110863, 45.191155], [-94.110793, 45.191481], [-94.110552, 45.191876]]]}}, {"type": "Feature", "properties": {"depth_ft": 5.0, "lake": "Granite Lake", "dow": "86021700"}, "geometry": {"type": "Polygon", "coordinates": [[[-94.106463, 45.189445], [-94.107313, 45.189488], [-94.107487, 45.189527], [-94.10759, 45.189628], [-94.10752, 45.189741], [-94.107319, 45.189804], [-94.106686, 45.18981], [-94.106253, 45.189763], [-94.106151, 45.189703], [-94.10612, 45.189591], [-94.106247, 45.189478], [-94.106463, 45.189445]]]}}, {"type": "Feature", "properties": {"depth_ft": 10.0, "lake": "Granite Lake", "dow": "86021700"}, "geometry": {"type": "Polygon", "coordinates": [[[-94.107494, 45.189904], [-94.106861, 45.189941], [-94.10653, 45.189954], [-94.106169, 45.189917], [-94.105908, 45.189828], [-94.105821, 45.189757], [-94.105846, 45.189604], [-94.106044, 45.189399], [-94.106301, 45.189274], [-94.106718, 45.189229], [-94.107178, 45.189225], [-94.107569, 45.189302], [-94.107801, 45.189382], [-94.107891, 45.189584], [-94.107865, 45.189737], [-94.10768, 45.189831], [-94.107494, 45.189904]]]}}, {"type": "Feature", "properties": {"depth_ft": 15.0, "lake": "Granite Lake", "dow": "86021700"}, "geometry": {"type": "Polygon", "coordinates": [[[-94.108292, 45.189479], [-94.108126, 45.189806], [-94.107913, 45.189981], [-94.107454, 45.190088], [-94.106951, 45.190133], [-94.106317, 45.190078], [-94.105912, 45.190031], [-94.105767, 45.189961], [-94.105649, 45.18984], [-94.105731, 45.189605], [-94.105913, 45.189308], [-94.106353, 45.189009], [-94.106927, 45.188871], [-94.107561, 45.188895], [-94.107822, 45.188974], [-94.108084, 45.189114], [-94.108216, 45.189245], [-94.108292, 45.189479]]]}}, {"type": "Feature", "properties": {"depth_ft": 20.0, "lake": "Granite Lake", "dow": "86021700"}, "geometry": {"type": "Polygon", "coordinates": [[[-94.105602, 45.189607], [-94.105938, 45.189145], [-94.106477, 45.188712], [-94.106777, 45.188567], [-94.107108, 45.188543], [-94.107469, 45.188601], [-94.107934, 45.1888], [-94.108414, 45.18909], [-94.108606, 45.189333], [-94.10864, 45.189587], [-94.1084, 45.189834], [-94.108059, 45.190061], [-94.107601, 45.190219], [-94.107069, 45.190264], [-94.106449, 45.19024], [-94.106002, 45.190204], [-94.105654, 45.190054], [-94.105565, 45.189923], [-94.105547, 45.18976], [-94.105602, 45.189607]]]}}, {"type": "Feature", "properties": {"depth_ft": 25.0, "lake": "Granite Lake", "dow": "86021700"}, "geometry": {"type": "Polygon", "coordinates": [[[-94.105642, 45.190207], [-94.105495, 45.190066], [-94.105435, 45.189914], [-94.105417, 45.189741], [-94.105514, 45.189526], [-94.105695, 45.189229], [-94.106048, 45.188859], [-94.106445, 45.188549], [-94.106989, 45.188381], [-94.107449, 45.188346], [-94.107796, 45.188414], [-94.108261, 45.188623], [-94.108872, 45.188943], [-94.10918, 45.189226], [-94.10917, 45.18944], [-94.10906, 45.189716], [-94.108677, 45.190015], [-94.107793, 45.190471], [-94.10742, 45.190516], [-94.106785, 45.190481], [-94.106207, 45.190354], [-94.105642, 45.190207]]]}}, {"type": "Feature", "properties": {"depth_ft": 30.0, "lake": "Granite Lake", "dow": "86021700"}, "geometry": {"type": "Polygon", "coordinates": [[[-94.104116, 45.190212], [-94.104184, 45.190048], [-94.104211, 45.189926], [-94.104481, 45.18974], [-94.104767, 45.189666], [-94.105014, 45.189755], [-94.105176, 45.189926], [-94.105236, 45.190048], [-94.105195, 45.190191], [-94.104925, 45.190346], [-94.104638, 45.190441], [-94.10435, 45.190423], [-94.10419, 45.190333], [-94.104116, 45.190212]]]}}, {"type": "Feature", "properties": {"depth_ft": 25.0, "lake": "Granite Lake", "dow": "86021700"}, "geometry": {"type": "Polygon", "coordinates": [[[-94.110867, 45.189311], [-94.109671, 45.190769], [-94.109165, 45.191385], [-94.108754, 45.191735], [-94.10771, 45.192122], [-94.106691, 45.192295], [-94.105811, 45.192212], [-94.104885, 45.192037], [-94.104147, 45.19182], [-94.103389, 45.191359], [-94.103068, 45.191148], [-94.10286, 45.190835], [-94.102907, 45.190264], [-94.103307, 45.189344], [-94.104205, 45.188133], [-94.104857, 45.187577], [-94.105667, 45.187009], [-94.106361, 45.186432], [-94.106939, 45.185775], [-94.107344, 45.18516], [-94.10795, 45.184441], [-94.108928, 45.183627], [-94.109583, 45.183264], [-94.110343, 45.183114], [-94.111207, 45.183075], [-94.111524, 45.183103], [-94.111946, 45.183343], [-94.112343, 45.183746], [-94.112571, 45.184345], [-94.112533, 45.185354], [-94.112256, 45.18667], [-94.111832, 45.187825], [-94.111498, 45.188449], [-94.110867, 45.189311]]]}}, {"type": "Feature", "properties": {"depth_ft": 20.0, "lake": "Granite Lake", "dow": "86021700"}, "geometry": {"type": "Polygon", "coordinates": [[[-94.11315, 45.186753], [-94.112739, 45.187806], [-94.112293, 45.188564], [-94.111856, 45.189077], [-94.110948, 45.189758], [-94.11048, 45.19016], [-94.109508, 45.191269], [-94.10872, 45.192194], [-94.108169, 45.192769], [-94.107685, 45.193079], [-94.106782, 45.193312], [-94.104815, 45.193596], [-94.103891, 45.193513], [-94.103136, 45.193185], [-94.102784, 45.192852], [-94.102634, 45.192538], [-94.102453, 45.191378], [-94.102421, 45.190452], [-94.102516, 45.189433], [-94.102695, 45.189003], [-94.103204, 45.18852], [-94.103485, 45.18813], [-94.103676, 45.187568], [-94.103903, 45.187393], [-94.105059, 45.186882], [-94.105714, 45.186499], [-94.106278, 45.185883], [-94.106987, 45.184562], [-94.107575, 45.18366], [-94.108307, 45.182828], [-94.108956, 45.182109], [-94.109163, 45.181669], [-94.109202, 45.180701], [-94.109503, 45.179904], [-94.109859, 45.179656], [-94.110346, 45.179529], [-94.111598, 45.179527], [-94.112421, 45.179621], [-94.112986, 45.179809], [-94.113364, 45.179989], [-94.113659, 45.180322], [-94.113808, 45.180595], [-94.113731, 45.181105], [-94.113214, 45.181895], [-94.113061, 45.182181], [-94.113145, 45.182781], [-94.113041, 45.183342], [-94.113224, 45.184634], [-94.113271, 45.18554], [-94.113241, 45.186212], [-94.11315, 45.186753]]]}}, {"type": "Feature", "properties": {"depth_ft": 15.0, "lake": "Granite Lake", "dow": "86021700"}, "geometry": {"type": "Polygon", "coordinates": [[[-94.113226, 45.183259], [-94.113497, 45.18458], [-94.113453, 45.185294], [-94.113539, 45.186026], [-94.11344, 45.186852], [-94.113292, 45.187363], [-94.112751, 45.188437], [-94.11233, 45.188991], [-94.111848, 45.189373], [-94.111138, 45.189909], [-94.110515, 45.190475], [-94.10939, 45.191861], [-94.108503, 45.192929], [-94.107979, 45.193362], [-94.107319, 45.19348], [-94.104764, 45.193933], [-94.10413, 45.193949], [-94.103668, 45.193903], [-94.102858, 45.193717], [-94.102378, 45.193447], [-94.102083, 45.193123], [-94.1022, 45.19246], [-94.102231, 45.191819], [-94.102114, 45.190995], [-94.102166, 45.190679], [-94.102149, 45.189783], [-94.102193, 45.18912], [-94.102558, 45.188618], [-94.103138, 45.188052], [-94.103443, 45.187468], [-94.103999, 45.187158], [-94.104999, 45.18673], [-94.105454, 45.186461], [-94.106046, 45.185763], [-94.106504, 45.184913], [-94.106864, 45.184166], [-94.107455, 45.183407], [-94.108217, 45.182636], [-94.108667, 45.182071], [-94.108787, 45.181551], [-94.108738, 45.180553], [-94.108814, 45.180013], [-94.109065, 45.179593], [-94.109463, 45.179334], [-94.110024, 45.179257], [-94.112167, 45.179135], [-94.112972, 45.179076], [-94.114117, 45.178749], [-94.114585, 45.178358], [-94.115108, 45.177843], [-94.115367, 45.177851], [-94.115645, 45.178052], [-94.11663, 45.179091], [-94.117017, 45.17976], [-94.116908, 45.180087], [-94.116597, 45.180385], [-94.114775, 45.181452], [-94.113777, 45.18194], [-94.11338, 45.18226], [-94.113299, 45.182556], [-94.113226, 45.183259]]]}}, {"type": "Feature", "properties": {"depth_ft": 10.0, "lake": "Granite Lake", "dow": "86021700"}, "geometry": {"type": "Polygon", "coordinates": [[[-94.117492, 45.180488], [-94.116679, 45.180883], [-94.115907, 45.181186], [-94.115522, 45.181363], [-94.115069, 45.181734], [-94.114627, 45.181972], [-94.114126, 45.182161], [-94.113682, 45.182277], [-94.113527, 45.182462], [-94.113432, 45.182738], [-94.113484, 45.183175], [-94.113699, 45.183886], [-94.113783, 45.184496], [-94.113692, 45.184976], [-94.113726, 45.186717], [-94.113745, 45.186992], [-94.113471, 45.187666], [-94.113052, 45.188343], [-94.112658, 45.188846], [-94.112307, 45.189307], [-94.111626, 45.189843], [-94.111087, 45.190276], [-94.109989, 45.19154], [-94.108863, 45.192915], [-94.108339, 45.193368], [-94.107882, 45.193587], [-94.107208, 45.193716], [-94.106044, 45.193839], [-94.104738, 45.194116], [-94.103717, 45.194157], [-94.103052, 45.194041], [-94.102428, 45.193823], [-94.101829, 45.19336], [-94.101809, 45.193075], [-94.10203, 45.192574], [-94.102067, 45.192268], [-94.101861, 45.191303], [-94.101854, 45.190916], [-94.101947, 45.190508], [-94.10188, 45.19006], [-94.101795, 45.189358], [-94.102, 45.188786], [-94.102253, 45.188458], [-94.102748, 45.187984], [-94.103087, 45.187686], [-94.103354, 45.187337], [-94.103682, 45.18713], [-94.104567, 45.186765], [-94.105165, 45.186372], [-94.105616, 45.185859], [-94.105866, 45.185418], [-94.106072, 45.184907], [-94.106563, 45.18422], [-94.107109, 45.18341], [-94.107828, 45.182639], [-94.108221, 45.182096], [-94.108485, 45.181605], [-94.10849, 45.181116], [-94.108334, 45.180506], [-94.108365, 45.179885], [-94.108503, 45.179568], [-94.108786, 45.17931], [-94.109328, 45.17905], [-94.109916, 45.178912], [-94.111628, 45.178845], [-94.112548, 45.178744], [-94.113422, 45.178511], [-94.113994, 45.178302], [-94.114305, 45.178045], [-94.114741, 45.177511], [-94.114895, 45.177285], [-94.115138, 45.177161], [-94.115353, 45.177148], [-94.115586, 45.177289], [-94.116509, 45.178054], [-94.117282, 45.178555], [-94.117903, 45.179425], [-94.118025, 45.17977], [-94.117932, 45.180168], [-94.117492, 45.180488]]]}}, {"type": "Feature", "properties": {"depth_ft": 5.0, "lake": "Granite Lake", "dow": "86021700"}, "geometry": {"type": "Polygon", "coordinates": [[[-94.101875, 45.192036], [-94.101755, 45.191752], [-94.101665, 45.191569], [-94.10166, 45.191315], [-94.101725, 45.190958], [-94.101762, 45.190662], [-94.101756, 45.190357], [-94.101631, 45.189828], [-94.101519, 45.189269], [-94.101539, 45.18879], [-94.101648, 45.188474], [-94.102113, 45.187929], [-94.102692, 45.187353], [-94.103477, 45.186979], [-94.104376, 45.186533], [-94.10493, 45.186161], [-94.105297, 45.18576], [-94.105709, 45.185217], [-94.106019, 45.184398], [-94.106425, 45.183763], [-94.106931, 45.183168], [-94.10751, 45.182561], [-94.107961, 45.182058], [-94.108113, 45.181741], [-94.108092, 45.181374], [-94.107971, 45.180316], [-94.107921, 45.17997], [-94.108073, 45.179663], [-94.108636, 45.178986], [-94.109049, 45.178778], [-94.109665, 45.178599], [-94.110612, 45.178437], [-94.111982, 45.178263], [-94.112166, 45.178225], [-94.112421, 45.178172], [-94.112626, 45.178148], [-94.112881, 45.178059], [-94.113158, 45.17802], [-94.113546, 45.177943], [-94.113868, 45.177764], [-94.114108, 45.177547], [-94.11429, 45.177281], [-94.114282, 45.176833], [-94.114163, 45.176641], [-94.113957, 45.176449], [-94.113824, 45.176267], [-94.113879, 45.176124], [-94.11422, 45.175886], [-94.114635, 45.17574], [-94.115094, 45.175654], [-94.115641, 45.175638], [-94.115829, 45.175708], [-94.115917, 45.175799], [-94.115907, 45.176725], [-94.116115, 45.177059], [-94.116583, 45.177432], [-94.117646, 45.178073], [-94.118251, 45.178821], [-94.118635, 45.179265], [-94.118674, 45.179794], [-94.118594, 45.180151], [-94.118328, 45.180541], [-94.117887, 45.18082], [-94.11686, 45.181319], [-94.116203, 45.18157], [-94.1153, 45.181772], [-94.114618, 45.182278], [-94.114332, 45.182383], [-94.113859, 45.182499], [-94.113703, 45.182623], [-94.113621, 45.182848], [-94.113743, 45.183193], [-94.114069, 45.183648], [-94.114182, 45.184289], [-94.114176, 45.184716], [-94.113998, 45.185187], [-94.113992, 45.185594], [-94.114052, 45.186459], [-94.113991, 45.18703], [-94.113828, 45.18752], [-94.113478, 45.188064], [-94.113241, 45.188453], [-94.112484, 45.18953], [-94.111467, 45.190527], [-94.110732, 45.19108], [-94.110396, 45.19176], [-94.10958, 45.192725], [-94.10875, 45.19322], [-94.10816, 45.193545], [-94.107896, 45.193678], [-94.106575, 45.19388], [-94.104999, 45.194171], [-94.103985, 45.194326], [-94.103338, 45.194347], [-94.102956, 45.194263], [-94.102174, 45.19406], [-94.101794, 45.193819], [-94.101558, 45.193505], [-94.101579, 45.193118], [-94.101831, 45.192708], [-94.101952, 45.19229], [-94.101875, 45.192036]]]}}]}