{
  "type": "FeatureCollection",
  "features": [
    {
      "type": "Feature",
      "properties": {
        "lake": "Howard Lake",
        "depth_ft": 4.5,
        "color": "#a5d7f5",
        "weight": 1,
        "fill_opacity": 0.5,
        "line_opacity": 0.8
      },
      "geometry": {
        "type": "Polygon",
        "coordinates": [
          [
            [
              -94.0669406,
              45.0626792
            ],
            [
              -94.0671332,
              45.0633104
            ],
            [
              -94.0673919,
              45.063927
            ],
            [
              -94.0677143,
              45.0645231
            ],
            [
              -94.0680972,
              45.065093
            ],
            [
              -94.068537,
              45.0656311
            ],
            [
              -94.0690293,
              45.0661324
            ],
            [
              -94.0695696,
              45.066592
            ],
            [
              -94.0701525,
              45.0670054
            ],
            [
              -94.0707724,
              45.0673686
            ],
            [
              -94.0714235,
              45.0676783
            ],
            [
              -94.0720993,
              45.0679313
            ],
            [
              -94.0727935,
              45.0681253
            ],
            [
              -94.0734993,
              45.0682584
            ],
            [
              -94.0742099,
              45.0683292
            ],
            [
              -94.0749185,
              45.0683372
            ],
            [
              -94.0756182,
              45.0682823
            ],
            [
              -94.0763023,
              45.0681649
            ],
            [
              -94.0769643,
              45.0679862
            ],
            [
              -94.0775977,
              45.0677479
            ],
            [
              -94.0781965,
              45.0674524
            ],
            [
              -94.0787549,
              45.0671024
            ],
            [
              -94.0792675,
              45.0667013
            ],
            [
              -94.0797293,
              45.0662531
            ],
            [
              -94.080136,
              45.0657619
            ],
            [
              -94.0804836,
              45.0652327
            ],
            [
              -94.0807687,
              45.0646703
            ],
            [
              -94.0809886,
              45.0640803
            ],
            [
              -94.0811413,
              45.0634684
            ],
            [
              -94.0812252,
              45.0628403
            ],
            [
              -94.0812394,
              45.0622023
            ],
            [
              -94.081184,
              45.0615604
            ],
            [
              -94.0810594,
              45.0609208
            ],
            [
              -94.0808668,
              45.0602896
            ],
            [
              -94.0806081,
              45.059673
            ],
            [
              -94.0802857,
              45.0590769
            ],
            [
              -94.0799028,
              45.058507
            ],
            [
              -94.079463,
              45.0579689
            ],
            [
              -94.0789707,
              45.0574676
            ],
            [
              -94.0784304,
              45.057008
            ],
            [
              -94.0778475,
              45.0565946
            ],
            [
              -94.0772276,
              45.0562314
            ],
            [
              -94.0765765,
              45.0559217
            ],
            [
              -94.0759007,
              45.0556687
            ],
            [
              -94.0752065,
              45.0554747
            ],
            [
              -94.0745007,
              45.0553416
            ],
            [
              -94.0737901,
              45.0552708
            ],
            [
              -94.0730815,
              45.0552628
            ],
            [
              -94.0723818,
              45.0553177
            ],
            [
              -94.0716977,
              45.0554351
            ],
            [
              -94.0710357,
              45.0556138
            ],
            [
              -94.0704023,
              45.0558521
            ],
            [
              -94.0698035,
              45.0561476
            ],
            [
              -94.0692451,
              45.0564976
            ],
            [
              -94.0687325,
              45.0568987
            ],
            [
              -94.0682707,
              45.0573469
            ],
            [
              -94.067864,
              45.0578381
            ],
            [
              -94.0675164,
              45.0583673
            ],
            [
              -94.0672313,
              45.0589297
            ],
            [
              -94.0670114,
              45.0595197
            ],
            [
              -94.0668587,
              45.0601316
            ],
            [
              -94.0667748,
              45.0607597
            ],
            [
              -94.0667606,
              45.0613977
            ],
            [
              -94.066816,
              45.0620396
            ],
            [
              -94.0669406,
              45.0626792
            ]
          ]
        ]
      }
    },
    {
      "type": "Feature",
      "properties": {
        "lake": "Howard Lake",
        "depth_ft": 9.0,
        "color": "#84c6f2",
        "weight": 1,
        "fill_opacity": 0.5,
        "line_opacity": 0.8
      },
      "geometry": {
        "type": "Polygon",
        "coordinates": [
          [
            [
              -94.0677166,
              45.0625826
            ],
            [
              -94.067888,
              45.0631443
            ],
            [
              -94.0681183,
              45.0636932
            ],
            [
              -94.0684053,
              45.0642237
            ],
            [
              -94.0687461,
              45.064731
            ],
            [
              -94.0691375,
              45.06521
            ],
            [
              -94.0695757,
              45.0656562
            ],
            [
              -94.0700566,
              45.0660652
            ],
            [
              -94.0705754,
              45.0664332
            ],
            [
              -94.0711272,
              45.0667565
            ],
            [
              -94.0717067,
              45.0670321
            ],
            [
              -94.0723083,
              45.0672573
            ],
            [
              -94.0729261,
              45.06743
            ],
            [
              -94.0735543,
              45.0675484
            ],
            [
              -94.0741868,
              45.0676115
            ],
            [
              -94.0748175,
              45.0676186
            ],
            [
              -94.0754403,
              45.0675697
            ],
            [
              -94.0760493,
              45.0674652
            ],
            [
              -94.0766385,
              45.0673062
            ],
            [
              -94.0772023,
              45.0670941
            ],
            [
              -94.0777352,
              45.066831
            ],
            [
              -94.0782322,
              45.0665195
            ],
            [
              -94.0786884,
              45.0661626
            ],
            [
              -94.0790995,
              45.0657636
            ],
            [
              -94.0794615,
              45.0653264
            ],
            [
              -94.0797709,
              45.0648553
            ],
            [
              -94.0800246,
              45.0643548
            ],
            [
              -94.0802204,
              45.0638296
            ],
            [
              -94.0803563,
              45.063285
            ],
            [
              -94.0804309,
              45.062726
            ],
            [
              -94.0804436,
              45.0621581
            ],
            [
              -94.0803943,
              45.0615867
            ],
            [
              -94.0802834,
              45.0610174
            ],
            [
              -94.080112,
              45.0604557
            ],
            [
              -94.0798817,
              45.0599068
            ],
            [
              -94.0795947,
              45.0593763
            ],
            [
              -94.0792539,
              45.058869
            ],
            [
              -94.0788625,
              45.05839
            ],
            [
              -94.0784243,
              45.0579438
            ],
            [
              -94.0779434,
              45.0575348
            ],
            [
              -94.0774246,
              45.0571668
            ],
            [
              -94.0768728,
              45.0568435
            ],
            [
              -94.0762933,
              45.0565679
            ],
            [
              -94.0756917,
              45.0563427
            ],
            [
              -94.0750739,
              45.05617
            ],
            [
              -94.0744457,
              45.0560516
            ],
            [
              -94.0738132,
              45.0559885
            ],
            [
              -94.0731825,
              45.0559814
            ],
            [
              -94.0725597,
              45.0560303
            ],
            [
              -94.0719507,
              45.0561348
            ],
            [
              -94.0713615,
              45.0562938
            ],
            [
              -94.0707977,
              45.0565059
            ],
            [
              -94.0702648,
              45.056769
            ],
            [
              -94.0697678,
              45.0570805
            ],
            [
              -94.0693116,
              45.0574374
            ],
            [
              -94.0689005,
              45.0578364
            ],
            [
              -94.0685385,
              45.0582736
            ],
            [
              -94.0682291,
              45.0587447
            ],
            [
              -94.0679754,
              45.0592452
            ],
            [
              -94.0677796,
              45.0597704
            ],
            [
              -94.0676437,
              45.060315
            ],
            [
              -94.0675691,
              45.060874
            ],
            [
              -94.0675564,
              45.0614419
            ],
            [
              -94.0676057,
              45.0620133
            ],
            [
              -94.0677166,
              45.0625826
            ]
          ]
        ]
      }
    },
    {
      "type": "Feature",
      "properties": {
        "lake": "Howard Lake",
        "depth_ft": 13.5,
        "color": "#68b6ed",
        "weight": 1,
        "fill_opacity": 0.5,
        "line_opacity": 0.8
      },
      "geometry": {
        "type": "Polygon",
        "coordinates": [
          [
            [
              -94.0684233,
              45.0624946
            ],
            [
              -94.0685754,
              45.0629931
            ],
            [
              -94.0687798,
              45.0634802
            ],
            [
              -94.0690345,
              45.0639511
            ],
            [
              -94.069337,
              45.0644013
            ],
            [
              -94.0696844,
              45.0648265
            ],
            [
              -94.0700733,
              45.0652225
            ],
            [
              -94.0705001,
              45.0655855
            ],
            [
              -94.0709606,
              45.0659121
            ],
            [
              -94.0714503,
              45.066199
            ],
            [
              -94.0719646,
              45.0664437
            ],
            [
              -94.0724985,
              45.0666435
            ],
            [
              -94.0730469,
              45.0667968
            ],
            [
              -94.0736044,
              45.0669019
            ],
            [
              -94.0741658,
              45.0669579
            ],
            [
              -94.0747256,
              45.0669642
            ],
            [
              -94.0752783,
              45.0669208
            ],
            [
              -94.0758188,
              45.0668281
            ],
            [
              -94.0763417,
              45.0666869
            ],
            [
              -94.0768421,
              45.0664987
            ],
            [
              -94.0773151,
              45.0662652
            ],
            [
              -94.0777562,
              45.0659887
            ],
            [
              -94.0781611,
              45.0656719
            ],
            [
              -94.078526,
              45.0653178
            ],
            [
              -94.0788472,
              45.0649298
            ],
            [
              -94.0791218,
              45.0645117
            ],
            [
              -94.0793471,
              45.0640674
            ],
            [
              -94.0795208,
              45.0636014
            ],
            [
              -94.0796414,
              45.0631179
            ],
            [
              -94.0797076,
              45.0626218
            ],
            [
              -94.0797189,
              45.0621178
            ],
            [
              -94.0796751,
              45.0616107
            ],
            [
              -94.0795767,
              45.0611054
            ],
            [
              -94.0794246,
              45.0606069
            ],
            [
              -94.0792202,
              45.0601198
            ],
            [
              -94.0789655,
              45.0596489
            ],
            [
              -94.078663,
              45.0591987
            ],
            [
              -94.0783156,
              45.0587735
            ],
            [
              -94.0779267,
              45.0583775
            ],
            [
              -94.0774999,
              45.0580145
            ],
            [
              -94.0770394,
              45.0576879
            ],
            [
              -94.0765497,
              45.057401
            ],
            [
              -94.0760354,
              45.0571563
            ],
            [
              -94.0755015,
              45.0569565
            ],
            [
              -94.0749531,
              45.0568032
            ],
            [
              -94.0743956,
              45.0566981
            ],
            [
              -94.0738342,
              45.0566421
            ],
            [
              -94.0732744,
              45.0566358
            ],
            [
              -94.0727217,
              45.0566792
            ],
            [
              -94.0721812,
              45.0567719
            ],
            [
              -94.0716583,
              45.0569131
            ],
            [
              -94.0711579,
              45.0571013
            ],
            [
              -94.0706849,
              45.0573348
            ],
            [
              -94.0702438,
              45.0576113
            ],
            [
              -94.0698389,
              45.0579281
            ],
            [
              -94.069474,
              45.0582822
            ],
            [
              -94.0691528,
              45.0586702
            ],
            [
              -94.0688782,
              45.0590883
            ],
            [
              -94.0686529,
              45.0595326
            ],
            [
              -94.0684792,
              45.0599986
            ],
            [
              -94.0683586,
              45.0604821
            ],
            [
              -94.0682924,
              45.0609782
            ],
            [
              -94.0682811,
              45.0614822
            ],
            [
              -94.0683249,
              45.0619893
            ],
            [
              -94.0684233,
              45.0624946
            ]
          ]
        ]
      }
    },
    {
      "type": "Feature",
      "properties": {
        "lake": "Howard Lake",
        "depth_ft": 18.0,
        "color": "#52a6e7",
        "weight": 1,
        "fill_opacity": 0.5,
        "line_opacity": 0.8
      },
      "geometry": {
        "type": "Polygon",
        "coordinates": [
          [
            [
              -94.0691228,
              45.0624074
            ],
            [
              -94.0692558,
              45.0628435
            ],
            [
              -94.0694346,
              45.0632695
            ],
            [
              -94.0696573,
              45.0636813
            ],
            [
              -94.0699219,
              45.0640751
            ],
            [
              -94.0702257,
              45.0644469
            ],
            [
              -94.0705659,
              45.0647932
            ],
            [
              -94.0709391,
              45.0651107
            ],
            [
              -94.0713418,
              45.0653963
            ],
            [
              -94.0717701,
              45.0656473
            ],
            [
              -94.0722199,
              45.0658612
            ],
            [
              -94.0726869,
              45.066036
            ],
            [
              -94.0731664,
              45.06617
            ],
            [
              -94.0736541,
              45.066262
            ],
            [
              -94.074145,
              45.0663109
            ],
            [
              -94.0746345,
              45.0663165
            ],
            [
              -94.075118,
              45.0662785
            ],
            [
              -94.0755906,
              45.0661974
            ],
            [
              -94.076048,
              45.0660739
            ],
            [
              -94.0764856,
              45.0659093
            ],
            [
              -94.0768993,
              45.0657051
            ],
            [
              -94.0772851,
              45.0654633
            ],
            [
              -94.0776392,
              45.0651863
            ],
            [
              -94.0779583,
              45.0648766
            ],
            [
              -94.0782392,
              45.0645372
            ],
            [
              -94.0784794,
              45.0641716
            ],
            [
              -94.0786764,
              45.063783
            ],
            [
              -94.0788283,
              45.0633754
            ],
            [
              -94.0789338,
              45.0629526
            ],
            [
              -94.0789917,
              45.0625187
            ],
            [
              -94.0790016,
              45.0620779
            ],
            [
              -94.0789633,
              45.0616344
            ],
            [
              -94.0788772,
              45.0611926
            ],
            [
              -94.0787442,
              45.0607565
            ],
            [
              -94.0785654,
              45.0603305
            ],
            [
              -94.0783427,
              45.0599187
            ],
            [
              -94.0780781,
              45.0595249
            ],
            [
              -94.0777743,
              45.0591531
            ],
            [
              -94.0774341,
              45.0588068
            ],
            [
              -94.0770609,
              45.0584893
            ],
            [
              -94.0766582,
              45.0582037
            ],
            [
              -94.0762299,
              45.0579527
            ],
            [
              -94.0757801,
              45.0577388
            ],
            [
              -94.0753131,
              45.057564
            ],
            [
              -94.0748336,
              45.05743
            ],
            [
              -94.0743459,
              45.057338
            ],
            [
              -94.073855,
              45.0572891
            ],
            [
              -94.0733655,
              45.0572835
            ],
            [
              -94.072882,
              45.0573215
            ],
            [
              -94.0724094,
              45.0574026
            ],
            [
              -94.071952,
              45.0575261
            ],
            [
              -94.0715144,
              45.0576907
            ],
            [
              -94.0711007,
              45.0578949
            ],
            [
              -94.0707149,
              45.0581367
            ],
            [
              -94.0703608,
              45.0584137
            ],
            [
              -94.0700417,
              45.0587234
            ],
            [
              -94.0697608,
              45.0590628
            ],
            [
              -94.0695206,
              45.0594284
            ],
            [
              -94.0693236,
              45.059817
            ],
            [
              -94.0691717,
              45.0602246
            ],
            [
              -94.0690662,
              45.0606474
            ],
            [
              -94.0690083,
              45.0610813
            ],
            [
              -94.0689984,
              45.0615221
            ],
            [
              -94.0690367,
              45.0619656
            ],
            [
              -94.0691228,
              45.0624074
            ]
          ]
        ]
      }
    },
    {
      "type": "Feature",
      "properties": {
        "lake": "Howard Lake",
        "depth_ft": 22.5,
        "color": "#3f93da",
        "weight": 1,
        "fill_opacity": 0.5,
        "line_opacity": 0.8
      },
      "geometry": {
        "type": "Polygon",
        "coordinates": [
          [
            [
              -94.0698552,
              45.0623162
            ],
            [
              -94.0699683,
              45.0626868
            ],
            [
              -94.0701202,
              45.0630488
            ],
            [
              -94.0703095,
              45.0633988
            ],
            [
              -94.0705343,
              45.0637334
            ],
            [
              -94.0707925,
              45.0640494
            ],
            [
              -94.0710816,
              45.0643437
            ],
            [
              -94.0713988,
              45.0646135
            ],
            [
              -94.071741,
              45.0648562
            ],
            [
              -94.072105,
              45.0650695
            ],
            [
              -94.0724872,
              45.0652513
            ],
            [
              -94.0728841,
              45.0653999
            ],
            [
              -94.0732916,
              45.0655138
            ],
            [
              -94.073706,
              45.0655919
            ],
            [
              -94.0741232,
              45.0656335
            ],
            [
              -94.0745393,
              45.0656382
            ],
            [
              -94.0749501,
              45.0656059
            ],
            [
              -94.0753518,
              45.065537
            ],
            [
              -94.0757404,
              45.0654321
            ],
            [
              -94.0761124,
              45.0652922
            ],
            [
              -94.0764639,
              45.0651187
            ],
            [
              -94.0767917,
              45.0649132
            ],
            [
              -94.0770927,
              45.0646777
            ],
            [
              -94.0773639,
              45.0644145
            ],
            [
              -94.0776026,
              45.0641262
            ],
            [
              -94.0778067,
              45.0638154
            ],
            [
              -94.0779741,
              45.0634852
            ],
            [
              -94.0781033,
              45.0631388
            ],
            [
              -94.0781929,
              45.0627795
            ],
            [
              -94.0782421,
              45.0624108
            ],
            [
              -94.0782505,
              45.0620362
            ],
            [
              -94.078218,
              45.0616593
            ],
            [
              -94.0781448,
              45.0612838
            ],
            [
              -94.0780317,
              45.0609132
            ],
            [
              -94.0778798,
              45.0605512
            ],
            [
              -94.0776905,
              45.0602012
            ],
            [
              -94.0774657,
              45.0598666
            ],
            [
              -94.0772075,
              45.0595506
            ],
            [
              -94.0769184,
              45.0592563
            ],
            [
              -94.0766012,
              45.0589865
            ],
            [
              -94.076259,
              45.0587438
            ],
            [
              -94.075895,
              45.0585305
            ],
            [
              -94.0755128,
              45.0583487
            ],
            [
              -94.0751159,
              45.0582001
            ],
            [
              -94.0747084,
              45.0580862
            ],
            [
              -94.074294,
              45.0580081
            ],
            [
              -94.0738768,
              45.0579665
            ],
            [
              -94.0734607,
              45.0579618
            ],
            [
              -94.0730499,
              45.0579941
            ],
            [
              -94.0726482,
              45.058063
            ],
            [
              -94.0722596,
              45.0581679
            ],
            [
              -94.0718876,
              45.0583078
            ],
            [
              -94.0715361,
              45.0584813
            ],
            [
              -94.0712083,
              45.0586868
            ],
            [
              -94.0709073,
              45.0589223
            ],
            [
              -94.0706361,
              45.0591855
            ],
            [
              -94.0703974,
              45.0594738
            ],
            [
              -94.0701933,
              45.0597846
            ],
            [
              -94.0700259,
              45.0601148
            ],
            [
              -94.0698967,
              45.0604612
            ],
            [
              -94.0698071,
              45.0608205
            ],
            [
              -94.0697579,
              45.0611892
            ],
            [
              -94.0697495,
              45.0615638
            ],
            [
              -94.069782,
              45.0619407
            ],
            [
              -94.0698552,
              45.0623162
            ]
          ]
        ]
      }
    },
    {
      "type": "Feature",
      "properties": {
        "lake": "Howard Lake",
        "depth_ft": 27.0,
        "color": "#3077bc",
        "weight": 1,
        "fill_opacity": 0.5,
        "line_opacity": 0.8
      },
      "geometry": {
        "type": "Polygon",
        "coordinates": [
          [
            [
              -94.0706708,
              45.0622146
            ],
            [
              -94.0707617,
              45.0625123
            ],
            [
              -94.0708837,
              45.0628031
            ],
            [
              -94.0710357,
              45.0630842
            ],
            [
              -94.0712163,
              45.0633529
            ],
            [
              -94.0714237,
              45.0636067
            ],
            [
              -94.0716559,
              45.0638431
            ],
            [
              -94.0719106,
              45.0640599
            ],
            [
              -94.0721855,
              45.0642548
            ],
            [
              -94.0724779,
              45.0644261
            ],
            [
              -94.0727849,
              45.0645722
            ],
            [
              -94.0731037,
              45.0646915
            ],
            [
              -94.073431,
              45.064783
            ],
            [
              -94.0737639,
              45.0648457
            ],
            [
              -94.074099,
              45.0648792
            ],
            [
              -94.0744331,
              45.0648829
            ],
            [
              -94.0747631,
              45.064857
            ],
            [
              -94.0750858,
              45.0648016
            ],
            [
              -94.075398,
              45.0647174
            ],
            [
              -94.0756967,
              45.064605
            ],
            [
              -94.0759791,
              45.0644656
            ],
            [
              -94.0762424,
              45.0643006
            ],
            [
              -94.0764841,
              45.0641114
            ],
            [
              -94.0767019,
              45.0639001
            ],
            [
              -94.0768937,
              45.0636684
            ],
            [
              -94.0770576,
              45.0634188
            ],
            [
              -94.0771921,
              45.0631536
            ],
            [
              -94.0772958,
              45.0628754
            ],
            [
              -94.0773678,
              45.0625868
            ],
            [
              -94.0774073,
              45.0622906
            ],
            [
              -94.0774141,
              45.0619897
            ],
            [
              -94.0773879,
              45.061687
            ],
            [
              -94.0773292,
              45.0613854
            ],
            [
              -94.0772383,
              45.0610877
            ],
            [
              -94.0771163,
              45.0607969
            ],
            [
              -94.0769643,
              45.0605158
            ],
            [
              -94.0767837,
              45.0602471
            ],
            [
              -94.0765763,
              45.0599933
            ],
            [
              -94.0763441,
              45.0597569
            ],
            [
              -94.0760894,
              45.0595401
            ],
            [
              -94.0758145,
              45.0593452
            ],
            [
              -94.0755221,
              45.0591739
            ],
            [
              -94.0752151,
              45.0590278
            ],
            [
              -94.0748963,
              45.0589085
            ],
            [
              -94.074569,
              45.058817
            ],
            [
              -94.0742361,
              45.0587543
            ],
            [
              -94.073901,
              45.0587208
            ],
            [
              -94.0735669,
              45.0587171
            ],
            [
              -94.0732369,
              45.058743
            ],
            [
              -94.0729142,
              45.0587984
            ],
            [
              -94.072602,
              45.0588826
            ],
            [
              -94.0723033,
              45.058995
            ],
            [
              -94.0720209,
              45.0591344
            ],
            [
              -94.0717576,
              45.0592994
            ],
            [
              -94.0715159,
              45.0594886
            ],
            [
              -94.0712981,
              45.0596999
            ],
            [
              -94.0711063,
              45.0599316
            ],
            [
              -94.0709424,
              45.0601812
            ],
            [
              -94.0708079,
              45.0604464
            ],
            [
              -94.0707042,
              45.0607246
            ],
            [
              -94.0706322,
              45.0610132
            ],
            [
              -94.0705927,
              45.0613094
            ],
            [
              -94.0705859,
              45.0616103
            ],
            [
              -94.0706121,
              45.061913
            ],
            [
              -94.0706708,
              45.0622146
            ]
          ]
        ]
      }
    },
    {
      "type": "Feature",
      "properties": {
        "lake": "Howard Lake",
        "depth_ft": 31.5,
        "color": "#245790",
        "weight": 1,
        "fill_opacity": 0.5,
        "line_opacity": 0.8
      },
      "geometry": {
        "type": "Polygon",
        "coordinates": [
          [
            [
              -94.0716799,
              45.062089
            ],
            [
              -94.0717432,
              45.0622964
            ],
            [
              -94.0718283,
              45.062499
            ],
            [
              -94.0719342,
              45.0626949
            ],
            [
              -94.07206,
              45.0628822
            ],
            [
              -94.0722046,
              45.0630591
            ],
            [
              -94.0723664,
              45.0632238
            ],
            [
              -94.0725439,
              45.0633749
            ],
            [
              -94.0727355,
              45.0635107
            ],
            [
              -94.0729393,
              45.0636301
            ],
            [
              -94.0731532,
              45.0637319
            ],
            [
              -94.0733753,
              45.0638151
            ],
            [
              -94.0736035,
              45.0638788
            ],
            [
              -94.0738354,
              45.0639225
            ],
            [
              -94.074069,
              45.0639458
            ],
            [
              -94.0743019,
              45.0639485
            ],
            [
              -94.0745318,
              45.0639304
            ],
            [
              -94.0747567,
              45.0638918
            ],
            [
              -94.0749742,
              45.0638331
            ],
            [
              -94.0751824,
              45.0637548
            ],
            [
              -94.0753792,
              45.0636577
            ],
            [
              -94.0755627,
              45.0635426
            ],
            [
              -94.0757312,
              45.0634108
            ],
            [
              -94.0758829,
              45.0632635
            ],
            [
              -94.0760166,
              45.0631021
            ],
            [
              -94.0761308,
              45.0629281
            ],
            [
              -94.0762245,
              45.0627433
            ],
            [
              -94.0762968,
              45.0625494
            ],
            [
              -94.076347,
              45.0623483
            ],
            [
              -94.0763746,
              45.0621419
            ],
            [
              -94.0763793,
              45.0619322
            ],
            [
              -94.076361,
              45.0617212
            ],
            [
              -94.0763201,
              45.061511
            ],
            [
              -94.0762568,
              45.0613036
            ],
            [
              -94.0761717,
              45.061101
            ],
            [
              -94.0760658,
              45.0609051
            ],
            [
              -94.07594,
              45.0607178
            ],
            [
              -94.0757954,
              45.0605409
            ],
            [
              -94.0756336,
              45.0603762
            ],
            [
              -94.0754561,
              45.0602251
            ],
            [
              -94.0752645,
              45.0600893
            ],
            [
              -94.0750607,
              45.0599699
            ],
            [
              -94.0748468,
              45.0598681
            ],
            [
              -94.0746247,
              45.0597849
            ],
            [
              -94.0743965,
              45.0597212
            ],
            [
              -94.0741646,
              45.0596775
            ],
            [
              -94.073931,
              45.0596542
            ],
            [
              -94.0736981,
              45.0596515
            ],
            [
              -94.0734682,
              45.0596696
            ],
            [
              -94.0732433,
              45.0597082
            ],
            [
              -94.0730258,
              45.0597669
            ],
            [
              -94.0728176,
              45.0598452
            ],
            [
              -94.0726208,
              45.0599423
            ],
            [
              -94.0724373,
              45.0600574
            ],
            [
              -94.0722688,
              45.0601892
            ],
            [
              -94.0721171,
              45.0603365
            ],
            [
              -94.0719834,
              45.0604979
            ],
            [
              -94.0718692,
              45.0606719
            ],
            [
              -94.0717755,
              45.0608567
            ],
            [
              -94.0717032,
              45.0610506
            ],
            [
              -94.071653,
              45.0612517
            ],
            [
              -94.0716254,
              45.0614581
            ],
            [
              -94.0716207,
              45.0616678
            ],
            [
              -94.071639,
              45.0618788
            ],
            [
              -94.0716799,
              45.062089
            ]
          ]
        ]
      }
    }
  ]
}