{"type": "FeatureCollection", "features": [{"type": "Feature", "properties": {"depth_ft": 0.0, "lake": "Howard Lake", "dow": "86019900"}, "geometry": {"type": "Polygon", "coordinates": [[[-94.069621, 45.061595], [-94.070535, 45.061793], [-94.071031, 45.061982], [-94.071417, 45.062185], [-94.07164, 45.062416], [-94.071863, 45.062659], [-94.072228, 45.062681], [-94.072467, 45.062808], [-94.072563, 45.063053], [-94.072752, 45.063438], [-94.072702, 45.063645], [-94.072484, 45.063699], [-94.071976, 45.063807], [-94.071485, 45.06385], [-94.07096, 45.064049], [-94.070697, 45.064581], [-94.07075, 45.065019], [-94.070815, 45.065574], [-94.071099, 45.066126], [-94.071399, 45.066563], [-94.071827, 45.067049], [-94.072379, 45.067328], [-94.07315, 45.067631], [-94.073921, 45.067959], [-94.074545, 45.068212], [-94.075063, 45.068607], [-94.075489, 45.06899], [-94.075868, 45.069258], [-94.076367, 45.069666], [-94.076632, 45.070155], [-94.07702, 45.071403], [-94.077194, 45.07197], [-94.077492, 45.072303], [-94.077805, 45.072468], [-94.078316, 45.072527], [-94.078863, 45.072509], [-94.079443, 45.072362], [-94.07968, 45.07236], [-94.079937, 45.072486], [-94.080292, 45.072935], [-94.080265, 45.073465], [-94.0804, 45.073838], [-94.080258, 45.074046], [-94.080156, 45.074447], [-94.08028, 45.074704], [-94.080541, 45.075037], [-94.08069, 45.075204], [-94.081133, 45.075496], [-94.081502, 45.075738], [-94.082252, 45.075886], [-94.082593, 45.076077], [-94.083134, 45.076743], [-94.083343, 45.077193], [-94.083527, 45.077294], [-94.08379, 45.077718], [-94.083878, 45.078518], [-94.083727, 45.079229], [-94.083309, 45.07975], [-94.08225, 45.080638], [-94.081335, 45.081395], [-94.080523, 45.081829], [-94.078753, 45.082659], [-94.077131, 45.083178], [-94.074972, 45.083663], [-94.074553, 45.083693], [-94.07415, 45.083594], [-94.073673, 45.083417], [-94.073364, 45.083485], [-94.072941, 45.083231], [-94.072606, 45.082898], [-94.071907, 45.08253], [-94.071203, 45.08193], [-94.070672, 45.081328], [-94.070223, 45.080712], [-94.069531, 45.079725], [-94.068971, 45.07902], [-94.068357, 45.078354], [-94.067765, 45.077856], [-94.067082, 45.077398], [-94.066092, 45.077071], [-94.064828, 45.07676], [-94.06342, 45.076489], [-94.062869, 45.076249], [-94.062498, 45.075917], [-94.061951, 45.075418], [-94.060265, 45.073897], [-94.058765, 45.072594], [-94.057477, 45.071418], [-94.056769, 45.070585], [-94.055991, 45.069908], [-94.055454, 45.069423], [-94.055173, 45.068999], [-94.055022, 45.068755], [-94.054958, 45.068239], [-94.055057, 45.06767], [-94.055517, 45.066891], [-94.055981, 45.066371], [-94.057173, 45.065339], [-94.05852, 45.064268], [-94.060284, 45.063077], [-94.06115, 45.062643], [-94.062326, 45.062167], [-94.062852, 45.062059], [-94.063746, 45.062115], [-94.064637, 45.062042], [-94.065035, 45.061896], [-94.065525, 45.061776], [-94.067071, 45.061619], [-94.068526, 45.061528], [-94.069621, 45.061595]]]}}, {"type": "Feature", "properties": {"depth_ft": 35.0, "lake": "Howard Lake", "dow": "86019900"}, "geometry": {"type": "Polygon", "coordinates": [[[-94.066934, 45.072867], [-94.066289, 45.072946], [-94.065612, 45.072953], [-94.065184, 45.072842], [-94.064975, 45.072688], [-94.065059, 45.072427], [-94.065216, 45.072175], [-94.065507, 45.072016], [-94.065885, 45.071794], [-94.066014, 45.071626], [-94.066085, 45.07149], [-94.066259, 45.071332], [-94.06655, 45.071183], [-94.066696, 45.07113], [-94.066949, 45.071304], [-94.067071, 45.071522], [-94.06708, 45.072022], [-94.067157, 45.072219], [-94.067279, 45.072427], [-94.067268, 45.072646], [-94.067154, 45.072813], [-94.066934, 45.072867]]]}}, {"type": "Feature", "properties": {"depth_ft": 20.0, "lake": "Howard Lake", "dow": "86019900"}, "geometry": {"type": "Polygon", "coordinates": [[[-94.063798, 45.07025], [-94.063611, 45.070471], [-94.063508, 45.070472], [-94.063359, 45.070379], [-94.063369, 45.070129], [-94.063483, 45.06992], [-94.063658, 45.069845], [-94.063881, 45.069958], [-94.063896, 45.07001], [-94.063798, 45.07025]]]}}, {"type": "Feature", "properties": {"depth_ft": 20.0, "lake": "Howard Lake", "dow": "86019900"}, "geometry": {"type": "Polygon", "coordinates": [[[-94.064421, 45.068963], [-94.064006, 45.068018], [-94.063959, 45.067821], [-94.063807, 45.067572], [-94.063596, 45.067303], [-94.063502, 45.067012], [-94.063522, 45.06647], [-94.063604, 45.066136], [-94.06378, 45.066103], [-94.063972, 45.066195], [-94.064538, 45.066576], [-94.064855, 45.066989], [-94.065024, 45.067373], [-94.065003, 45.067842], [-94.065148, 45.068518], [-94.065137, 45.068727], [-94.064994, 45.068957], [-94.06479, 45.069074], [-94.06457, 45.069076], [-94.064421, 45.068963]]]}}, {"type": "Feature", "properties": {"depth_ft": 30.0, "lake": "Howard Lake", "dow": "86019900"}, "geometry": {"type": "Polygon", "coordinates": [[[-94.067997, 45.075462], [-94.066363, 45.07454], [-94.065782, 45.074139], [-94.06504, 45.073781], [-94.064238, 45.073382], [-94.064142, 45.072946], [-94.064238, 45.07259], [-94.065073, 45.071645], [-94.065765, 45.070888], [-94.066096, 45.070093], [-94.066296, 45.068997], [-94.06638, 45.067996], [-94.066038, 45.067354], [-94.065941, 45.066875], [-94.066025, 45.066656], [-94.066244, 45.06656], [-94.066377, 45.066611], [-94.066542, 45.066797], [-94.066969, 45.067637], [-94.06718, 45.067916], [-94.067864, 45.068285], [-94.06828, 45.068541], [-94.06919, 45.06922], [-94.069962, 45.06964], [-94.070322, 45.070012], [-94.070503, 45.070271], [-94.070715, 45.070998], [-94.07088, 45.071955], [-94.070861, 45.072487], [-94.071081, 45.073266], [-94.071156, 45.073724], [-94.070965, 45.074549], [-94.070711, 45.075083], [-94.070379, 45.07545], [-94.070073, 45.075578], [-94.069221, 45.075628], [-94.068691, 45.075581], [-94.067997, 45.075462]]]}}, {"type": "Feature", "properties": {"depth_ft": 25.0, "lake": "Howard Lake", "dow": "86019900"}, "geometry": {"type": "Polygon", "coordinates": [[[-94.065693, 45.067794], [-94.065183, 45.066872], [-94.064971, 45.06654], [-94.064963, 45.066092], [-94.065086, 45.065602], [-94.065187, 45.065507], [-94.065378, 45.065474], [-94.065467, 45.065535], [-94.065561, 45.065826], [-94.065728, 45.066137], [-94.066232, 45.06632], [-94.066452, 45.066287], [-94.066802, 45.066159], [-94.067373, 45.066049], [-94.067567, 45.066162], [-94.067726, 45.066421], [-94.067851, 45.066836], [-94.068141, 45.067396], [-94.068666, 45.067944], [-94.069231, 45.068303], [-94.069869, 45.068578], [-94.070712, 45.068841], [-94.07095, 45.069016], [-94.071131, 45.06964], [-94.071579, 45.070803], [-94.071744, 45.071739], [-94.071734, 45.072416], [-94.071832, 45.072926], [-94.072199, 45.073652], [-94.072344, 45.074328], [-94.072313, 45.075078], [-94.072196, 45.075902], [-94.071942, 45.076436], [-94.07157, 45.077023], [-94.071236, 45.077203], [-94.070501, 45.077262], [-94.07003, 45.077235], [-94.069305, 45.076961], [-94.068412, 45.076428], [-94.068159, 45.076232], [-94.06759, 45.075727], [-94.066676, 45.075183], [-94.065619, 45.074495], [-94.065367, 45.074393], [-94.064684, 45.074014], [-94.064012, 45.073499], [-94.063668, 45.073158], [-94.06353, 45.072858], [-94.0636, 45.07268], [-94.063836, 45.072313], [-94.064226, 45.071945], [-94.065184, 45.071269], [-94.065487, 45.070964], [-94.065584, 45.070609], [-94.065618, 45.070108], [-94.065537, 45.069703], [-94.065589, 45.069306], [-94.065707, 45.068524], [-94.065693, 45.067794]]]}}, {"type": "Feature", "properties": {"depth_ft": 20.0, "lake": "Howard Lake", "dow": "86019900"}, "geometry": {"type": "Polygon", "coordinates": [[[-94.062329, 45.065509], [-94.06248, 45.065121], [-94.062826, 45.064793], [-94.063314, 45.064527], [-94.064087, 45.064458], [-94.064827, 45.0645], [-94.065727, 45.064629], [-94.065941, 45.064814], [-94.066402, 45.064997], [-94.067021, 45.065178], [-94.067901, 45.065195], [-94.068379, 45.065303], [-94.068805, 45.065511], [-94.069057, 45.065808], [-94.069235, 45.066392], [-94.069365, 45.066778], [-94.069813, 45.067197], [-94.070382, 45.067541], [-94.071057, 45.067847], [-94.071518, 45.068042], [-94.071716, 45.068289], [-94.072043, 45.068822], [-94.072263, 45.069768], [-94.072709, 45.071061], [-94.073151, 45.072117], [-94.073774, 45.072946], [-94.074456, 45.073651], [-94.074853, 45.074196], [-94.074891, 45.075255], [-94.074684, 45.076442], [-94.074302, 45.077618], [-94.074062, 45.077969], [-94.07373, 45.078109], [-94.07317, 45.078302], [-94.072573, 45.078332], [-94.072041, 45.078163], [-94.071314, 45.077845], [-94.071031, 45.077785], [-94.070186, 45.077781], [-94.069484, 45.07785], [-94.069077, 45.077779], [-94.068488, 45.077323], [-94.06811, 45.076878], [-94.067545, 45.076309], [-94.06692, 45.075791], [-94.066332, 45.075448], [-94.065018, 45.074774], [-94.063792, 45.074174], [-94.062659, 45.073312], [-94.062157, 45.07283], [-94.061723, 45.072211], [-94.061456, 45.072064], [-94.060731, 45.071846], [-94.060351, 45.071301], [-94.059328, 45.069739], [-94.059162, 45.069304], [-94.059671, 45.068327], [-94.06031, 45.067673], [-94.062329, 45.065509]]]}}, {"type": "Feature", "properties": {"depth_ft": 15.0, "lake": "Howard Lake", "dow": "86019900"}, "geometry": {"type": "Polygon", "coordinates": [[[-94.057199, 45.068799], [-94.057807, 45.067908], [-94.058095, 45.066833], [-94.058281, 45.066419], [-94.058745, 45.065817], [-94.059821, 45.065008], [-94.060711, 45.064601], [-94.062622, 45.063748], [-94.063777, 45.063388], [-94.064617, 45.063156], [-94.065602, 45.063159], [-94.066255, 45.06324], [-94.067266, 45.063667], [-94.067942, 45.06406], [-94.068744, 45.064626], [-94.069356, 45.065331], [-94.069865, 45.06671], [-94.070224, 45.067081], [-94.071152, 45.067758], [-94.071701, 45.067965], [-94.072252, 45.068247], [-94.072591, 45.068518], [-94.072985, 45.069337], [-94.073225, 45.069959], [-94.073327, 45.070693], [-94.073516, 45.071365], [-94.073804, 45.071736], [-94.074786, 45.072463], [-94.075099, 45.072759], [-94.075552, 45.073441], [-94.076739, 45.074814], [-94.07731, 45.07522], [-94.077916, 45.075601], [-94.078585, 45.076118], [-94.078646, 45.076529], [-94.078732, 45.077364], [-94.078974, 45.078035], [-94.078907, 45.078235], [-94.078697, 45.078287], [-94.078067, 45.07848], [-94.077037, 45.078926], [-94.076514, 45.07923], [-94.076121, 45.079359], [-94.07528, 45.079579], [-94.074106, 45.079852], [-94.073402, 45.079871], [-94.072464, 45.079605], [-94.071988, 45.07956], [-94.071813, 45.079611], [-94.071217, 45.079742], [-94.07067, 45.079634], [-94.070166, 45.079078], [-94.069668, 45.078758], [-94.069042, 45.078253], [-94.067923, 45.077228], [-94.067388, 45.076834], [-94.066659, 45.076467], [-94.066073, 45.076161], [-94.065694, 45.075653], [-94.065444, 45.075456], [-94.065195, 45.075346], [-94.064779, 45.0752], [-94.063824, 45.07496], [-94.063184, 45.074617], [-94.062647, 45.074135], [-94.061648, 45.073384], [-94.060999, 45.072567], [-94.060216, 45.072075], [-94.059339, 45.07131], [-94.058763, 45.070592], [-94.058495, 45.070395], [-94.057742, 45.069629], [-94.057364, 45.069171], [-94.057199, 45.068799]]]}}, {"type": "Feature", "properties": {"depth_ft": 10.0, "lake": "Howard Lake", "dow": "86019900"}, "geometry": {"type": "Polygon", "coordinates": [[[-94.057329, 45.069658], [-94.056959, 45.069138], [-94.056738, 45.068603], [-94.05658, 45.067682], [-94.05663, 45.067071], [-94.057043, 45.066531], [-94.058122, 45.065922], [-94.058504, 45.065632], [-94.058883, 45.065167], [-94.059188, 45.064565], [-94.059665, 45.064187], [-94.06052, 45.063767], [-94.062427, 45.063189], [-94.063667, 45.062666], [-94.064856, 45.062305], [-94.065437, 45.062313], [-94.065932, 45.062445], [-94.066759, 45.062911], [-94.067346, 45.063267], [-94.067878, 45.063474], [-94.068549, 45.063568], [-94.069027, 45.063726], [-94.069288, 45.064534], [-94.069488, 45.064868], [-94.069828, 45.065177], [-94.070085, 45.066222], [-94.070217, 45.06672], [-94.070597, 45.06724], [-94.071041, 45.067498], [-94.071627, 45.067766], [-94.072336, 45.068059], [-94.073013, 45.068489], [-94.073611, 45.069406], [-94.073788, 45.069941], [-94.073707, 45.070291], [-94.074055, 45.071048], [-94.07445, 45.071456], [-94.074948, 45.071726], [-94.075199, 45.071973], [-94.075756, 45.073052], [-94.076549, 45.07403], [-94.077623, 45.074993], [-94.078954, 45.075579], [-94.079523, 45.075922], [-94.079988, 45.076317], [-94.080253, 45.076838], [-94.080095, 45.077762], [-94.079515, 45.078753], [-94.078755, 45.079533], [-94.078215, 45.079838], [-94.076944, 45.080062], [-94.075663, 45.080286], [-94.075121, 45.08049], [-94.074966, 45.080691], [-94.074956, 45.081053], [-94.074713, 45.081255], [-94.07436, 45.081196], [-94.074076, 45.081049], [-94.073703, 45.080903], [-94.073423, 45.08098], [-94.072666, 45.080975], [-94.072013, 45.080881], [-94.071092, 45.080591], [-94.070673, 45.08027], [-94.06942, 45.07916], [-94.069023, 45.07864], [-94.06832, 45.077773], [-94.067614, 45.077157], [-94.067062, 45.07685], [-94.065927, 45.076387], [-94.065109, 45.075933], [-94.064487, 45.075602], [-94.063745, 45.075409], [-94.063, 45.075117], [-94.062571, 45.074759], [-94.062025, 45.074253], [-94.061544, 45.073971], [-94.061043, 45.073502], [-94.060589, 45.072745], [-94.060321, 45.072523], [-94.059842, 45.072328], [-94.05952, 45.072019], [-94.058997, 45.071338], [-94.058242, 45.07051], [-94.057329, 45.069658]]]}}, {"type": "Feature", "properties": {"depth_ft": 5.0, "lake": "Howard Lake", "dow": "86019900"}, "geometry": {"type": "Polygon", "coordinates": [[[-94.056086, 45.066652], [-94.056457, 45.066249], [-94.05703, 45.065845], [-94.057788, 45.065451], [-94.058205, 45.065173], [-94.058288, 45.064898], [-94.05863, 45.064334], [-94.059133, 45.063967], [-94.060297, 45.063158], [-94.061189, 45.062876], [-94.061571, 45.062561], [-94.062199, 45.062293], [-94.062638, 45.062251], [-94.063755, 45.062241], [-94.064441, 45.062222], [-94.065615, 45.061949], [-94.066602, 45.062015], [-94.067889, 45.062152], [-94.06916, 45.062378], [-94.069994, 45.062744], [-94.070352, 45.063115], [-94.070412, 45.063476], [-94.07031, 45.064125], [-94.070092, 45.064701], [-94.070203, 45.065934], [-94.070372, 45.066506], [-94.070696, 45.066902], [-94.071232, 45.067321], [-94.07195, 45.067601], [-94.073224, 45.067988], [-94.073952, 45.068343], [-94.074823, 45.068834], [-94.075307, 45.069278], [-94.075667, 45.069724], [-94.075871, 45.07027], [-94.075911, 45.070993], [-94.075931, 45.072078], [-94.075993, 45.072564], [-94.076809, 45.072893], [-94.077444, 45.072999], [-94.078233, 45.072842], [-94.079128, 45.072709], [-94.079552, 45.072755], [-94.079769, 45.073077], [-94.079675, 45.073701], [-94.079548, 45.074426], [-94.07967, 45.074848], [-94.080014, 45.075332], [-94.080479, 45.075714], [-94.081122, 45.076231], [-94.081681, 45.076949], [-94.082086, 45.077881], [-94.08207, 45.078455], [-94.082189, 45.079152], [-94.082072, 45.07949], [-94.081622, 45.079893], [-94.080719, 45.080537], [-94.080444, 45.080877], [-94.079455, 45.081634], [-94.078973, 45.081751], [-94.078133, 45.082021], [-94.07677, 45.082545], [-94.075421, 45.082869], [-94.07456, 45.082952], [-94.074313, 45.082917], [-94.072402, 45.082387], [-94.071773, 45.08218], [-94.07122, 45.081762], [-94.070806, 45.081267], [-94.070462, 45.080759], [-94.069795, 45.079905], [-94.068867, 45.078753], [-94.068453, 45.078283], [-94.067613, 45.077581], [-94.066972, 45.077187], [-94.066385, 45.076831], [-94.065747, 45.076625], [-94.064608, 45.076424], [-94.064095, 45.076254], [-94.062698, 45.075906], [-94.06252, 45.075782], [-94.062179, 45.075436], [-94.061696, 45.075017], [-94.06123, 45.074572], [-94.060819, 45.074264], [-94.060018, 45.073274], [-94.059695, 45.072928], [-94.059411, 45.072794], [-94.05886, 45.072537], [-94.058159, 45.071708], [-94.057125, 45.070545], [-94.056481, 45.069928], [-94.055817, 45.069273], [-94.055475, 45.068815], [-94.055376, 45.068217], [-94.055577, 45.067704], [-94.056086, 45.066652]]]}}]}