{"type": "FeatureCollection", "features": [{"type": "Feature", "properties": {"depth_ft": 0.0, "lake": "Lake Pulaski", "dow": "86005302"}, "geometry": {"type": "Polygon", "coordinates": [[[-93.853789, 45.206907], [-93.852349, 45.206892], [-93.851671, 45.206914], [-93.851362, 45.206959], [-93.851207, 45.206985], [-93.850995, 45.207087], [-93.850794, 45.207181], [-93.850604, 45.207225], [-93.850271, 45.207244], [-93.849771, 45.207214], [-93.848722, 45.207138], [-93.84821, 45.207133], [-93.847877, 45.207153], [-93.847688, 45.207221], [-93.847522, 45.207307], [-93.847287, 45.207477], [-93.84711, 45.207579], [-93.84704, 45.207672], [-93.846957, 45.207748], [-93.846732, 45.207817], [-93.846543, 45.207877], [-93.846269, 45.207871], [-93.846066, 45.207839], [-93.845553, 45.207758], [-93.845195, 45.207677], [-93.844704, 45.207521], [-93.84419, 45.20734], [-93.843627, 45.207092], [-93.843146, 45.206784], [-93.842797, 45.206551], [-93.842339, 45.206143], [-93.842008, 45.205837], [-93.841849, 45.205594], [-93.841533, 45.205109], [-93.841204, 45.20459], [-93.841105, 45.204372], [-93.841064, 45.204019], [-93.841083, 45.203649], [-93.841104, 45.203498], [-93.841077, 45.203237], [-93.841156, 45.202943], [-93.841412, 45.202562], [-93.841573, 45.2022], [-93.841724, 45.201921], [-93.842042, 45.201516], [-93.842547, 45.201067], [-93.843113, 45.200692], [-93.844007, 45.199963], [-93.844569, 45.199353], [-93.844709, 45.199142], [-93.844692, 45.198823], [-93.844778, 45.198183], [-93.844764, 45.197958], [-93.844839, 45.197403], [-93.845021, 45.196805], [-93.845239, 45.196307], [-93.845529, 45.1958], [-93.845739, 45.195496], [-93.845842, 45.195226], [-93.846039, 45.194889], [-93.84599, 45.194763], [-93.845976, 45.194645], [-93.846077, 45.194182], [-93.846216, 45.19382], [-93.84646, 45.193373], [-93.846634, 45.193119], [-93.84694, 45.192865], [-93.847199, 45.192695], [-93.847362, 45.192466], [-93.84749, 45.192272], [-93.848008, 45.19184], [-93.848489, 45.191432], [-93.849137, 45.190982], [-93.849668, 45.190659], [-93.850329, 45.190317], [-93.850483, 45.190232], [-93.850754, 45.190087], [-93.85098, 45.190044], [-93.851263, 45.189915], [-93.851472, 45.189841], [-93.851602, 45.189765], [-93.852052, 45.18961], [-93.852337, 45.189574], [-93.852491, 45.189539], [-93.852775, 45.189428], [-93.853795, 45.189193], [-93.8544, 45.189088], [-93.854946, 45.188975], [-93.855895, 45.188799], [-93.856096, 45.188722], [-93.856429, 45.188678], [-93.857178, 45.18863], [-93.858427, 45.188604], [-93.858879, 45.188626], [-93.859499, 45.188705], [-93.860274, 45.188792], [-93.861456, 45.18906], [-93.862066, 45.189257], [-93.863009, 45.189574], [-93.863703, 45.189838], [-93.864158, 45.190044], [-93.864446, 45.19021], [-93.864471, 45.190277], [-93.864544, 45.190361], [-93.864915, 45.19051], [-93.865047, 45.190618], [-93.865131, 45.190617], [-93.865225, 45.190549], [-93.86526, 45.190541], [-93.865416, 45.190632], [-93.865334, 45.190717], [-93.865205, 45.190835], [-93.865206, 45.19086], [-93.865277, 45.19086], [-93.865325, 45.190851], [-93.865457, 45.190934], [-93.865782, 45.191167], [-93.866035, 45.191392], [-93.866302, 45.191777], [-93.866462, 45.19207], [-93.866514, 45.192381], [-93.866496, 45.192751], [-93.866416, 45.193003], [-93.866336, 45.193197], [-93.866242, 45.193291], [-93.866103, 45.193527], [-93.865939, 45.193772], [-93.865856, 45.193823], [-93.86574, 45.193975], [-93.865645, 45.194018], [-93.865611, 45.194136], [-93.865542, 45.194262], [-93.865473, 45.194414], [-93.865427, 45.194541], [-93.865406, 45.194751], [-93.86547, 45.195036], [-93.865559, 45.195406], [-93.865624, 45.195783], [-93.865614, 45.195876], [-93.865615, 45.195977], [-93.865703, 45.19627], [-93.865768, 45.19664], [-93.865809, 45.196967], [-93.865842, 45.197572], [-93.865895, 45.198009], [-93.865853, 45.198421], [-93.865752, 45.198791], [-93.86558, 45.199205], [-93.865428, 45.199416], [-93.865299, 45.199552], [-93.865017, 45.199764], [-93.864829, 45.19995], [-93.864358, 45.200298], [-93.863816, 45.200639], [-93.86331, 45.200996], [-93.862685, 45.201421], [-93.862333, 45.201701], [-93.862227, 45.201811], [-93.862063, 45.202006], [-93.861741, 45.202352], [-93.861683, 45.202454], [-93.861614, 45.202631], [-93.861521, 45.202766], [-93.861275, 45.202995], [-93.861074, 45.203131], [-93.860957, 45.203258], [-93.860499, 45.203614], [-93.86017, 45.203894], [-93.860064, 45.203979], [-93.859947, 45.204123], [-93.859701, 45.204427], [-93.85935, 45.2048], [-93.859092, 45.205054], [-93.858928, 45.205223], [-93.858789, 45.20546], [-93.858614, 45.20573], [-93.858509, 45.20584], [-93.858202, 45.206053], [-93.857809, 45.206289], [-93.85743, 45.206468], [-93.85698, 45.206614], [-93.856375, 45.206737], [-93.855591, 45.206835], [-93.854711, 45.2069], [-93.853961, 45.206906], [-93.853789, 45.206907]]]}}, {"type": "Feature", "properties": {"depth_ft": 5.0, "lake": "Lake Pulaski", "dow": "86005302"}, "geometry": {"type": "Polygon", "coordinates": [[[-93.847963, 45.20594], [-93.847882, 45.205953], [-93.847645, 45.206021], [-93.847533, 45.206058], [-93.847244, 45.206156], [-93.847185, 45.206169], [-93.846785, 45.206275], [-93.84613, 45.206424], [-93.846079, 45.206431], [-93.845644, 45.206506], [-93.84543, 45.206525], [-93.845229, 45.206538], [-93.845047, 45.206553], [-93.844834, 45.206561], [-93.844142, 45.20656], [-93.843688, 45.206466], [-93.843431, 45.20636], [-93.843181, 45.206235], [-93.843029, 45.206139], [-93.842896, 45.206038], [-93.842853, 45.206002], [-93.842767, 45.205912], [-93.842549, 45.20563], [-93.842409, 45.205417], [-93.842304, 45.205239], [-93.842277, 45.205167], [-93.842145, 45.204902], [-93.841985, 45.204475], [-93.841861, 45.204126], [-93.841723, 45.203487], [-93.841705, 45.203391], [-93.841676, 45.20321], [-93.841692, 45.203077], [-93.841691, 45.203023], [-93.841762, 45.20263], [-93.841836, 45.202436], [-93.841985, 45.202121], [-93.84206, 45.202006], [-93.842152, 45.20189], [-93.84243, 45.201623], [-93.842565, 45.201537], [-93.842633, 45.201476], [-93.842936, 45.201295], [-93.843318, 45.201055], [-93.843664, 45.20075], [-93.844209, 45.200131], [-93.844808, 45.199583], [-93.845058, 45.199183], [-93.845132, 45.199037], [-93.845287, 45.198553], [-93.84534, 45.197515], [-93.845356, 45.197424], [-93.845444, 45.197025], [-93.845493, 45.196874], [-93.845658, 45.196444], [-93.845724, 45.196335], [-93.845757, 45.196262], [-93.846164, 45.195511], [-93.846492, 45.194555], [-93.846733, 45.193533], [-93.846906, 45.193139], [-93.847201, 45.192865], [-93.847319, 45.192751], [-93.847374, 45.192665], [-93.847429, 45.192568], [-93.847572, 45.192426], [-93.847806, 45.192251], [-93.848061, 45.192122], [-93.848205, 45.192055], [-93.848654, 45.191865], [-93.849044, 45.191632], [-93.849491, 45.191297], [-93.850123, 45.190737], [-93.850647, 45.190419], [-93.851003, 45.190253], [-93.85175, 45.189964], [-93.852515, 45.189693], [-93.853535, 45.189401], [-93.854247, 45.189214], [-93.854671, 45.189126], [-93.854967, 45.189056], [-93.855909, 45.188901], [-93.857298, 45.188758], [-93.857596, 45.188743], [-93.858168, 45.188733], [-93.858808, 45.188728], [-93.85974, 45.1888], [-93.860108, 45.188851], [-93.860798, 45.188997], [-93.861435, 45.189146], [-93.862589, 45.189495], [-93.863308, 45.189762], [-93.863778, 45.190008], [-93.864288, 45.19031], [-93.865258, 45.190956], [-93.865583, 45.191186], [-93.86568, 45.191288], [-93.865859, 45.19153], [-93.865975, 45.191897], [-93.866013, 45.192096], [-93.866015, 45.192203], [-93.866008, 45.192368], [-93.865888, 45.19287], [-93.865665, 45.193348], [-93.865439, 45.193706], [-93.86534, 45.193882], [-93.865267, 45.194178], [-93.865252, 45.194311], [-93.865231, 45.194565], [-93.865235, 45.194867], [-93.865265, 45.195126], [-93.865311, 45.195355], [-93.865335, 45.195556], [-93.865386, 45.195783], [-93.865387, 45.19588], [-93.865454, 45.196344], [-93.865494, 45.196748], [-93.86548, 45.196923], [-93.865505, 45.197202], [-93.865512, 45.197388], [-93.865504, 45.197937], [-93.865467, 45.198306], [-93.865426, 45.198457], [-93.865295, 45.19879], [-93.865078, 45.199136], [-93.864893, 45.199336], [-93.864784, 45.199434], [-93.86475, 45.199452], [-93.864428, 45.199654], [-93.864369, 45.199684], [-93.86414, 45.19977], [-93.864004, 45.199844], [-93.863724, 45.200003], [-93.863495, 45.200271], [-93.863011, 45.200757], [-93.862572, 45.201086], [-93.862302, 45.201305], [-93.862091, 45.201494], [-93.861923, 45.201664], [-93.861512, 45.202162], [-93.860918, 45.202994], [-93.860397, 45.203529], [-93.860321, 45.203584], [-93.860009, 45.203846], [-93.859672, 45.204168], [-93.859337, 45.204545], [-93.859077, 45.204867], [-93.85881, 45.205267], [-93.858381, 45.205723], [-93.857857, 45.206083], [-93.857781, 45.206126], [-93.857008, 45.20641], [-93.856106, 45.206616], [-93.855961, 45.206635], [-93.855901, 45.206635], [-93.855603, 45.206674], [-93.855355, 45.206675], [-93.855091, 45.206696], [-93.854348, 45.206689], [-93.853365, 45.206606], [-93.853194, 45.206601], [-93.85316, 45.206595], [-93.853049, 45.20659], [-93.852741, 45.206592], [-93.85252, 45.206606], [-93.852119, 45.206657], [-93.851842, 45.206677], [-93.851564, 45.206686], [-93.851146, 45.206677], [-93.851077, 45.206671], [-93.850932, 45.206642], [-93.850615, 45.206608], [-93.850384, 45.206568], [-93.849596, 45.20638], [-93.849133, 45.206239], [-93.848488, 45.205978], [-93.848311, 45.205925], [-93.848118, 45.205927], [-93.847963, 45.20594]]]}}, {"type": "Feature", "properties": {"depth_ft": 10.0, "lake": "Lake Pulaski", "dow": "86005302"}, "geometry": {"type": "Polygon", "coordinates": [[[-93.847993, 45.205717], [-93.847896, 45.205729], [-93.846551, 45.206035], [-93.846415, 45.206054], [-93.845742, 45.206174], [-93.845512, 45.206206], [-93.845264, 45.206225], [-93.844531, 45.206255], [-93.844078, 45.206222], [-93.843752, 45.206164], [-93.843451, 45.20601], [-93.843348, 45.205944], [-93.843296, 45.205902], [-93.843096, 45.205698], [-93.84294, 45.205518], [-93.84267, 45.205146], [-93.842582, 45.205002], [-93.842573, 45.204978], [-93.842433, 45.204708], [-93.842213, 45.204268], [-93.84216, 45.204136], [-93.842105, 45.203883], [-93.84211, 45.203659], [-93.842126, 45.203563], [-93.84215, 45.203496], [-93.842192, 45.203417], [-93.842386, 45.203271], [-93.842496, 45.203216], [-93.842558, 45.203145], [-93.842612, 45.203014], [-93.842603, 45.202912], [-93.842578, 45.202838], [-93.842541, 45.202757], [-93.842333, 45.202553], [-93.842229, 45.202439], [-93.842211, 45.202409], [-93.84221, 45.202355], [-93.842226, 45.20224], [-93.842335, 45.2021], [-93.842612, 45.201839], [-93.842921, 45.201598], [-93.843313, 45.201296], [-93.843878, 45.200809], [-93.844702, 45.19997], [-93.845105, 45.199496], [-93.845355, 45.199078], [-93.84547, 45.1988], [-93.845614, 45.198128], [-93.845613, 45.197458], [-93.845668, 45.19718], [-93.845799, 45.196763], [-93.845939, 45.196424], [-93.846197, 45.196005], [-93.846415, 45.19569], [-93.847001, 45.194913], [-93.847034, 45.194858], [-93.847158, 45.194574], [-93.847295, 45.194011], [-93.847339, 45.193516], [-93.84742, 45.193262], [-93.847544, 45.193002], [-93.847603, 45.192904], [-93.847695, 45.192789], [-93.847804, 45.19268], [-93.848032, 45.192527], [-93.848151, 45.192466], [-93.848652, 45.192263], [-93.849247, 45.192089], [-93.849509, 45.191912], [-93.849576, 45.191858], [-93.84977, 45.191669], [-93.849989, 45.191474], [-93.850149, 45.19134], [-93.85025, 45.191267], [-93.85053, 45.191102], [-93.85086, 45.190919], [-93.851656, 45.190538], [-93.853948, 45.189676], [-93.854321, 45.189498], [-93.854381, 45.189462], [-93.854448, 45.189431], [-93.854525, 45.189406], [-93.854754, 45.18935], [-93.854925, 45.189325], [-93.855325, 45.18928], [-93.855649, 45.189211], [-93.855708, 45.189186], [-93.856576, 45.188974], [-93.857061, 45.188898], [-93.857283, 45.188879], [-93.857615, 45.188858], [-93.858341, 45.188853], [-93.859042, 45.18892], [-93.859298, 45.188954], [-93.859692, 45.189029], [-93.860574, 45.18924], [-93.861285, 45.189323], [-93.861865, 45.189421], [-93.862405, 45.189525], [-93.863157, 45.189767], [-93.863453, 45.189894], [-93.864107, 45.190263], [-93.864641, 45.19061], [-93.865245, 45.191046], [-93.865498, 45.191358], [-93.865612, 45.191574], [-93.865685, 45.191863], [-93.865701, 45.192358], [-93.865645, 45.192612], [-93.865612, 45.192679], [-93.865597, 45.192836], [-93.865408, 45.19335], [-93.86535, 45.19346], [-93.865225, 45.193642], [-93.865192, 45.193702], [-93.865136, 45.193944], [-93.865096, 45.194168], [-93.86509, 45.194288], [-93.865087, 45.194699], [-93.865119, 45.195091], [-93.865105, 45.195308], [-93.865073, 45.195405], [-93.865051, 45.195665], [-93.865047, 45.195955], [-93.865051, 45.196232], [-93.865097, 45.196431], [-93.865178, 45.196702], [-93.865328, 45.197027], [-93.865409, 45.19734], [-93.865422, 45.197594], [-93.865391, 45.197841], [-93.865358, 45.197932], [-93.865359, 45.197999], [-93.865286, 45.198223], [-93.865262, 45.198343], [-93.865164, 45.198604], [-93.864963, 45.198871], [-93.864786, 45.199047], [-93.864439, 45.199261], [-93.864372, 45.199292], [-93.863692, 45.199532], [-93.863548, 45.199588], [-93.863176, 45.199868], [-93.862815, 45.200239], [-93.862631, 45.200464], [-93.86258, 45.200543], [-93.862154, 45.201061], [-93.861498, 45.2018], [-93.860985, 45.202323], [-93.860658, 45.202712], [-93.860325, 45.203282], [-93.859965, 45.203719], [-93.859728, 45.20392], [-93.85955, 45.204006], [-93.859466, 45.204037], [-93.859381, 45.20408], [-93.859297, 45.204153], [-93.859229, 45.204232], [-93.859062, 45.204444], [-93.858978, 45.204566], [-93.858929, 45.204663], [-93.858646, 45.205184], [-93.858419, 45.205445], [-93.8582, 45.20561], [-93.858031, 45.205714], [-93.8577, 45.205861], [-93.857623, 45.20588], [-93.857266, 45.205991], [-93.857215, 45.205998], [-93.857054, 45.206035], [-93.856508, 45.206099], [-93.856243, 45.206107], [-93.855903, 45.206188], [-93.855733, 45.206238], [-93.855266, 45.206411], [-93.85524, 45.206411], [-93.854755, 45.206469], [-93.854558, 45.206482], [-93.853867, 45.206469], [-93.853533, 45.206442], [-93.853157, 45.206396], [-93.852721, 45.206351], [-93.852457, 45.206389], [-93.852252, 45.206433], [-93.851775, 45.206467], [-93.851424, 45.206463], [-93.851356, 45.206452], [-93.851082, 45.206424], [-93.85062, 45.206343], [-93.850397, 45.20629], [-93.850045, 45.206178], [-93.849616, 45.206006], [-93.848964, 45.205806], [-93.848493, 45.205719], [-93.847993, 45.205717]]]}}, {"type": "Feature", "properties": {"depth_ft": 15.0, "lake": "Lake Pulaski", "dow": "86005302"}, "geometry": {"type": "Polygon", "coordinates": [[[-93.848015, 45.205432], [-93.847533, 45.205496], [-93.846887, 45.205628], [-93.845865, 45.205859], [-93.845166, 45.205942], [-93.844816, 45.205951], [-93.844388, 45.20587], [-93.844139, 45.205769], [-93.843588, 45.205465], [-93.843407, 45.205346], [-93.843251, 45.205154], [-93.843129, 45.205034], [-93.843059, 45.204908], [-93.84298, 45.204751], [-93.842971, 45.204691], [-93.842926, 45.204535], [-93.842924, 45.204456], [-93.842938, 45.204245], [-93.842971, 45.204118], [-93.843036, 45.203924], [-93.843372, 45.203529], [-93.843385, 45.203276], [-93.843304, 45.203011], [-93.842892, 45.202259], [-93.842898, 45.20212], [-93.842915, 45.202084], [-93.842915, 45.20206], [-93.842964, 45.201963], [-93.843015, 45.20189], [-93.843082, 45.201811], [-93.843242, 45.201659], [-93.843495, 45.201446], [-93.844213, 45.200964], [-93.84434, 45.20086], [-93.844693, 45.200495], [-93.844986, 45.200137], [-93.845362, 45.199555], [-93.845387, 45.199494], [-93.845701, 45.198804], [-93.845783, 45.198586], [-93.845888, 45.198163], [-93.845968, 45.197794], [-93.845975, 45.197697], [-93.846039, 45.197431], [-93.846091, 45.197217], [-93.846194, 45.196935], [-93.846301, 45.196687], [-93.846718, 45.195989], [-93.847151, 45.195274], [-93.847492, 45.194632], [-93.847581, 45.194299], [-93.847642, 45.193798], [-93.84764, 45.193725], [-93.847655, 45.193586], [-93.847704, 45.193387], [-93.847761, 45.193205], [-93.847937, 45.192999], [-93.848258, 45.192803], [-93.849469, 45.192142], [-93.850087, 45.191757], [-93.850551, 45.191404], [-93.850795, 45.191148], [-93.850862, 45.191063], [-93.850938, 45.190984], [-93.851242, 45.190813], [-93.851369, 45.190758], [-93.851565, 45.19069], [-93.852567, 45.19035], [-93.853025, 45.190154], [-93.8535, 45.189927], [-93.854501, 45.189521], [-93.854747, 45.189447], [-93.855054, 45.189372], [-93.855284, 45.189346], [-93.855352, 45.18934], [-93.855794, 45.189258], [-93.856075, 45.189177], [-93.856577, 45.189077], [-93.856764, 45.189051], [-93.856943, 45.189014], [-93.857463, 45.18895], [-93.857719, 45.18893], [-93.858043, 45.188921], [-93.858257, 45.188932], [-93.858487, 45.18896], [-93.859027, 45.189059], [-93.859344, 45.189159], [-93.859919, 45.189372], [-93.860168, 45.189436], [-93.860536, 45.189494], [-93.860595, 45.1895], [-93.861251, 45.189553], [-93.861663, 45.189564], [-93.862151, 45.189621], [-93.862425, 45.189661], [-93.86281, 45.189736], [-93.86311, 45.189813], [-93.863239, 45.189866], [-93.863825, 45.190161], [-93.864237, 45.190415], [-93.864479, 45.190588], [-93.864686, 45.190792], [-93.864843, 45.190958], [-93.865044, 45.191259], [-93.865105, 45.191361], [-93.86514, 45.191433], [-93.865237, 45.191595], [-93.86544, 45.192071], [-93.865497, 45.192414], [-93.865477, 45.192825], [-93.865396, 45.193103], [-93.86528, 45.193315], [-93.865255, 45.193346], [-93.865138, 45.193515], [-93.865021, 45.193703], [-93.864963, 45.193831], [-93.864914, 45.193982], [-93.864899, 45.194115], [-93.864886, 45.194338], [-93.864928, 45.194869], [-93.864914, 45.195081], [-93.864866, 45.195268], [-93.864875, 45.195316], [-93.864869, 45.195467], [-93.864877, 45.196004], [-93.864887, 45.196089], [-93.86488, 45.196216], [-93.864961, 45.196523], [-93.864962, 45.196583], [-93.864971, 45.196625], [-93.865088, 45.196962], [-93.865142, 45.197197], [-93.865142, 45.197735], [-93.865096, 45.198091], [-93.865055, 45.198182], [-93.865055, 45.198218], [-93.865031, 45.198303], [-93.86494, 45.198491], [-93.864781, 45.198715], [-93.864307, 45.199091], [-93.864069, 45.199216], [-93.863477, 45.199443], [-93.863342, 45.199505], [-93.863257, 45.199554], [-93.863105, 45.199658], [-93.862987, 45.199755], [-93.86276, 45.199962], [-93.861953, 45.200801], [-93.86165, 45.201147], [-93.861299, 45.201627], [-93.860949, 45.202161], [-93.860394, 45.202787], [-93.86026, 45.202908], [-93.860175, 45.202987], [-93.860142, 45.203012], [-93.860007, 45.203152], [-93.859767, 45.203612], [-93.859549, 45.203904], [-93.859507, 45.203946], [-93.859049, 45.204167], [-93.858898, 45.204313], [-93.858713, 45.204538], [-93.85843, 45.205005], [-93.858152, 45.20529], [-93.858093, 45.205339], [-93.857653, 45.20559], [-93.857016, 45.205806], [-93.856565, 45.205912], [-93.856318, 45.20595], [-93.856181, 45.205951], [-93.855943, 45.205977], [-93.855721, 45.206009], [-93.8555, 45.206053], [-93.854905, 45.206214], [-93.854654, 45.206247], [-93.85447, 45.20626], [-93.854256, 45.206255], [-93.853589, 45.20617], [-93.853358, 45.206129], [-93.853127, 45.206101], [-93.852759, 45.206079], [-93.852614, 45.206074], [-93.852409, 45.20607], [-93.852197, 45.20615], [-93.851856, 45.206201], [-93.851779, 45.206207], [-93.851147, 45.206212], [-93.85048, 45.20609], [-93.850051, 45.205961], [-93.849647, 45.205801], [-93.849406, 45.205688], [-93.848916, 45.205474], [-93.848796, 45.205439], [-93.848582, 45.205392], [-93.848531, 45.205386], [-93.848015, 45.205432]]]}}, {"type": "Feature", "properties": {"depth_ft": 20.0, "lake": "Lake Pulaski", "dow": "86005302"}, "geometry": {"type": "Polygon", "coordinates": [[[-93.848034, 45.205047], [-93.847613, 45.205134], [-93.847154, 45.205246], [-93.846134, 45.205537], [-93.845921, 45.205587], [-93.845376, 45.205651], [-93.844734, 45.205608], [-93.844485, 45.205513], [-93.844408, 45.205459], [-93.844321, 45.205387], [-93.844277, 45.205255], [-93.844267, 45.205164], [-93.844274, 45.205098], [-93.844315, 45.204935], [-93.84443, 45.204668], [-93.844663, 45.204268], [-93.844651, 45.203991], [-93.844509, 45.203672], [-93.8443, 45.203335], [-93.843796, 45.202753], [-93.84357, 45.202532], [-93.843405, 45.202346], [-93.843362, 45.20228], [-93.843326, 45.20219], [-93.843317, 45.202117], [-93.843323, 45.201996], [-93.843348, 45.201948], [-93.843424, 45.201833], [-93.843836, 45.201449], [-93.844056, 45.201273], [-93.844959, 45.200602], [-93.845102, 45.200456], [-93.845413, 45.200086], [-93.845696, 45.199625], [-93.845927, 45.199056], [-93.846008, 45.198783], [-93.846015, 45.198693], [-93.846062, 45.198415], [-93.846256, 45.197683], [-93.846338, 45.197435], [-93.846518, 45.196933], [-93.846825, 45.196333], [-93.846866, 45.196176], [-93.846899, 45.196115], [-93.846916, 45.196073], [-93.847064, 45.195758], [-93.847273, 45.195418], [-93.847432, 45.195206], [-93.847524, 45.195114], [-93.847691, 45.194835], [-93.847846, 45.194339], [-93.847916, 45.193868], [-93.847915, 45.193826], [-93.847928, 45.193536], [-93.848051, 45.193227], [-93.84827, 45.192996], [-93.848321, 45.19296], [-93.848574, 45.192801], [-93.849031, 45.192532], [-93.84948, 45.192281], [-93.850275, 45.191774], [-93.850731, 45.191433], [-93.851143, 45.191019], [-93.851482, 45.190872], [-93.852255, 45.19063], [-93.853002, 45.190311], [-93.853273, 45.190176], [-93.853341, 45.190133], [-93.853586, 45.189993], [-93.853874, 45.189846], [-93.854103, 45.189747], [-93.854774, 45.189531], [-93.855404, 45.189382], [-93.855897, 45.189287], [-93.856238, 45.18923], [-93.857584, 45.189051], [-93.857908, 45.189025], [-93.858053, 45.18903], [-93.858352, 45.189052], [-93.858669, 45.18911], [-93.858969, 45.189186], [-93.859364, 45.189322], [-93.859811, 45.189548], [-93.860104, 45.189721], [-93.860541, 45.189826], [-93.861176, 45.189896], [-93.861899, 45.189882], [-93.862411, 45.189878], [-93.862993, 45.189976], [-93.863541, 45.190129], [-93.863903, 45.190314], [-93.864135, 45.190457], [-93.864274, 45.190564], [-93.864491, 45.190816], [-93.864814, 45.191333], [-93.865053, 45.191844], [-93.865053, 45.191868], [-93.865062, 45.19191], [-93.865142, 45.192097], [-93.865142, 45.192133], [-93.865196, 45.192314], [-93.865255, 45.192778], [-93.865239, 45.192881], [-93.865123, 45.193093], [-93.865106, 45.193111], [-93.865072, 45.193142], [-93.864871, 45.193403], [-93.864813, 45.193506], [-93.864739, 45.193681], [-93.864723, 45.193742], [-93.86473, 45.194074], [-93.864775, 45.194345], [-93.864772, 45.194744], [-93.864765, 45.19481], [-93.864724, 45.194937], [-93.864709, 45.1951], [-93.864676, 45.195173], [-93.864642, 45.195722], [-93.864667, 45.196235], [-93.864696, 45.196477], [-93.864742, 45.196663], [-93.864892, 45.19703], [-93.864901, 45.197073], [-93.864836, 45.197248], [-93.864752, 45.197339], [-93.864328, 45.197554], [-93.863784, 45.197721], [-93.863393, 45.197796], [-93.863113, 45.197901], [-93.863053, 45.197932], [-93.862905, 45.198109], [-93.862857, 45.198269], [-93.86286, 45.1985], [-93.862917, 45.199061], [-93.86288, 45.199454], [-93.862838, 45.199497], [-93.862755, 45.199636], [-93.862594, 45.199764], [-93.862409, 45.199928], [-93.862241, 45.200087], [-93.861922, 45.200457], [-93.861504, 45.201046], [-93.86147, 45.201082], [-93.86137, 45.201216], [-93.860806, 45.201788], [-93.860688, 45.201867], [-93.860166, 45.202378], [-93.859756, 45.202924], [-93.859698, 45.203033], [-93.859548, 45.203252], [-93.859337, 45.203459], [-93.859253, 45.203513], [-93.859151, 45.203563], [-93.859117, 45.203575], [-93.859057, 45.203587], [-93.85899, 45.203612], [-93.858888, 45.203679], [-93.858821, 45.203734], [-93.858694, 45.203856], [-93.858527, 45.204086], [-93.858452, 45.204232], [-93.858327, 45.20442], [-93.858254, 45.204638], [-93.858196, 45.204753], [-93.85804, 45.20517], [-93.857854, 45.205347], [-93.857651, 45.205451], [-93.857371, 45.205556], [-93.856511, 45.205755], [-93.854995, 45.205984], [-93.854551, 45.206018], [-93.853535, 45.206013], [-93.85351, 45.206007], [-93.852646, 45.205923], [-93.851424, 45.20583], [-93.850696, 45.205696], [-93.850456, 45.205638], [-93.850404, 45.20562], [-93.850036, 45.20552], [-93.849366, 45.205278], [-93.848877, 45.205112], [-93.84856, 45.20503], [-93.848034, 45.205047]]]}}, {"type": "Feature", "properties": {"depth_ft": 30.0, "lake": "Lake Pulaski", "dow": "86005302"}, "geometry": {"type": "Polygon", "coordinates": [[[-93.848059, 45.204688], [-93.847279, 45.204472], [-93.846489, 45.204158], [-93.846257, 45.204051], [-93.845567, 45.203585], [-93.845238, 45.203304], [-93.844788, 45.202903], [-93.84432, 45.202424], [-93.844155, 45.202226], [-93.844076, 45.2021], [-93.843997, 45.201931], [-93.843988, 45.201871], [-93.843994, 45.201744], [-93.844019, 45.201665], [-93.844136, 45.201538], [-93.844238, 45.201452], [-93.844305, 45.20141], [-93.844534, 45.201281], [-93.845144, 45.200987], [-93.84539, 45.200834], [-93.845701, 45.200566], [-93.846062, 45.200099], [-93.846261, 45.199699], [-93.846375, 45.199366], [-93.846469, 45.198792], [-93.846469, 45.198756], [-93.846483, 45.198575], [-93.846564, 45.198278], [-93.846656, 45.198115], [-93.846721, 45.197957], [-93.847054, 45.197369], [-93.847238, 45.197126], [-93.847442, 45.197028], [-93.847527, 45.19701], [-93.848123, 45.196909], [-93.848284, 45.196847], [-93.848444, 45.196695], [-93.848486, 45.19664], [-93.848492, 45.196483], [-93.848422, 45.196369], [-93.848155, 45.196202], [-93.847991, 45.196028], [-93.847947, 45.195968], [-93.84791, 45.195806], [-93.847926, 45.195715], [-93.847983, 45.195539], [-93.848811, 45.194338], [-93.848819, 45.194314], [-93.84886, 45.194241], [-93.849331, 45.193731], [-93.849454, 45.193398], [-93.849498, 45.192939], [-93.849489, 45.192903], [-93.84953, 45.192751], [-93.849563, 45.192685], [-93.849613, 45.19263], [-93.849672, 45.192551], [-93.849907, 45.192314], [-93.850819, 45.191649], [-93.85129, 45.191163], [-93.851671, 45.190949], [-93.851858, 45.190863], [-93.852121, 45.190752], [-93.852791, 45.190506], [-93.853123, 45.190407], [-93.853752, 45.190233], [-93.854423, 45.190019], [-93.855246, 45.189703], [-93.855535, 45.18961], [-93.855909, 45.189505], [-93.85659, 45.189355], [-93.857288, 45.189253], [-93.857518, 45.189239], [-93.857732, 45.189243], [-93.858005, 45.189265], [-93.858313, 45.189311], [-93.858528, 45.189358], [-93.858673, 45.189399], [-93.859008, 45.189518], [-93.859197, 45.189595], [-93.859756, 45.189868], [-93.860176, 45.189992], [-93.860544, 45.190061], [-93.860989, 45.1901], [-93.861074, 45.1901], [-93.861595, 45.190126], [-93.861689, 45.190125], [-93.861791, 45.19013], [-93.861843, 45.190142], [-93.862159, 45.190176], [-93.862476, 45.190216], [-93.862553, 45.190239], [-93.862836, 45.190304], [-93.863059, 45.190374], [-93.863376, 45.190493], [-93.863548, 45.19057], [-93.863849, 45.190743], [-93.863979, 45.190844], [-93.864118, 45.190982], [-93.864285, 45.191301], [-93.864412, 45.191837], [-93.864415, 45.191988], [-93.864454, 45.192332], [-93.864446, 45.19238], [-93.864537, 45.192711], [-93.864556, 45.192838], [-93.86455, 45.193013], [-93.864492, 45.193128], [-93.8644, 45.193261], [-93.864333, 45.193389], [-93.864268, 45.193588], [-93.864253, 45.193685], [-93.86426, 45.194192], [-93.864412, 45.19462], [-93.864518, 45.194836], [-93.864547, 45.194965], [-93.864555, 45.195059], [-93.864539, 45.195132], [-93.864506, 45.195216], [-93.864163, 45.195696], [-93.864113, 45.195732], [-93.864021, 45.195902], [-93.863999, 45.196126], [-93.864001, 45.196228], [-93.864019, 45.196307], [-93.864029, 45.196409], [-93.864084, 45.196662], [-93.864192, 45.196999], [-93.864168, 45.197096], [-93.864084, 45.197218], [-93.863949, 45.197321], [-93.863788, 45.197401], [-93.863423, 45.197542], [-93.863058, 45.197648], [-93.862862, 45.197716], [-93.862634, 45.197844], [-93.862559, 45.197972], [-93.862534, 45.198038], [-93.862495, 45.198304], [-93.862505, 45.198376], [-93.862595, 45.198696], [-93.862613, 45.198738], [-93.862655, 45.199044], [-93.862621, 45.199173], [-93.862595, 45.199239], [-93.862219, 45.199755], [-93.861941, 45.200053], [-93.861789, 45.200138], [-93.861602, 45.200176], [-93.861439, 45.200171], [-93.860891, 45.200018], [-93.860719, 45.199983], [-93.860625, 45.199978], [-93.860514, 45.199985], [-93.860472, 45.199997], [-93.860387, 45.20004], [-93.860345, 45.200077], [-93.86032, 45.200113], [-93.859906, 45.200985], [-93.859789, 45.201137], [-93.859654, 45.201265], [-93.859392, 45.201388], [-93.859332, 45.201424], [-93.859156, 45.201607], [-93.859081, 45.201716], [-93.858947, 45.20194], [-93.858882, 45.202134], [-93.85884, 45.202201], [-93.858774, 45.202334], [-93.858732, 45.202401], [-93.858252, 45.202839], [-93.8576, 45.203743], [-93.857381, 45.203968], [-93.857153, 45.204145], [-93.857035, 45.204254], [-93.856985, 45.204309], [-93.856928, 45.204479], [-93.85692, 45.204527], [-93.856947, 45.204654], [-93.857047, 45.204997], [-93.856981, 45.205172], [-93.856939, 45.205227], [-93.856888, 45.205276], [-93.856846, 45.205306], [-93.856795, 45.205337], [-93.856702, 45.205362], [-93.85631, 45.205389], [-93.855599, 45.205297], [-93.855574, 45.205292], [-93.855266, 45.205264], [-93.854813, 45.205237], [-93.854506, 45.205239], [-93.854216, 45.205272], [-93.854148, 45.205272], [-93.854054, 45.205297], [-93.853647, 45.205463], [-93.853188, 45.205617], [-93.853154, 45.205618], [-93.852796, 45.205681], [-93.852565, 45.205676], [-93.852454, 45.205641], [-93.852377, 45.205611], [-93.852161, 45.205474], [-93.851548, 45.205014], [-93.85135, 45.204876], [-93.85085, 45.204596], [-93.850781, 45.204567], [-93.850644, 45.20452], [-93.850524, 45.20449], [-93.850396, 45.204467], [-93.850336, 45.204468], [-93.850217, 45.20448], [-93.849961, 45.204525], [-93.849341, 45.204734], [-93.84923, 45.204759], [-93.849102, 45.204779], [-93.848727, 45.204781], [-93.848675, 45.204776], [-93.848307, 45.204727], [-93.848059, 45.204688]]]}}, {"type": "Feature", "properties": {"depth_ft": 30.0, "lake": "Lake Pulaski", "dow": "86005302"}, "geometry": {"type": "Polygon", "coordinates": [[[-93.854489, 45.203349], [-93.854199, 45.203557], [-93.854056, 45.203734], [-93.853637, 45.204274], [-93.853384, 45.204487], [-93.85319, 45.204591], [-93.853003, 45.204707], [-93.852936, 45.204768], [-93.852894, 45.204817], [-93.852896, 45.204913], [-93.853, 45.205033], [-93.85306, 45.205063], [-93.853103, 45.205075], [-93.853264, 45.205025], [-93.853468, 45.204915], [-93.853748, 45.204798], [-93.854307, 45.204528], [-93.855112, 45.204112], [-93.85518, 45.204057], [-93.85528, 45.203948], [-93.855312, 45.203772], [-93.855241, 45.203568], [-93.855119, 45.203424], [-93.854998, 45.203346], [-93.854888, 45.2033], [-93.854765, 45.203285], [-93.854648, 45.203296], [-93.854489, 45.203349]]]}}, {"type": "Feature", "properties": {"depth_ft": 40.0, "lake": "Lake Pulaski", "dow": "86005302"}, "geometry": {"type": "Polygon", "coordinates": [[[-93.852607, 45.203944], [-93.852582, 45.203944], [-93.852455, 45.203981], [-93.852327, 45.20403], [-93.852251, 45.204073], [-93.852167, 45.204134], [-93.852049, 45.204256], [-93.852025, 45.204346], [-93.852026, 45.204419], [-93.852036, 45.204515], [-93.852053, 45.204551], [-93.852088, 45.204599], [-93.852149, 45.204665], [-93.852201, 45.204701], [-93.852432, 45.20476], [-93.852517, 45.204753], [-93.852611, 45.20474], [-93.852662, 45.204728], [-93.852756, 45.204697], [-93.852891, 45.204624], [-93.853194, 45.204344], [-93.853312, 45.204204], [-93.853329, 45.20418], [-93.853353, 45.204095], [-93.853343, 45.203968], [-93.853248, 45.203897], [-93.853145, 45.203873], [-93.852831, 45.203885], [-93.852607, 45.203944]]]}}, {"type": "Feature", "properties": {"depth_ft": 40.0, "lake": "Lake Pulaski", "dow": "86005302"}, "geometry": {"type": "Polygon", "coordinates": [[[-93.847222, 45.203659], [-93.847094, 45.203643], [-93.846985, 45.203617], [-93.846787, 45.203534], [-93.846407, 45.203241], [-93.845933, 45.202955], [-93.845553, 45.202674], [-93.845242, 45.202399], [-93.845068, 45.202207], [-93.844998, 45.202063], [-93.84498, 45.201972], [-93.844959, 45.201761], [-93.844975, 45.201676], [-93.845, 45.201628], [-93.845135, 45.201512], [-93.845186, 45.201476], [-93.845305, 45.201439], [-93.845441, 45.201407], [-93.845534, 45.201395], [-93.845953, 45.20141], [-93.84603, 45.201391], [-93.846081, 45.201372], [-93.846233, 45.201287], [-93.846284, 45.201244], [-93.846334, 45.201165], [-93.846375, 45.201074], [-93.846383, 45.201038], [-93.84637, 45.200767], [-93.846385, 45.200573], [-93.846457, 45.200241], [-93.846645, 45.19969], [-93.846703, 45.199587], [-93.846703, 45.199569], [-93.846942, 45.19903], [-93.847075, 45.198757], [-93.847341, 45.19826], [-93.847515, 45.197957], [-93.847832, 45.197448], [-93.847916, 45.197363], [-93.848043, 45.197253], [-93.848119, 45.197204], [-93.848577, 45.196978], [-93.84974, 45.196528], [-93.850035, 45.196321], [-93.850076, 45.196212], [-93.849973, 45.196122], [-93.849801, 45.196087], [-93.849733, 45.196094], [-93.849188, 45.196194], [-93.84889, 45.196209], [-93.848556, 45.196157], [-93.848487, 45.196127], [-93.848306, 45.196026], [-93.848194, 45.1959], [-93.848167, 45.195864], [-93.848157, 45.195719], [-93.848198, 45.195634], [-93.848206, 45.195604], [-93.848239, 45.195538], [-93.848441, 45.195319], [-93.849426, 45.19437], [-93.849602, 45.194175], [-93.849699, 45.193806], [-93.84969, 45.193209], [-93.849711, 45.192913], [-93.849744, 45.19281], [-93.849785, 45.192719], [-93.849835, 45.192646], [-93.850062, 45.192397], [-93.850534, 45.191989], [-93.850737, 45.191861], [-93.850788, 45.191818], [-93.851326, 45.191301], [-93.851691, 45.191154], [-93.851742, 45.191147], [-93.85238, 45.191004], [-93.852968, 45.190891], [-93.85368, 45.190725], [-93.853886, 45.190667], [-93.853954, 45.190642], [-93.854394, 45.190379], [-93.854504, 45.190306], [-93.854825, 45.19005], [-93.854884, 45.190025], [-93.854969, 45.189982], [-93.855266, 45.189847], [-93.85541, 45.189792], [-93.855971, 45.189637], [-93.856473, 45.189543], [-93.856891, 45.189485], [-93.856959, 45.189485], [-93.857172, 45.189471], [-93.857377, 45.189469], [-93.857633, 45.189474], [-93.857898, 45.189508], [-93.858249, 45.18959], [-93.859657, 45.190086], [-93.860205, 45.190209], [-93.860991, 45.190281], [-93.861051, 45.190281], [-93.861734, 45.190306], [-93.861786, 45.190311], [-93.861948, 45.19034], [-93.862137, 45.190387], [-93.86248, 45.190487], [-93.862901, 45.190665], [-93.863554, 45.190992], [-93.86371, 45.191088], [-93.86377, 45.191142], [-93.863857, 45.191237], [-93.863901, 45.191334], [-93.863833, 45.191932], [-93.863836, 45.192113], [-93.863854, 45.192191], [-93.863926, 45.192438], [-93.863961, 45.192498], [-93.864115, 45.193083], [-93.864117, 45.193203], [-93.864103, 45.193421], [-93.864072, 45.193596], [-93.864043, 45.19394], [-93.86405, 45.194411], [-93.864079, 45.194616], [-93.864124, 45.194809], [-93.864076, 45.194996], [-93.863841, 45.195264], [-93.863765, 45.195313], [-93.863461, 45.195538], [-93.863072, 45.19577], [-93.863022, 45.195843], [-93.86298, 45.195922], [-93.862972, 45.195976], [-93.862975, 45.196121], [-93.863062, 45.196241], [-93.863157, 45.196349], [-93.863417, 45.196559], [-93.863504, 45.196661], [-93.863591, 45.196823], [-93.863569, 45.197028], [-93.8633, 45.197308], [-93.863122, 45.197376], [-93.862926, 45.197395], [-93.862755, 45.197391], [-93.862429, 45.197327], [-93.861726, 45.197103], [-93.861082, 45.196848], [-93.860704, 45.19673], [-93.860507, 45.196683], [-93.860242, 45.196637], [-93.859986, 45.196645], [-93.859909, 45.196664], [-93.85899, 45.196809], [-93.858819, 45.196823], [-93.858264, 45.196815], [-93.858033, 45.19675], [-93.857921, 45.196709], [-93.857784, 45.196667], [-93.857698, 45.196668], [-93.857656, 45.196674], [-93.857622, 45.196693], [-93.857554, 45.196748], [-93.85753, 45.196838], [-93.857507, 45.196971], [-93.857516, 45.197014], [-93.857543, 45.197092], [-93.857569, 45.197128], [-93.857767, 45.197289], [-93.857819, 45.197313], [-93.857992, 45.197426], [-93.858364, 45.197792], [-93.858399, 45.197846], [-93.858721, 45.198248], [-93.858783, 45.198398], [-93.85882, 45.198511], [-93.858835, 45.198808], [-93.858758, 45.199026], [-93.858558, 45.199318], [-93.858467, 45.199548], [-93.858388, 45.199971], [-93.858172, 45.200328], [-93.858021, 45.200505], [-93.857785, 45.200706], [-93.857725, 45.200736], [-93.857455, 45.200931], [-93.85715, 45.201091], [-93.856719, 45.20136], [-93.856034, 45.201829], [-93.855805, 45.201946], [-93.855704, 45.201989], [-93.855346, 45.202088], [-93.855057, 45.202114], [-93.854817, 45.20211], [-93.854492, 45.20207], [-93.854416, 45.202071], [-93.854322, 45.202078], [-93.854228, 45.20209], [-93.854169, 45.202127], [-93.85411, 45.20217], [-93.854068, 45.20223], [-93.854052, 45.202285], [-93.854089, 45.202484], [-93.854039, 45.202611], [-93.85398, 45.202666], [-93.853827, 45.202697], [-93.853759, 45.202692], [-93.853587, 45.20262], [-93.853414, 45.202489], [-93.853328, 45.202405], [-93.85291, 45.201853], [-93.852858, 45.201823], [-93.852789, 45.201811], [-93.852747, 45.201818], [-93.852696, 45.201836], [-93.852503, 45.202079], [-93.852436, 45.202146], [-93.852318, 45.202237], [-93.851774, 45.202453], [-93.851367, 45.202625], [-93.850995, 45.202833], [-93.850546, 45.203126], [-93.850082, 45.203492], [-93.85004, 45.20354], [-93.849854, 45.203662], [-93.849676, 45.203706], [-93.849488, 45.203725], [-93.849437, 45.203726], [-93.849069, 45.203668], [-93.848795, 45.20364], [-93.84865, 45.203629], [-93.847967, 45.203634], [-93.847762, 45.203648], [-93.847222, 45.203659]]]}}, {"type": "Feature", "properties": {"depth_ft": 30.0, "lake": "Lake Pulaski", "dow": "86005302"}, "geometry": {"type": "Polygon", "coordinates": [[[-93.859829, 45.19872], [-93.85968, 45.199019], [-93.859221, 45.199675], [-93.858273, 45.200793], [-93.857331, 45.201783], [-93.857113, 45.202021], [-93.857022, 45.202196], [-93.857023, 45.202311], [-93.857109, 45.202328], [-93.857245, 45.202267], [-93.857472, 45.202084], [-93.858388, 45.201106], [-93.859218, 45.200103], [-93.859479, 45.199806], [-93.859563, 45.199739], [-93.859723, 45.199568], [-93.860077, 45.19927], [-93.860355, 45.199063], [-93.860499, 45.198971], [-93.86066, 45.198885], [-93.860855, 45.198799], [-93.861187, 45.1987], [-93.861791, 45.198551], [-93.861841, 45.198532], [-93.861951, 45.198465], [-93.86201, 45.198416], [-93.862069, 45.198331], [-93.862102, 45.198271], [-93.862097, 45.197897], [-93.862078, 45.197812], [-93.862025, 45.197692], [-93.861834, 45.197446], [-93.861617, 45.19726], [-93.861342, 45.197142], [-93.860845, 45.196982], [-93.86028, 45.196866], [-93.860177, 45.196855], [-93.859964, 45.19688], [-93.859862, 45.196881], [-93.85976, 45.19693], [-93.859641, 45.197004], [-93.859558, 45.197107], [-93.859542, 45.197185], [-93.859526, 45.197294], [-93.859519, 45.197379], [-93.859572, 45.197475], [-93.859598, 45.197541], [-93.859738, 45.197769], [-93.859756, 45.197836], [-93.859827, 45.197986], [-93.859845, 45.19804], [-93.859845, 45.19807], [-93.859879, 45.198186], [-93.859892, 45.198318], [-93.859888, 45.198408], [-93.859859, 45.198603], [-93.859829, 45.19872]]]}}, {"type": "Feature", "properties": {"depth_ft": 20.0, "lake": "Lake Pulaski", "dow": "86005302"}, "geometry": {"type": "Polygon", "coordinates": [[[-93.861629, 45.19824], [-93.861547, 45.198275], [-93.861488, 45.198293], [-93.861411, 45.198312], [-93.861129, 45.198302], [-93.860615, 45.198131], [-93.860554, 45.198095], [-93.860348, 45.197994], [-93.860288, 45.197958], [-93.860253, 45.197929], [-93.860115, 45.197839], [-93.859941, 45.197635], [-93.859895, 45.1974], [-93.859909, 45.197315], [-93.859952, 45.197231], [-93.859977, 45.197206], [-93.860095, 45.197109], [-93.860129, 45.19709], [-93.860163, 45.197078], [-93.860206, 45.197072], [-93.860393, 45.197058], [-93.86047, 45.197064], [-93.86089, 45.197175], [-93.860959, 45.197205], [-93.861287, 45.197408], [-93.861485, 45.197569], [-93.861702, 45.197785], [-93.861738, 45.197881], [-93.861737, 45.197977], [-93.861722, 45.198067], [-93.861687, 45.198169], [-93.861629, 45.19824]]]}}, {"type": "Feature", "properties": {"depth_ft": 15.0, "lake": "Lake Pulaski", "dow": "86005302"}, "geometry": {"type": "Polygon", "coordinates": [[[-93.860034, 45.197509], [-93.860051, 45.19755], [-93.860104, 45.197646], [-93.860286, 45.197832], [-93.860706, 45.198022], [-93.861067, 45.198128], [-93.861263, 45.198126], [-93.861332, 45.19812], [-93.861433, 45.198077], [-93.861493, 45.198046], [-93.861584, 45.197906], [-93.861505, 45.197756], [-93.861141, 45.197385], [-93.860926, 45.197272], [-93.860849, 45.197242], [-93.860694, 45.197201], [-93.860429, 45.197143], [-93.860369, 45.197137], [-93.860275, 45.19715], [-93.860173, 45.197181], [-93.860114, 45.197211], [-93.860052, 45.197291], [-93.860027, 45.197396], [-93.860034, 45.197509]]]}}, {"type": "Feature", "properties": {"depth_ft": 10.0, "lake": "Lake Pulaski", "dow": "86005302"}, "geometry": {"type": "Polygon", "coordinates": [[[-93.860304, 45.197402], [-93.860338, 45.197342], [-93.860397, 45.197276], [-93.860439, 45.197245], [-93.86049, 45.197233], [-93.86055, 45.197226], [-93.86085, 45.197314], [-93.860944, 45.197356], [-93.861056, 45.197415], [-93.86129, 45.197607], [-93.861378, 45.197805], [-93.861379, 45.197842], [-93.861363, 45.197938], [-93.861329, 45.197981], [-93.861091, 45.198025], [-93.860774, 45.197979], [-93.860611, 45.197896], [-93.860464, 45.197782], [-93.860388, 45.197702], [-93.860312, 45.19759], [-93.860273, 45.197503], [-93.860283, 45.197447], [-93.860304, 45.197402]]]}}, {"type": "Feature", "properties": {"depth_ft": 30.0, "lake": "Lake Pulaski", "dow": "86005302"}, "geometry": {"type": "Polygon", "coordinates": [[[-93.857967, 45.196982], [-93.857931, 45.196892], [-93.857872, 45.196854], [-93.857772, 45.196864], [-93.857728, 45.196903], [-93.857703, 45.196958], [-93.857695, 45.197], [-93.857707, 45.197037], [-93.857747, 45.197078], [-93.857829, 45.197126], [-93.857869, 45.197139], [-93.857904, 45.197134], [-93.857938, 45.197111], [-93.857966, 45.197066], [-93.857967, 45.196982]]]}}, {"type": "Feature", "properties": {"depth_ft": 40.0, "lake": "Lake Pulaski", "dow": "86005302"}, "geometry": {"type": "Polygon", "coordinates": [[[-93.855757, 45.20091], [-93.855566, 45.200801], [-93.855497, 45.200741], [-93.855471, 45.200705], [-93.855401, 45.200585], [-93.855374, 45.200525], [-93.855372, 45.200374], [-93.85538, 45.200319], [-93.855413, 45.200247], [-93.855504, 45.200077], [-93.855681, 45.199907], [-93.855791, 45.199821], [-93.85651, 45.199369], [-93.857015, 45.198943], [-93.8572, 45.198748], [-93.857451, 45.198354], [-93.857659, 45.198051], [-93.857795, 45.197977], [-93.857966, 45.19803], [-93.858063, 45.198193], [-93.858062, 45.199267], [-93.85795, 45.199775], [-93.857867, 45.199944], [-93.857834, 45.199993], [-93.8578, 45.200029], [-93.857623, 45.200182], [-93.856862, 45.200694], [-93.856786, 45.200737], [-93.856404, 45.200879], [-93.856261, 45.200918], [-93.856124, 45.200935], [-93.85593, 45.200936], [-93.855757, 45.20091]]]}}, {"type": "Feature", "properties": {"depth_ft": 30.0, "lake": "Lake Pulaski", "dow": "86005302"}, "geometry": {"type": "Polygon", "coordinates": [[[-93.855779, 45.200599], [-93.855725, 45.200564], [-93.855646, 45.20042], [-93.855627, 45.200323], [-93.855626, 45.200245], [-93.855642, 45.200178], [-93.855692, 45.200069], [-93.856149, 45.199825], [-93.856672, 45.199404], [-93.85679, 45.199313], [-93.856833, 45.199288], [-93.856926, 45.199251], [-93.857062, 45.199208], [-93.857199, 45.199201], [-93.857344, 45.199212], [-93.857498, 45.199241], [-93.857575, 45.199265], [-93.857644, 45.1993], [-93.857704, 45.199342], [-93.857784, 45.199517], [-93.857718, 45.199704], [-93.857516, 45.199893], [-93.857101, 45.200119], [-93.857076, 45.200125], [-93.857033, 45.200144], [-93.85694, 45.200205], [-93.856561, 45.200491], [-93.856438, 45.20056], [-93.856328, 45.200605], [-93.856231, 45.200627], [-93.856116, 45.20064], [-93.855988, 45.200635], [-93.85585, 45.200617], [-93.855779, 45.200599]]]}}, {"type": "Feature", "properties": {"depth_ft": 50.0, "lake": "Lake Pulaski", "dow": "86005302"}, "geometry": {"type": "Polygon", "coordinates": [[[-93.848266, 45.203328], [-93.848175, 45.203264], [-93.848106, 45.203204], [-93.848088, 45.20318], [-93.848027, 45.203072], [-93.847991, 45.202964], [-93.847945, 45.202759], [-93.847935, 45.202608], [-93.84793, 45.202318], [-93.847937, 45.202192], [-93.84796, 45.201986], [-93.848007, 45.201763], [-93.848072, 45.201515], [-93.848172, 45.201345], [-93.848272, 45.201199], [-93.848524, 45.200896], [-93.84874, 45.200526], [-93.84887, 45.200078], [-93.848878, 45.200036], [-93.848855, 45.19965], [-93.848846, 45.199613], [-93.848482, 45.198662], [-93.848447, 45.198596], [-93.848182, 45.198007], [-93.848179, 45.197789], [-93.848203, 45.197705], [-93.848236, 45.197632], [-93.848286, 45.197559], [-93.848405, 45.197468], [-93.848905, 45.197271], [-93.849092, 45.197209], [-93.84922, 45.197184], [-93.85007, 45.19693], [-93.850834, 45.196623], [-93.851206, 45.196415], [-93.851299, 45.196348], [-93.851702, 45.195868], [-93.85181, 45.19568], [-93.8518, 45.195553], [-93.851782, 45.195529], [-93.851722, 45.195494], [-93.851679, 45.195482], [-93.851533, 45.195453], [-93.851465, 45.195459], [-93.851346, 45.19546], [-93.851278, 45.195467], [-93.851081, 45.195468], [-93.850596, 45.19555], [-93.850562, 45.19555], [-93.850511, 45.195557], [-93.85023, 45.195631], [-93.850204, 45.195632], [-93.850153, 45.195638], [-93.849762, 45.195744], [-93.849082, 45.195954], [-93.848946, 45.195967], [-93.848869, 45.195961], [-93.84862, 45.195873], [-93.848568, 45.195831], [-93.848542, 45.195795], [-93.848507, 45.195723], [-93.848506, 45.195686], [-93.848521, 45.195554], [-93.848546, 45.195487], [-93.848613, 45.195372], [-93.848705, 45.19525], [-93.84905, 45.194916], [-93.849615, 45.194489], [-93.849807, 45.194144], [-93.849903, 45.193763], [-93.849993, 45.193466], [-93.850191, 45.193048], [-93.85025, 45.192975], [-93.850502, 45.19269], [-93.850907, 45.192373], [-93.851009, 45.192312], [-93.852076, 45.191742], [-93.852372, 45.191595], [-93.853038, 45.191336], [-93.853501, 45.191158], [-93.854105, 45.190997], [-93.854352, 45.190953], [-93.854505, 45.19094], [-93.854642, 45.190939], [-93.854744, 45.19095], [-93.854856, 45.190979], [-93.855283, 45.191006], [-93.855641, 45.190991], [-93.856911, 45.190861], [-93.857244, 45.190841], [-93.857372, 45.190846], [-93.857917, 45.190781], [-93.858062, 45.190756], [-93.858649, 45.190625], [-93.859101, 45.190579], [-93.859698, 45.190581], [-93.859989, 45.190597], [-93.860331, 45.190624], [-93.860476, 45.190647], [-93.86063, 45.190682], [-93.860768, 45.190724], [-93.860905, 45.190777], [-93.861051, 45.190848], [-93.861327, 45.191039], [-93.861595, 45.191267], [-93.861656, 45.191363], [-93.861874, 45.191621], [-93.862133, 45.191836], [-93.862202, 45.191884], [-93.86246, 45.192003], [-93.862917, 45.192319], [-93.863279, 45.192528], [-93.863408, 45.192587], [-93.863571, 45.192676], [-93.863649, 45.19273], [-93.86371, 45.192784], [-93.863788, 45.192916], [-93.863798, 45.192958], [-93.863799, 45.193043], [-93.863791, 45.193085], [-93.863516, 45.193522], [-93.863155, 45.193947], [-93.863096, 45.19399], [-93.862936, 45.19413], [-93.862538, 45.194362], [-93.862046, 45.194571], [-93.86152, 45.19475], [-93.861266, 45.194897], [-93.861123, 45.195025], [-93.861055, 45.195061], [-93.860689, 45.195167], [-93.860264, 45.19523], [-93.860118, 45.195225], [-93.859752, 45.19527], [-93.858907, 45.195271], [-93.858856, 45.195277], [-93.858583, 45.195327], [-93.858422, 45.195371], [-93.858311, 45.195414], [-93.857964, 45.195592], [-93.857896, 45.195647], [-93.857795, 45.195744], [-93.857628, 45.195981], [-93.857437, 45.19635], [-93.857347, 45.196556], [-93.857291, 45.196816], [-93.857284, 45.196907], [-93.857275, 45.196925], [-93.857269, 45.197088], [-93.85742, 45.197449], [-93.857476, 45.197762], [-93.857261, 45.198247], [-93.857194, 45.198344], [-93.856944, 45.19872], [-93.856709, 45.198999], [-93.856439, 45.199243], [-93.856185, 45.19936], [-93.855863, 45.199537], [-93.855483, 45.199781], [-93.855432, 45.19983], [-93.855323, 45.199958], [-93.85529, 45.200012], [-93.855282, 45.200054], [-93.855126, 45.20046], [-93.855001, 45.200654], [-93.854806, 45.2008], [-93.854298, 45.201034], [-93.853721, 45.201273], [-93.853262, 45.201422], [-93.852802, 45.201522], [-93.852555, 45.201523], [-93.852503, 45.201518], [-93.852367, 45.201519], [-93.852273, 45.201538], [-93.852103, 45.201581], [-93.851925, 45.201685], [-93.851849, 45.20174], [-93.851815, 45.20177], [-93.851656, 45.201953], [-93.851134, 45.202439], [-93.850771, 45.202726], [-93.850467, 45.202927], [-93.850086, 45.203135], [-93.84978, 45.20324], [-93.849048, 45.203403], [-93.848898, 45.203415], [-93.848667, 45.203414], [-93.848512, 45.203392], [-93.848266, 45.203328]]]}}, {"type": "Feature", "properties": {"depth_ft": 60.0, "lake": "Lake Pulaski", "dow": "86005302"}, "geometry": {"type": "Polygon", "coordinates": [[[-93.849423, 45.201749], [-93.849297, 45.201801], [-93.849018, 45.20196], [-93.848892, 45.202088], [-93.84885, 45.202143], [-93.848825, 45.202197], [-93.848809, 45.20227], [-93.84881, 45.202366], [-93.848978, 45.202757], [-93.849093, 45.202986], [-93.849171, 45.2031], [-93.849223, 45.203136], [-93.849446, 45.203176], [-93.849531, 45.203164], [-93.849616, 45.203133], [-93.849785, 45.203053], [-93.849997, 45.202931], [-93.85014, 45.202779], [-93.850165, 45.202742], [-93.850198, 45.202682], [-93.850279, 45.202361], [-93.850285, 45.202198], [-93.850275, 45.202078], [-93.850266, 45.202042], [-93.850204, 45.201915], [-93.850178, 45.201879], [-93.850135, 45.201843], [-93.850014, 45.20176], [-93.849954, 45.20173], [-93.849902, 45.201712], [-93.849713, 45.201705], [-93.849549, 45.201722], [-93.849423, 45.201749]]]}}, {"type": "Feature", "properties": {"depth_ft": 70.0, "lake": "Lake Pulaski", "dow": "86005302"}, "geometry": {"type": "Polygon", "coordinates": [[[-93.8493, 45.20237], [-93.849272, 45.202429], [-93.849265, 45.202496], [-93.849267, 45.202622], [-93.849354, 45.202773], [-93.849406, 45.202821], [-93.849544, 45.202862], [-93.849652, 45.202832], [-93.84989, 45.20263], [-93.849929, 45.2025], [-93.849923, 45.20242], [-93.849843, 45.202316], [-93.849762, 45.202277], [-93.849635, 45.202265], [-93.849526, 45.202279], [-93.849395, 45.202305], [-93.8493, 45.20237]]]}}, {"type": "Feature", "properties": {"depth_ft": 40.0, "lake": "Lake Pulaski", "dow": "86005302"}, "geometry": {"type": "Polygon", "coordinates": [[[-93.85012, 45.200341], [-93.850118, 45.200507], [-93.850167, 45.200588], [-93.85027, 45.200617], [-93.850312, 45.200556], [-93.850352, 45.200393], [-93.850307, 45.200242], [-93.850256, 45.200231], [-93.850187, 45.200231], [-93.85012, 45.200322], [-93.85012, 45.200341]]]}}, {"type": "Feature", "properties": {"depth_ft": 50.0, "lake": "Lake Pulaski", "dow": "86005302"}, "geometry": {"type": "Polygon", "coordinates": [[[-93.850046, 45.200646], [-93.849969, 45.200498], [-93.849863, 45.200204], [-93.84987, 45.200161], [-93.849895, 45.200113], [-93.849962, 45.200022], [-93.850106, 45.199918], [-93.85001, 45.19981], [-93.850008, 45.199765], [-93.850053, 45.199735], [-93.850115, 45.199735], [-93.850311, 45.199801], [-93.850395, 45.199843], [-93.850457, 45.199976], [-93.850479, 45.200308], [-93.850497, 45.200404], [-93.850585, 45.200584], [-93.850616, 45.200916], [-93.850557, 45.200983], [-93.850446, 45.200978], [-93.850386, 45.200948], [-93.850343, 45.20093], [-93.850231, 45.200855], [-93.850151, 45.200774], [-93.850046, 45.200646]]]}}, {"type": "Feature", "properties": {"depth_ft": 60.0, "lake": "Lake Pulaski", "dow": "86005302"}, "geometry": {"type": "Polygon", "coordinates": [[[-93.85359, 45.199896], [-93.853212, 45.199792], [-93.852945, 45.199649], [-93.852824, 45.199554], [-93.852772, 45.1995], [-93.852685, 45.199362], [-93.852649, 45.199289], [-93.852576, 45.198976], [-93.852541, 45.19888], [-93.852488, 45.198771], [-93.852453, 45.198717], [-93.852401, 45.198663], [-93.852341, 45.198628], [-93.852229, 45.198592], [-93.852178, 45.198587], [-93.852135, 45.198587], [-93.851897, 45.198625], [-93.85182, 45.198632], [-93.85176, 45.198632], [-93.851666, 45.198621], [-93.851545, 45.198549], [-93.851543, 45.198404], [-93.851677, 45.198192], [-93.851844, 45.197961], [-93.851816, 45.197781], [-93.851562, 45.197378], [-93.851536, 45.197312], [-93.851517, 45.197227], [-93.851574, 45.197034], [-93.85186, 45.196754], [-93.852307, 45.196401], [-93.8524, 45.196297], [-93.852475, 45.196194], [-93.852524, 45.196037], [-93.85247, 45.195862], [-93.852312, 45.195562], [-93.852086, 45.19528], [-93.851956, 45.195154], [-93.851896, 45.195118], [-93.851818, 45.195082], [-93.851758, 45.195065], [-93.851416, 45.195013], [-93.850885, 45.194896], [-93.850439, 45.194755], [-93.850362, 45.194725], [-93.850146, 45.194576], [-93.850102, 45.194504], [-93.850041, 45.194389], [-93.850087, 45.194081], [-93.850242, 45.193585], [-93.850283, 45.19347], [-93.850317, 45.193422], [-93.850333, 45.193379], [-93.850374, 45.1933], [-93.85045, 45.193197], [-93.850534, 45.1931], [-93.85061, 45.193063], [-93.850771, 45.193002], [-93.850865, 45.192983], [-93.850967, 45.192976], [-93.851104, 45.192975], [-93.851454, 45.192966], [-93.852449, 45.19276], [-93.853316, 45.19247], [-93.853707, 45.192376], [-93.853937, 45.19235], [-93.854312, 45.192317], [-93.854363, 45.192305], [-93.855275, 45.192159], [-93.855317, 45.192147], [-93.8557, 45.192078], [-93.855955, 45.192015], [-93.856613, 45.191839], [-93.856874, 45.191779], [-93.857027, 45.191754], [-93.857393, 45.191709], [-93.857564, 45.191695], [-93.857931, 45.191674], [-93.858033, 45.191686], [-93.858878, 45.191673], [-93.858989, 45.191679], [-93.859041, 45.191696], [-93.859273, 45.191791], [-93.85948, 45.191983], [-93.859638, 45.192223], [-93.859911, 45.192788], [-93.859911, 45.192819], [-93.859921, 45.192873], [-93.859956, 45.192951], [-93.860003, 45.193264], [-93.859991, 45.193542], [-93.859943, 45.19379], [-93.859811, 45.194081], [-93.859592, 45.194288], [-93.85955, 45.194312], [-93.859296, 45.194489], [-93.858585, 45.194851], [-93.858052, 45.195187], [-93.857891, 45.195315], [-93.85774, 45.195461], [-93.857665, 45.195552], [-93.857631, 45.195606], [-93.857607, 45.195679], [-93.857364, 45.196037], [-93.857172, 45.196268], [-93.857038, 45.196456], [-93.856913, 45.196656], [-93.856821, 45.196826], [-93.856748, 45.197049], [-93.85661, 45.197509], [-93.85656, 45.197588], [-93.856329, 45.198133], [-93.856012, 45.198649], [-93.85571, 45.199013], [-93.855365, 45.199354], [-93.855213, 45.199475], [-93.854849, 45.199683], [-93.85468, 45.199757], [-93.854357, 45.199868], [-93.854156, 45.199909], [-93.853902, 45.199924], [-93.85359, 45.199896]]]}}, {"type": "Feature", "properties": {"depth_ft": 70.0, "lake": "Lake Pulaski", "dow": "86005302"}, "geometry": {"type": "Polygon", "coordinates": [[[-93.855466, 45.19594], [-93.854625, 45.195508], [-93.854322, 45.195281], [-93.854167, 45.195186], [-93.854056, 45.195132], [-93.853961, 45.195097], [-93.85391, 45.195085], [-93.853833, 45.195079], [-93.853628, 45.195081], [-93.853227, 45.195126], [-93.853159, 45.195127], [-93.853048, 45.195115], [-93.852868, 45.195075], [-93.852808, 45.195051], [-93.852756, 45.195015], [-93.852626, 45.194841], [-93.85259, 45.194769], [-93.852537, 45.194594], [-93.852481, 45.194317], [-93.852461, 45.194142], [-93.852469, 45.194069], [-93.852502, 45.193997], [-93.852585, 45.193839], [-93.852836, 45.193523], [-93.853367, 45.193012], [-93.853485, 45.192933], [-93.853662, 45.192775], [-93.853729, 45.192696], [-93.853796, 45.192641], [-93.853923, 45.192556], [-93.854101, 45.192488], [-93.854451, 45.192431], [-93.854766, 45.19241], [-93.85538, 45.192394], [-93.855774, 45.192421], [-93.855825, 45.192421], [-93.855936, 45.192432], [-93.856568, 45.192511], [-93.856817, 45.192564], [-93.85722, 45.192694], [-93.857693, 45.19289], [-93.8582, 45.193145], [-93.858976, 45.193622], [-93.859037, 45.193688], [-93.859082, 45.193899], [-93.859075, 45.193954], [-93.859058, 45.194008], [-93.858874, 45.194251], [-93.858815, 45.1943], [-93.858597, 45.194519], [-93.858065, 45.194915], [-93.857812, 45.195122], [-93.85761, 45.195347], [-93.85746, 45.195577], [-93.857243, 45.195929], [-93.857041, 45.196106], [-93.856829, 45.19618], [-93.85653, 45.196188], [-93.856085, 45.196101], [-93.855733, 45.19602], [-93.855466, 45.19594]]]}}, {"type": "Feature", "properties": {"depth_ft": 80.0, "lake": "Lake Pulaski", "dow": "86005302"}, "geometry": {"type": "Polygon", "coordinates": [[[-93.856263, 45.195525], [-93.855895, 45.195378], [-93.855791, 45.19527], [-93.855773, 45.195228], [-93.855755, 45.195137], [-93.855766, 45.194793], [-93.855832, 45.194612], [-93.855832, 45.194594], [-93.855857, 45.194545], [-93.855899, 45.19449], [-93.855957, 45.194436], [-93.856008, 45.194399], [-93.856059, 45.194369], [-93.856118, 45.194344], [-93.856186, 45.194325], [-93.856297, 45.194306], [-93.856391, 45.194306], [-93.856647, 45.194322], [-93.856758, 45.194321], [-93.857006, 45.194313], [-93.857252, 45.194257], [-93.85732, 45.194232], [-93.857473, 45.194147], [-93.857541, 45.194152], [-93.857747, 45.194223], [-93.857799, 45.194265], [-93.85786, 45.194355], [-93.857886, 45.194403], [-93.857904, 45.194463], [-93.85778, 45.194724], [-93.857755, 45.19476], [-93.857587, 45.194906], [-93.857418, 45.195028], [-93.857376, 45.195089], [-93.857227, 45.19538], [-93.857201, 45.19541], [-93.857092, 45.195502], [-93.856981, 45.195545], [-93.856913, 45.195563], [-93.856862, 45.19557], [-93.856785, 45.19557], [-93.856726, 45.195565], [-93.856263, 45.195525]]]}}, {"type": "Feature", "properties": {"depth_ft": 40.0, "lake": "Lake Pulaski", "dow": "86005302"}, "geometry": {"type": "Polygon", "coordinates": [[[-93.861776, 45.195552], [-93.861636, 45.195685], [-93.861551, 45.195704], [-93.861491, 45.195692], [-93.86144, 45.195662], [-93.861404, 45.195578], [-93.861395, 45.19553], [-93.861392, 45.195337], [-93.86144, 45.195119], [-93.861474, 45.195088], [-93.861692, 45.194857], [-93.861862, 45.194808], [-93.861922, 45.194801], [-93.861973, 45.194807], [-93.862051, 45.194903], [-93.862037, 45.195054], [-93.862012, 45.195139], [-93.861776, 45.195552]]]}}]}