{
  "type": "FeatureCollection",
  "features": [
    {
      "type": "Feature",
      "properties": {
        "lake": "Lake Pulaski",
        "depth_ft": 5.2,
        "color": "#a5d7f5",
        "weight": 1,
        "fill_opacity": 0.5,
        "line_opacity": 0.8
      },
      "geometry": {
        "type": "Polygon",
        "coordinates": [
          [
            [
              -94.0304703,
              45.2720593
            ],
            [
              -94.0308093,
              45.2728231
            ],
            [
              -94.0312348,
              45.2735626
            ],
            [
              -94.0317429,
              45.2742707
            ],
            [
              -94.0323285,
              45.2749406
            ],
            [
              -94.0329861,
              45.2755657
            ],
            [
              -94.0337093,
              45.2761402
            ],
            [
              -94.0344912,
              45.2766584
            ],
            [
              -94.0353241,
              45.2771154
            ],
            [
              -94.0362002,
              45.2775067
            ],
            [
              -94.037111,
              45.2778286
            ],
            [
              -94.0380477,
              45.278078
            ],
            [
              -94.0390012,
              45.2782526
            ],
            [
              -94.0399624,
              45.2783505
            ],
            [
              -94.0409221,
              45.2783709
            ],
            [
              -94.0418709,
              45.2783135
            ],
            [
              -94.0427999,
              45.278179
            ],
            [
              -94.0436999,
              45.2779687
            ],
            [
              -94.0445623,
              45.2776844
            ],
            [
              -94.0453789,
              45.2773291
            ],
            [
              -94.0461418,
              45.276906
            ],
            [
              -94.0468436,
              45.2764194
            ],
            [
              -94.0474776,
              45.2758738
            ],
            [
              -94.0480376,
              45.2752745
            ],
            [
              -94.0485183,
              45.2746273
            ],
            [
              -94.048915,
              45.2739384
            ],
            [
              -94.049224,
              45.2732145
            ],
            [
              -94.0494421,
              45.2724626
            ],
            [
              -94.0495675,
              45.2716898
            ],
            [
              -94.0495987,
              45.2709036
            ],
            [
              -94.0495356,
              45.2701116
            ],
            [
              -94.0493788,
              45.2693214
            ],
            [
              -94.0491297,
              45.2685407
            ],
            [
              -94.0487907,
              45.2677769
            ],
            [
              -94.0483652,
              45.2670374
            ],
            [
              -94.0478571,
              45.2663293
            ],
            [
              -94.0472715,
              45.2656594
            ],
            [
              -94.0466139,
              45.2650343
            ],
            [
              -94.0458907,
              45.2644598
            ],
            [
              -94.0451088,
              45.2639416
            ],
            [
              -94.0442759,
              45.2634846
            ],
            [
              -94.0433998,
              45.2630933
            ],
            [
              -94.042489,
              45.2627714
            ],
            [
              -94.0415523,
              45.262522
            ],
            [
              -94.0405988,
              45.2623474
            ],
            [
              -94.0396376,
              45.2622495
            ],
            [
              -94.0386779,
              45.2622291
            ],
            [
              -94.0377291,
              45.2622865
            ],
            [
              -94.0368001,
              45.262421
            ],
            [
              -94.0359001,
              45.2626313
            ],
            [
              -94.0350377,
              45.2629156
            ],
            [
              -94.0342211,
              45.2632709
            ],
            [
              -94.0334582,
              45.263694
            ],
            [
              -94.0327564,
              45.2641806
            ],
            [
              -94.0321224,
              45.2647262
            ],
            [
              -94.0315624,
              45.2653255
            ],
            [
              -94.0310817,
              45.2659727
            ],
            [
              -94.030685,
              45.2666616
            ],
            [
              -94.030376,
              45.2673855
            ],
            [
              -94.0301579,
              45.2681374
            ],
            [
              -94.0300325,
              45.2689102
            ],
            [
              -94.0300013,
              45.2696964
            ],
            [
              -94.0300644,
              45.2704884
            ],
            [
              -94.0302212,
              45.2712786
            ],
            [
              -94.0304703,
              45.2720593
            ]
          ]
        ]
      }
    },
    {
      "type": "Feature",
      "properties": {
        "lake": "Lake Pulaski",
        "depth_ft": 10.5,
        "color": "#84c6f2",
        "weight": 1,
        "fill_opacity": 0.5,
        "line_opacity": 0.8
      },
      "geometry": {
        "type": "Polygon",
        "coordinates": [
          [
            [
              -94.0314959,
              45.2718659
            ],
            [
              -94.0317976,
              45.2725458
            ],
            [
              -94.0321764,
              45.273204
            ],
            [
              -94.0326286,
              45.2738342
            ],
            [
              -94.0331498,
              45.2744305
            ],
            [
              -94.0337351,
              45.2749869
            ],
            [
              -94.0343788,
              45.2754982
            ],
            [
              -94.0350747,
              45.2759594
            ],
            [
              -94.0358162,
              45.2763662
            ],
            [
              -94.0365959,
              45.2767145
            ],
            [
              -94.0374066,
              45.277001
            ],
            [
              -94.0382403,
              45.277223
            ],
            [
              -94.039089,
              45.2773784
            ],
            [
              -94.0399446,
              45.2774655
            ],
            [
              -94.0407987,
              45.2774837
            ],
            [
              -94.0416433,
              45.2774327
            ],
            [
              -94.0424701,
              45.2773129
            ],
            [
              -94.0432712,
              45.2771257
            ],
            [
              -94.0440388,
              45.2768727
            ],
            [
              -94.0447657,
              45.2765564
            ],
            [
              -94.0454447,
              45.2761799
            ],
            [
              -94.0460693,
              45.2757467
            ],
            [
              -94.0466336,
              45.2752611
            ],
            [
              -94.0471321,
              45.2747277
            ],
            [
              -94.0475599,
              45.2741516
            ],
            [
              -94.047913,
              45.2735385
            ],
            [
              -94.048188,
              45.2728942
            ],
            [
              -94.0483822,
              45.2722249
            ],
            [
              -94.0484938,
              45.271537
            ],
            [
              -94.0485216,
              45.2708373
            ],
            [
              -94.0484655,
              45.2701323
            ],
            [
              -94.0483258,
              45.269429
            ],
            [
              -94.0481041,
              45.2687341
            ],
            [
              -94.0478024,
              45.2680542
            ],
            [
              -94.0474236,
              45.267396
            ],
            [
              -94.0469714,
              45.2667658
            ],
            [
              -94.0464502,
              45.2661695
            ],
            [
              -94.0458649,
              45.2656131
            ],
            [
              -94.0452212,
              45.2651018
            ],
            [
              -94.0445253,
              45.2646406
            ],
            [
              -94.0437838,
              45.2642338
            ],
            [
              -94.0430041,
              45.2638855
            ],
            [
              -94.0421934,
              45.263599
            ],
            [
              -94.0413597,
              45.263377
            ],
            [
              -94.040511,
              45.2632216
            ],
            [
              -94.0396554,
              45.2631345
            ],
            [
              -94.0388013,
              45.2631163
            ],
            [
              -94.0379567,
              45.2631673
            ],
            [
              -94.0371299,
              45.2632871
            ],
            [
              -94.0363288,
              45.2634743
            ],
            [
              -94.0355612,
              45.2637273
            ],
            [
              -94.0348343,
              45.2640436
            ],
            [
              -94.0341553,
              45.2644201
            ],
            [
              -94.0335307,
              45.2648533
            ],
            [
              -94.0329664,
              45.2653389
            ],
            [
              -94.0324679,
              45.2658723
            ],
            [
              -94.0320401,
              45.2664484
            ],
            [
              -94.031687,
              45.2670615
            ],
            [
              -94.031412,
              45.2677058
            ],
            [
              -94.0312178,
              45.2683751
            ],
            [
              -94.0311062,
              45.269063
            ],
            [
              -94.0310784,
              45.2697627
            ],
            [
              -94.0311345,
              45.2704677
            ],
            [
              -94.0312742,
              45.271171
            ],
            [
              -94.0314959,
              45.2718659
            ]
          ]
        ]
      }
    },
    {
      "type": "Feature",
      "properties": {
        "lake": "Lake Pulaski",
        "depth_ft": 15.8,
        "color": "#68b6ed",
        "weight": 1,
        "fill_opacity": 0.5,
        "line_opacity": 0.8
      },
      "geometry": {
        "type": "Polygon",
        "coordinates": [
          [
            [
              -94.0324299,
              45.2716898
            ],
            [
              -94.0326976,
              45.2722932
            ],
            [
              -94.0330338,
              45.2728774
            ],
            [
              -94.0334351,
              45.2734368
            ],
            [
              -94.0338978,
              45.2739659
            ],
            [
              -94.0344172,
              45.2744598
            ],
            [
              -94.0349885,
              45.2749136
            ],
            [
              -94.0356062,
              45.2753229
            ],
            [
              -94.0362642,
              45.2756839
            ],
            [
              -94.0369563,
              45.2759931
            ],
            [
              -94.0376758,
              45.2762474
            ],
            [
              -94.0384157,
              45.2764444
            ],
            [
              -94.039169,
              45.2765823
            ],
            [
              -94.0399283,
              45.2766596
            ],
            [
              -94.0406864,
              45.2766757
            ],
            [
              -94.041436,
              45.2766305
            ],
            [
              -94.0421698,
              45.2765242
            ],
            [
              -94.0428808,
              45.276358
            ],
            [
              -94.0435621,
              45.2761335
            ],
            [
              -94.0442072,
              45.2758527
            ],
            [
              -94.0448098,
              45.2755186
            ],
            [
              -94.0453642,
              45.2751341
            ],
            [
              -94.045865,
              45.2747031
            ],
            [
              -94.0463074,
              45.2742297
            ],
            [
              -94.0466872,
              45.2737184
            ],
            [
              -94.0470006,
              45.2731743
            ],
            [
              -94.0472446,
              45.2726024
            ],
            [
              -94.047417,
              45.2720084
            ],
            [
              -94.047516,
              45.2713979
            ],
            [
              -94.0475407,
              45.2707768
            ],
            [
              -94.0474908,
              45.2701512
            ],
            [
              -94.0473669,
              45.269527
            ],
            [
              -94.0471701,
              45.2689102
            ],
            [
              -94.0469024,
              45.2683068
            ],
            [
              -94.0465662,
              45.2677226
            ],
            [
              -94.0461649,
              45.2671632
            ],
            [
              -94.0457022,
              45.2666341
            ],
            [
              -94.0451828,
              45.2661402
            ],
            [
              -94.0446115,
              45.2656864
            ],
            [
              -94.0439938,
              45.2652771
            ],
            [
              -94.0433358,
              45.2649161
            ],
            [
              -94.0426437,
              45.2646069
            ],
            [
              -94.0419242,
              45.2643526
            ],
            [
              -94.0411843,
              45.2641556
            ],
            [
              -94.040431,
              45.2640177
            ],
            [
              -94.0396717,
              45.2639404
            ],
            [
              -94.0389136,
              45.2639243
            ],
            [
              -94.038164,
              45.2639695
            ],
            [
              -94.0374302,
              45.2640758
            ],
            [
              -94.0367192,
              45.264242
            ],
            [
              -94.0360379,
              45.2644665
            ],
            [
              -94.0353928,
              45.2647473
            ],
            [
              -94.0347902,
              45.2650814
            ],
            [
              -94.0342358,
              45.2654659
            ],
            [
              -94.033735,
              45.2658969
            ],
            [
              -94.0332926,
              45.2663703
            ],
            [
              -94.0329128,
              45.2668816
            ],
            [
              -94.0325994,
              45.2674257
            ],
            [
              -94.0323554,
              45.2679976
            ],
            [
              -94.032183,
              45.2685916
            ],
            [
              -94.032084,
              45.2692021
            ],
            [
              -94.0320593,
              45.2698232
            ],
            [
              -94.0321092,
              45.2704488
            ],
            [
              -94.0322331,
              45.271073
            ],
            [
              -94.0324299,
              45.2716898
            ]
          ]
        ]
      }
    },
    {
      "type": "Feature",
      "properties": {
        "lake": "Lake Pulaski",
        "depth_ft": 21.0,
        "color": "#52a6e7",
        "weight": 1,
        "fill_opacity": 0.5,
        "line_opacity": 0.8
      },
      "geometry": {
        "type": "Polygon",
        "coordinates": [
          [
            [
              -94.0333543,
              45.2715155
            ],
            [
              -94.0335885,
              45.2720432
            ],
            [
              -94.0338825,
              45.2725541
            ],
            [
              -94.0342335,
              45.2730433
            ],
            [
              -94.0346381,
              45.2735061
            ],
            [
              -94.0350924,
              45.273938
            ],
            [
              -94.035592,
              45.2743349
            ],
            [
              -94.0361322,
              45.2746929
            ],
            [
              -94.0367077,
              45.2750086
            ],
            [
              -94.037313,
              45.275279
            ],
            [
              -94.0379422,
              45.2755014
            ],
            [
              -94.0385893,
              45.2756737
            ],
            [
              -94.0392481,
              45.2757943
            ],
            [
              -94.0399122,
              45.2758619
            ],
            [
              -94.0405752,
              45.275876
            ],
            [
              -94.0412308,
              45.2758364
            ],
            [
              -94.0418725,
              45.2757435
            ],
            [
              -94.0424944,
              45.2755982
            ],
            [
              -94.0430902,
              45.2754018
            ],
            [
              -94.0436544,
              45.2751563
            ],
            [
              -94.0441815,
              45.274864
            ],
            [
              -94.0446663,
              45.2745278
            ],
            [
              -94.0451043,
              45.2741508
            ],
            [
              -94.0454912,
              45.2737368
            ],
            [
              -94.0458233,
              45.2732897
            ],
            [
              -94.0460974,
              45.2728137
            ],
            [
              -94.0463109,
              45.2723136
            ],
            [
              -94.0464616,
              45.2717941
            ],
            [
              -94.0465482,
              45.2712602
            ],
            [
              -94.0465698,
              45.270717
            ],
            [
              -94.0465262,
              45.2701698
            ],
            [
              -94.0464178,
              45.2696239
            ],
            [
              -94.0462457,
              45.2690845
            ],
            [
              -94.0460115,
              45.2685568
            ],
            [
              -94.0457175,
              45.2680459
            ],
            [
              -94.0453665,
              45.2675567
            ],
            [
              -94.0449619,
              45.2670939
            ],
            [
              -94.0445076,
              45.266662
            ],
            [
              -94.044008,
              45.2662651
            ],
            [
              -94.0434678,
              45.2659071
            ],
            [
              -94.0428923,
              45.2655914
            ],
            [
              -94.042287,
              45.265321
            ],
            [
              -94.0416578,
              45.2650986
            ],
            [
              -94.0410107,
              45.2649263
            ],
            [
              -94.0403519,
              45.2648057
            ],
            [
              -94.0396878,
              45.2647381
            ],
            [
              -94.0390248,
              45.264724
            ],
            [
              -94.0383692,
              45.2647636
            ],
            [
              -94.0377275,
              45.2648565
            ],
            [
              -94.0371056,
              45.2650018
            ],
            [
              -94.0365098,
              45.2651982
            ],
            [
              -94.0359456,
              45.2654437
            ],
            [
              -94.0354185,
              45.265736
            ],
            [
              -94.0349337,
              45.2660722
            ],
            [
              -94.0344957,
              45.2664492
            ],
            [
              -94.0341088,
              45.2668632
            ],
            [
              -94.0337767,
              45.2673103
            ],
            [
              -94.0335026,
              45.2677863
            ],
            [
              -94.0332891,
              45.2682864
            ],
            [
              -94.0331384,
              45.2688059
            ],
            [
              -94.0330518,
              45.2693398
            ],
            [
              -94.0330302,
              45.269883
            ],
            [
              -94.0330738,
              45.2704302
            ],
            [
              -94.0331822,
              45.2709761
            ],
            [
              -94.0333543,
              45.2715155
            ]
          ]
        ]
      }
    },
    {
      "type": "Feature",
      "properties": {
        "lake": "Lake Pulaski",
        "depth_ft": 26.2,
        "color": "#3f93da",
        "weight": 1,
        "fill_opacity": 0.5,
        "line_opacity": 0.8
      },
      "geometry": {
        "type": "Polygon",
        "coordinates": [
          [
            [
              -94.0343223,
              45.271333
            ],
            [
              -94.0345213,
              45.2717814
            ],
            [
              -94.0347711,
              45.2722156
            ],
            [
              -94.0350694,
              45.2726313
            ],
            [
              -94.0354132,
              45.2730246
            ],
            [
              -94.0357993,
              45.2733917
            ],
            [
              -94.036224,
              45.273729
            ],
            [
              -94.036683,
              45.2740332
            ],
            [
              -94.0371721,
              45.2743015
            ],
            [
              -94.0376865,
              45.2745313
            ],
            [
              -94.0382212,
              45.2747203
            ],
            [
              -94.0387711,
              45.2748667
            ],
            [
              -94.039331,
              45.2749692
            ],
            [
              -94.0398954,
              45.2750267
            ],
            [
              -94.0404588,
              45.2750387
            ],
            [
              -94.0410159,
              45.275005
            ],
            [
              -94.0415613,
              45.274926
            ],
            [
              -94.0420897,
              45.2748025
            ],
            [
              -94.0425961,
              45.2746356
            ],
            [
              -94.0430756,
              45.274427
            ],
            [
              -94.0435235,
              45.2741786
            ],
            [
              -94.0439355,
              45.2738929
            ],
            [
              -94.0443077,
              45.2735725
            ],
            [
              -94.0446366,
              45.2732207
            ],
            [
              -94.0449188,
              45.2728407
            ],
            [
              -94.0451517,
              45.2724362
            ],
            [
              -94.0453331,
              45.2720112
            ],
            [
              -94.0454612,
              45.2715697
            ],
            [
              -94.0455348,
              45.271116
            ],
            [
              -94.0455532,
              45.2706544
            ],
            [
              -94.0455161,
              45.2701894
            ],
            [
              -94.045424,
              45.2697255
            ],
            [
              -94.0452777,
              45.269267
            ],
            [
              -94.0450787,
              45.2688186
            ],
            [
              -94.0448289,
              45.2683844
            ],
            [
              -94.0445306,
              45.2679687
            ],
            [
              -94.0441868,
              45.2675754
            ],
            [
              -94.0438007,
              45.2672083
            ],
            [
              -94.043376,
              45.266871
            ],
            [
              -94.042917,
              45.2665668
            ],
            [
              -94.0424279,
              45.2662985
            ],
            [
              -94.0419135,
              45.2660687
            ],
            [
              -94.0413788,
              45.2658797
            ],
            [
              -94.0408289,
              45.2657333
            ],
            [
              -94.040269,
              45.2656308
            ],
            [
              -94.0397046,
              45.2655733
            ],
            [
              -94.0391412,
              45.2655613
            ],
            [
              -94.0385841,
              45.265595
            ],
            [
              -94.0380387,
              45.265674
            ],
            [
              -94.0375103,
              45.2657975
            ],
            [
              -94.0370039,
              45.2659644
            ],
            [
              -94.0365244,
              45.266173
            ],
            [
              -94.0360765,
              45.2664214
            ],
            [
              -94.0356645,
              45.2667071
            ],
            [
              -94.0352923,
              45.2670275
            ],
            [
              -94.0349634,
              45.2673793
            ],
            [
              -94.0346812,
              45.2677593
            ],
            [
              -94.0344483,
              45.2681638
            ],
            [
              -94.0342669,
              45.2685888
            ],
            [
              -94.0341388,
              45.2690303
            ],
            [
              -94.0340652,
              45.269484
            ],
            [
              -94.0340468,
              45.2699456
            ],
            [
              -94.0340839,
              45.2704106
            ],
            [
              -94.034176,
              45.2708745
            ],
            [
              -94.0343223,
              45.271333
            ]
          ]
        ]
      }
    },
    {
      "type": "Feature",
      "properties": {
        "lake": "Lake Pulaski",
        "depth_ft": 31.5,
        "color": "#3077bc",
        "weight": 1,
        "fill_opacity": 0.5,
        "line_opacity": 0.8
      },
      "geometry": {
        "type": "Polygon",
        "coordinates": [
          [
            [
              -94.0354002,
              45.2711297
            ],
            [
              -94.03556,
              45.2714899
            ],
            [
              -94.0357607,
              45.2718386
            ],
            [
              -94.0360003,
              45.2721726
            ],
            [
              -94.0362765,
              45.2724885
            ],
            [
              -94.0365866,
              45.2727833
            ],
            [
              -94.0369277,
              45.2730542
            ],
            [
              -94.0372964,
              45.2732986
            ],
            [
              -94.0376892,
              45.2735141
            ],
            [
              -94.0381024,
              45.2736986
            ],
            [
              -94.0385319,
              45.2738505
            ],
            [
              -94.0389736,
              45.2739681
            ],
            [
              -94.0394233,
              45.2740504
            ],
            [
              -94.0398766,
              45.2740966
            ],
            [
              -94.0403292,
              45.2741062
            ],
            [
              -94.0407766,
              45.2740791
            ],
            [
              -94.0412147,
              45.2740157
            ],
            [
              -94.0416392,
              45.2739165
            ],
            [
              -94.0420459,
              45.2737825
            ],
            [
              -94.042431,
              45.2736149
            ],
            [
              -94.0427908,
              45.2734154
            ],
            [
              -94.0431217,
              45.2731859
            ],
            [
              -94.0434207,
              45.2729286
            ],
            [
              -94.0436848,
              45.2726459
            ],
            [
              -94.0439115,
              45.2723407
            ],
            [
              -94.0440986,
              45.2720159
            ],
            [
              -94.0442443,
              45.2716745
            ],
            [
              -94.0443472,
              45.2713199
            ],
            [
              -94.0444063,
              45.2709554
            ],
            [
              -94.044421,
              45.2705847
            ],
            [
              -94.0443913,
              45.2702112
            ],
            [
              -94.0443173,
              45.2698385
            ],
            [
              -94.0441998,
              45.2694703
            ],
            [
              -94.04404,
              45.2691101
            ],
            [
              -94.0438393,
              45.2687614
            ],
            [
              -94.0435997,
              45.2684274
            ],
            [
              -94.0433235,
              45.2681115
            ],
            [
              -94.0430134,
              45.2678167
            ],
            [
              -94.0426723,
              45.2675458
            ],
            [
              -94.0423036,
              45.2673014
            ],
            [
              -94.0419108,
              45.2670859
            ],
            [
              -94.0414976,
              45.2669014
            ],
            [
              -94.0410681,
              45.2667495
            ],
            [
              -94.0406264,
              45.2666319
            ],
            [
              -94.0401767,
              45.2665496
            ],
            [
              -94.0397234,
              45.2665034
            ],
            [
              -94.0392708,
              45.2664938
            ],
            [
              -94.0388234,
              45.2665209
            ],
            [
              -94.0383853,
              45.2665843
            ],
            [
              -94.0379608,
              45.2666835
            ],
            [
              -94.0375541,
              45.2668175
            ],
            [
              -94.037169,
              45.2669851
            ],
            [
              -94.0368092,
              45.2671846
            ],
            [
              -94.0364783,
              45.2674141
            ],
            [
              -94.0361793,
              45.2676714
            ],
            [
              -94.0359152,
              45.2679541
            ],
            [
              -94.0356885,
              45.2682593
            ],
            [
              -94.0355014,
              45.2685841
            ],
            [
              -94.0353557,
              45.2689255
            ],
            [
              -94.0352528,
              45.2692801
            ],
            [
              -94.0351937,
              45.2696446
            ],
            [
              -94.035179,
              45.2700153
            ],
            [
              -94.0352087,
              45.2703888
            ],
            [
              -94.0352827,
              45.2707615
            ],
            [
              -94.0354002,
              45.2711297
            ]
          ]
        ]
      }
    },
    {
      "type": "Feature",
      "properties": {
        "lake": "Lake Pulaski",
        "depth_ft": 36.8,
        "color": "#245790",
        "weight": 1,
        "fill_opacity": 0.5,
        "line_opacity": 0.8
      },
      "geometry": {
        "type": "Polygon",
        "coordinates": [
          [
            [
              -94.0367338,
              45.2708782
            ],
            [
              -94.0368452,
              45.2711292
            ],
            [
              -94.0369851,
              45.2713723
            ],
            [
              -94.037152,
              45.271605
            ],
            [
              -94.0373445,
              45.2718251
            ],
            [
              -94.0375606,
              45.2720306
            ],
            [
              -94.0377983,
              45.2722194
            ],
            [
              -94.0380552,
              45.2723897
            ],
            [
              -94.038329,
              45.2725399
            ],
            [
              -94.0386169,
              45.2726685
            ],
            [
              -94.0389163,
              45.2727743
            ],
            [
              -94.0392241,
              45.2728563
            ],
            [
              -94.0395375,
              45.2729136
            ],
            [
              -94.0398534,
              45.2729458
            ],
            [
              -94.0401688,
              45.2729525
            ],
            [
              -94.0404806,
              45.2729337
            ],
            [
              -94.0407859,
              45.2728895
            ],
            [
              -94.0410817,
              45.2728203
            ],
            [
              -94.0413651,
              45.2727269
            ],
            [
              -94.0416335,
              45.2726101
            ],
            [
              -94.0418842,
              45.2724711
            ],
            [
              -94.0421149,
              45.2723111
            ],
            [
              -94.0423232,
              45.2721318
            ],
            [
              -94.0425073,
              45.2719349
            ],
            [
              -94.0426653,
              45.2717222
            ],
            [
              -94.0427957,
              45.2714958
            ],
            [
              -94.0428972,
              45.2712579
            ],
            [
              -94.0429689,
              45.2710107
            ],
            [
              -94.0430101,
              45.2707568
            ],
            [
              -94.0430204,
              45.2704984
            ],
            [
              -94.0429996,
              45.2702381
            ],
            [
              -94.0429481,
              45.2699784
            ],
            [
              -94.0428662,
              45.2697218
            ],
            [
              -94.0427548,
              45.2694708
            ],
            [
              -94.0426149,
              45.2692277
            ],
            [
              -94.042448,
              45.268995
            ],
            [
              -94.0422555,
              45.2687749
            ],
            [
              -94.0420394,
              45.2685694
            ],
            [
              -94.0418017,
              45.2683806
            ],
            [
              -94.0415448,
              45.2682103
            ],
            [
              -94.041271,
              45.2680601
            ],
            [
              -94.0409831,
              45.2679315
            ],
            [
              -94.0406837,
              45.2678257
            ],
            [
              -94.0403759,
              45.2677437
            ],
            [
              -94.0400625,
              45.2676864
            ],
            [
              -94.0397466,
              45.2676542
            ],
            [
              -94.0394312,
              45.2676475
            ],
            [
              -94.0391194,
              45.2676663
            ],
            [
              -94.0388141,
              45.2677105
            ],
            [
              -94.0385183,
              45.2677797
            ],
            [
              -94.0382349,
              45.2678731
            ],
            [
              -94.0379665,
              45.2679899
            ],
            [
              -94.0377158,
              45.2681289
            ],
            [
              -94.0374851,
              45.2682889
            ],
            [
              -94.0372768,
              45.2684682
            ],
            [
              -94.0370927,
              45.2686651
            ],
            [
              -94.0369347,
              45.2688778
            ],
            [
              -94.0368043,
              45.2691042
            ],
            [
              -94.0367028,
              45.2693421
            ],
            [
              -94.0366311,
              45.2695893
            ],
            [
              -94.0365899,
              45.2698432
            ],
            [
              -94.0365796,
              45.2701016
            ],
            [
              -94.0366004,
              45.2703619
            ],
            [
              -94.0366519,
              45.2706216
            ],
            [
              -94.0367338,
              45.2708782
            ]
          ]
        ]
      }
    }
  ]
}