{
  "type": "FeatureCollection",
  "features": [
    {
      "type": "Feature",
      "properties": {
        "lake": "Lake Francis",
        "depth_ft": 3.8,
        "color": "#a5d7f5",
        "weight": 1,
        "fill_opacity": 0.5,
        "line_opacity": 0.8
      },
      "geometry": {
        "type": "Polygon",
        "coordinates": [
          [
            [
              -93.9741852,
              45.1353525
            ],
            [
              -93.9750844,
              45.1360602
            ],
            [
              -93.9760425,
              45.136721
            ],
            [
              -93.9770503,
              45.1373286
            ],
            [
              -93.978098,
              45.1378772
            ],
            [
              -93.9791756,
              45.1383615
            ],
            [
              -93.9802726,
              45.1387768
            ],
            [
              -93.9813787,
              45.1391192
            ],
            [
              -93.9824829,
              45.1393853
            ],
            [
              -93.9835749,
              45.1395726
            ],
            [
              -93.984644,
              45.1396792
            ],
            [
              -93.9856799,
              45.1397042
            ],
            [
              -93.9866726,
              45.1396473
            ],
            [
              -93.9876127,
              45.139509
            ],
            [
              -93.988491,
              45.1392907
            ],
            [
              -93.989299,
              45.1389945
            ],
            [
              -93.9900291,
              45.1386232
            ],
            [
              -93.9906742,
              45.1381804
            ],
            [
              -93.991228,
              45.1376705
            ],
            [
              -93.9916852,
              45.1370982
            ],
            [
              -93.9920415,
              45.136469
            ],
            [
              -93.9922933,
              45.1357892
            ],
            [
              -93.9924383,
              45.1350651
            ],
            [
              -93.9924751,
              45.1343039
            ],
            [
              -93.9924033,
              45.1335127
            ],
            [
              -93.9922236,
              45.1326993
            ],
            [
              -93.9919378,
              45.1318714
            ],
            [
              -93.9915485,
              45.1310371
            ],
            [
              -93.9910595,
              45.1302043
            ],
            [
              -93.9904757,
              45.1293811
            ],
            [
              -93.9898024,
              45.1285754
            ],
            [
              -93.9890464,
              45.1277951
            ],
            [
              -93.9882148,
              45.1270475
            ],
            [
              -93.9873156,
              45.1263398
            ],
            [
              -93.9863575,
              45.125679
            ],
            [
              -93.9853497,
              45.1250714
            ],
            [
              -93.984302,
              45.1245228
            ],
            [
              -93.9832244,
              45.1240385
            ],
            [
              -93.9821274,
              45.1236232
            ],
            [
              -93.9810213,
              45.1232808
            ],
            [
              -93.9799171,
              45.1230147
            ],
            [
              -93.9788251,
              45.1228274
            ],
            [
              -93.977756,
              45.1227208
            ],
            [
              -93.9767201,
              45.1226958
            ],
            [
              -93.9757274,
              45.1227527
            ],
            [
              -93.9747873,
              45.122891
            ],
            [
              -93.973909,
              45.1231093
            ],
            [
              -93.973101,
              45.1234055
            ],
            [
              -93.9723709,
              45.1237768
            ],
            [
              -93.9717258,
              45.1242196
            ],
            [
              -93.971172,
              45.1247295
            ],
            [
              -93.9707148,
              45.1253018
            ],
            [
              -93.9703585,
              45.125931
            ],
            [
              -93.9701067,
              45.1266108
            ],
            [
              -93.9699617,
              45.1273349
            ],
            [
              -93.9699249,
              45.1280961
            ],
            [
              -93.9699967,
              45.1288873
            ],
            [
              -93.9701764,
              45.1297007
            ],
            [
              -93.9704622,
              45.1305286
            ],
            [
              -93.9708515,
              45.1313629
            ],
            [
              -93.9713405,
              45.1321957
            ],
            [
              -93.9719243,
              45.1330189
            ],
            [
              -93.9725976,
              45.1338246
            ],
            [
              -93.9733536,
              45.1346049
            ],
            [
              -93.9741852,
              45.1353525
            ]
          ]
        ]
      }
    },
    {
      "type": "Feature",
      "properties": {
        "lake": "Lake Francis",
        "depth_ft": 7.5,
        "color": "#84c6f2",
        "weight": 1,
        "fill_opacity": 0.5,
        "line_opacity": 0.8
      },
      "geometry": {
        "type": "Polygon",
        "coordinates": [
          [
            [
              -93.9749563,
              45.1348961
            ],
            [
              -93.9757567,
              45.1355259
            ],
            [
              -93.9766094,
              45.1361141
            ],
            [
              -93.9775064,
              45.1366549
            ],
            [
              -93.978439,
              45.1371432
            ],
            [
              -93.9793981,
              45.1375743
            ],
            [
              -93.9803746,
              45.137944
            ],
            [
              -93.981359,
              45.1382487
            ],
            [
              -93.9823419,
              45.1384855
            ],
            [
              -93.9833138,
              45.1386522
            ],
            [
              -93.9842654,
              45.1387471
            ],
            [
              -93.9851874,
              45.1387694
            ],
            [
              -93.986071,
              45.1387187
            ],
            [
              -93.9869078,
              45.1385956
            ],
            [
              -93.9876895,
              45.1384013
            ],
            [
              -93.9884088,
              45.1381377
            ],
            [
              -93.9890586,
              45.1378072
            ],
            [
              -93.9896327,
              45.1374131
            ],
            [
              -93.9901257,
              45.1369592
            ],
            [
              -93.9905326,
              45.1364498
            ],
            [
              -93.9908497,
              45.1358898
            ],
            [
              -93.9910739,
              45.1352847
            ],
            [
              -93.991203,
              45.1346403
            ],
            [
              -93.9912357,
              45.1339627
            ],
            [
              -93.9911718,
              45.1332585
            ],
            [
              -93.9910118,
              45.1325345
            ],
            [
              -93.9907574,
              45.1317976
            ],
            [
              -93.9904109,
              45.131055
            ],
            [
              -93.9899757,
              45.1303137
            ],
            [
              -93.989456,
              45.129581
            ],
            [
              -93.9888568,
              45.1288639
            ],
            [
              -93.9881839,
              45.1281693
            ],
            [
              -93.9874437,
              45.1275039
            ],
            [
              -93.9866433,
              45.1268741
            ],
            [
              -93.9857906,
              45.1262859
            ],
            [
              -93.9848936,
              45.1257451
            ],
            [
              -93.983961,
              45.1252568
            ],
            [
              -93.9830019,
              45.1248257
            ],
            [
              -93.9820254,
              45.124456
            ],
            [
              -93.981041,
              45.1241513
            ],
            [
              -93.9800581,
              45.1239145
            ],
            [
              -93.9790862,
              45.1237478
            ],
            [
              -93.9781346,
              45.1236529
            ],
            [
              -93.9772126,
              45.1236306
            ],
            [
              -93.976329,
              45.1236813
            ],
            [
              -93.9754922,
              45.1238044
            ],
            [
              -93.9747105,
              45.1239987
            ],
            [
              -93.9739912,
              45.1242623
            ],
            [
              -93.9733414,
              45.1245928
            ],
            [
              -93.9727673,
              45.1249869
            ],
            [
              -93.9722743,
              45.1254408
            ],
            [
              -93.9718674,
              45.1259502
            ],
            [
              -93.9715503,
              45.1265102
            ],
            [
              -93.9713261,
              45.1271153
            ],
            [
              -93.971197,
              45.1277597
            ],
            [
              -93.9711643,
              45.1284373
            ],
            [
              -93.9712282,
              45.1291415
            ],
            [
              -93.9713882,
              45.1298655
            ],
            [
              -93.9716426,
              45.1306024
            ],
            [
              -93.9719891,
              45.131345
            ],
            [
              -93.9724243,
              45.1320863
            ],
            [
              -93.972944,
              45.132819
            ],
            [
              -93.9735432,
              45.1335361
            ],
            [
              -93.9742161,
              45.1342307
            ],
            [
              -93.9749563,
              45.1348961
            ]
          ]
        ]
      }
    },
    {
      "type": "Feature",
      "properties": {
        "lake": "Lake Francis",
        "depth_ft": 11.2,
        "color": "#68b6ed",
        "weight": 1,
        "fill_opacity": 0.5,
        "line_opacity": 0.8
      },
      "geometry": {
        "type": "Polygon",
        "coordinates": [
          [
            [
              -93.9756586,
              45.1344804
            ],
            [
              -93.9763689,
              45.1350394
            ],
            [
              -93.9771257,
              45.1355614
            ],
            [
              -93.9779218,
              45.1360414
            ],
            [
              -93.9787495,
              45.1364748
            ],
            [
              -93.9796008,
              45.1368574
            ],
            [
              -93.9804674,
              45.1371855
            ],
            [
              -93.9813411,
              45.1374559
            ],
            [
              -93.9822135,
              45.1376661
            ],
            [
              -93.9830761,
              45.1378141
            ],
            [
              -93.9839206,
              45.1378983
            ],
            [
              -93.9847389,
              45.137918
            ],
            [
              -93.9855232,
              45.1378731
            ],
            [
              -93.9862658,
              45.1377638
            ],
            [
              -93.9869596,
              45.1375914
            ],
            [
              -93.987598,
              45.1373574
            ],
            [
              -93.9881747,
              45.1370641
            ],
            [
              -93.9886843,
              45.1367143
            ],
            [
              -93.9891218,
              45.1363115
            ],
            [
              -93.989483,
              45.1358594
            ],
            [
              -93.9897644,
              45.1353624
            ],
            [
              -93.9899634,
              45.1348253
            ],
            [
              -93.9900779,
              45.1342533
            ],
            [
              -93.990107,
              45.133652
            ],
            [
              -93.9900503,
              45.133027
            ],
            [
              -93.9899083,
              45.1323844
            ],
            [
              -93.9896825,
              45.1317304
            ],
            [
              -93.989375,
              45.1310713
            ],
            [
              -93.9889887,
              45.1304134
            ],
            [
              -93.9885275,
              45.1297631
            ],
            [
              -93.9879957,
              45.1291267
            ],
            [
              -93.9873984,
              45.1285102
            ],
            [
              -93.9867414,
              45.1279196
            ],
            [
              -93.9860311,
              45.1273606
            ],
            [
              -93.9852743,
              45.1268386
            ],
            [
              -93.9844782,
              45.1263586
            ],
            [
              -93.9836505,
              45.1259252
            ],
            [
              -93.9827992,
              45.1255426
            ],
            [
              -93.9819326,
              45.1252145
            ],
            [
              -93.9810589,
              45.1249441
            ],
            [
              -93.9801865,
              45.1247339
            ],
            [
              -93.9793239,
              45.1245859
            ],
            [
              -93.9784794,
              45.1245017
            ],
            [
              -93.9776611,
              45.124482
            ],
            [
              -93.9768768,
              45.1245269
            ],
            [
              -93.9761342,
              45.1246362
            ],
            [
              -93.9754404,
              45.1248086
            ],
            [
              -93.974802,
              45.1250426
            ],
            [
              -93.9742253,
              45.1253359
            ],
            [
              -93.9737157,
              45.1256857
            ],
            [
              -93.9732782,
              45.1260885
            ],
            [
              -93.972917,
              45.1265406
            ],
            [
              -93.9726356,
              45.1270376
            ],
            [
              -93.9724366,
              45.1275747
            ],
            [
              -93.9723221,
              45.1281467
            ],
            [
              -93.972293,
              45.128748
            ],
            [
              -93.9723497,
              45.129373
            ],
            [
              -93.9724917,
              45.1300156
            ],
            [
              -93.9727175,
              45.1306696
            ],
            [
              -93.973025,
              45.1313287
            ],
            [
              -93.9734113,
              45.1319866
            ],
            [
              -93.9738725,
              45.1326369
            ],
            [
              -93.9744043,
              45.1332733
            ],
            [
              -93.9750016,
              45.1338898
            ],
            [
              -93.9756586,
              45.1344804
            ]
          ]
        ]
      }
    },
    {
      "type": "Feature",
      "properties": {
        "lake": "Lake Francis",
        "depth_ft": 15.0,
        "color": "#52a6e7",
        "weight": 1,
        "fill_opacity": 0.5,
        "line_opacity": 0.8
      },
      "geometry": {
        "type": "Polygon",
        "coordinates": [
          [
            [
              -93.9763536,
              45.1340689
            ],
            [
              -93.9769749,
              45.1345578
            ],
            [
              -93.9776368,
              45.1350143
            ],
            [
              -93.978333,
              45.1354341
            ],
            [
              -93.9790569,
              45.1358132
            ],
            [
              -93.9798013,
              45.1361478
            ],
            [
              -93.9805593,
              45.1364347
            ],
            [
              -93.9813234,
              45.1366712
            ],
            [
              -93.9820864,
              45.1368551
            ],
            [
              -93.9828408,
              45.1369845
            ],
            [
              -93.9835794,
              45.1370581
            ],
            [
              -93.9842951,
              45.1370754
            ],
            [
              -93.9849809,
              45.1370361
            ],
            [
              -93.9856304,
              45.1369405
            ],
            [
              -93.9862372,
              45.1367897
            ],
            [
              -93.9867955,
              45.1365851
            ],
            [
              -93.9872999,
              45.1363286
            ],
            [
              -93.9877455,
              45.1360227
            ],
            [
              -93.9881282,
              45.1356703
            ],
            [
              -93.9884441,
              45.1352749
            ],
            [
              -93.9886902,
              45.1348403
            ],
            [
              -93.9888642,
              45.1343706
            ],
            [
              -93.9889644,
              45.1338704
            ],
            [
              -93.9889898,
              45.1333444
            ],
            [
              -93.9889402,
              45.1327978
            ],
            [
              -93.988816,
              45.1322358
            ],
            [
              -93.9886185,
              45.1316639
            ],
            [
              -93.9883496,
              45.1310874
            ],
            [
              -93.9880118,
              45.1305121
            ],
            [
              -93.9876084,
              45.1299434
            ],
            [
              -93.9871433,
              45.1293867
            ],
            [
              -93.9866209,
              45.1288476
            ],
            [
              -93.9860464,
              45.1283311
            ],
            [
              -93.9854251,
              45.1278422
            ],
            [
              -93.9847632,
              45.1273857
            ],
            [
              -93.984067,
              45.1269659
            ],
            [
              -93.9833431,
              45.1265868
            ],
            [
              -93.9825987,
              45.1262522
            ],
            [
              -93.9818407,
              45.1259653
            ],
            [
              -93.9810766,
              45.1257288
            ],
            [
              -93.9803136,
              45.1255449
            ],
            [
              -93.9795592,
              45.1254155
            ],
            [
              -93.9788206,
              45.1253419
            ],
            [
              -93.9781049,
              45.1253246
            ],
            [
              -93.9774191,
              45.1253639
            ],
            [
              -93.9767696,
              45.1254595
            ],
            [
              -93.9761628,
              45.1256103
            ],
            [
              -93.9756045,
              45.1258149
            ],
            [
              -93.9751001,
              45.1260714
            ],
            [
              -93.9746545,
              45.1263773
            ],
            [
              -93.9742718,
              45.1267297
            ],
            [
              -93.9739559,
              45.1271251
            ],
            [
              -93.9737098,
              45.1275597
            ],
            [
              -93.9735358,
              45.1280294
            ],
            [
              -93.9734356,
              45.1285296
            ],
            [
              -93.9734102,
              45.1290556
            ],
            [
              -93.9734598,
              45.1296022
            ],
            [
              -93.973584,
              45.1301642
            ],
            [
              -93.9737815,
              45.1307361
            ],
            [
              -93.9740504,
              45.1313126
            ],
            [
              -93.9743882,
              45.1318879
            ],
            [
              -93.9747916,
              45.1324566
            ],
            [
              -93.9752567,
              45.1330133
            ],
            [
              -93.9757791,
              45.1335524
            ],
            [
              -93.9763536,
              45.1340689
            ]
          ]
        ]
      }
    },
    {
      "type": "Feature",
      "properties": {
        "lake": "Lake Francis",
        "depth_ft": 18.8,
        "color": "#3f93da",
        "weight": 1,
        "fill_opacity": 0.5,
        "line_opacity": 0.8
      },
      "geometry": {
        "type": "Polygon",
        "coordinates": [
          [
            [
              -93.9770814,
              45.1336381
            ],
            [
              -93.9776094,
              45.1340535
            ],
            [
              -93.9781719,
              45.1344415
            ],
            [
              -93.9787636,
              45.1347983
            ],
            [
              -93.9793787,
              45.1351204
            ],
            [
              -93.9800114,
              45.1354047
            ],
            [
              -93.9806555,
              45.1356486
            ],
            [
              -93.9813049,
              45.1358496
            ],
            [
              -93.9819533,
              45.1360058
            ],
            [
              -93.9825944,
              45.1361158
            ],
            [
              -93.9832221,
              45.1361784
            ],
            [
              -93.9838303,
              45.1361931
            ],
            [
              -93.9844131,
              45.1361597
            ],
            [
              -93.9849651,
              45.1360785
            ],
            [
              -93.9854808,
              45.1359503
            ],
            [
              -93.9859552,
              45.1357764
            ],
            [
              -93.9863839,
              45.1355584
            ],
            [
              -93.9867626,
              45.1352984
            ],
            [
              -93.9870877,
              45.134999
            ],
            [
              -93.9873562,
              45.134663
            ],
            [
              -93.9875654,
              45.1342936
            ],
            [
              -93.9877132,
              45.1338945
            ],
            [
              -93.9877984,
              45.1334694
            ],
            [
              -93.98782,
              45.1330224
            ],
            [
              -93.9877778,
              45.1325579
            ],
            [
              -93.9876723,
              45.1320803
            ],
            [
              -93.9875045,
              45.1315942
            ],
            [
              -93.9872759,
              45.1311043
            ],
            [
              -93.9869889,
              45.1306154
            ],
            [
              -93.986646,
              45.1301321
            ],
            [
              -93.9862508,
              45.129659
            ],
            [
              -93.9858069,
              45.1292008
            ],
            [
              -93.9853186,
              45.1287619
            ],
            [
              -93.9847906,
              45.1283465
            ],
            [
              -93.9842281,
              45.1279585
            ],
            [
              -93.9836364,
              45.1276017
            ],
            [
              -93.9830213,
              45.1272796
            ],
            [
              -93.9823886,
              45.1269953
            ],
            [
              -93.9817445,
              45.1267514
            ],
            [
              -93.9810951,
              45.1265504
            ],
            [
              -93.9804467,
              45.1263942
            ],
            [
              -93.9798056,
              45.1262842
            ],
            [
              -93.9791779,
              45.1262216
            ],
            [
              -93.9785697,
              45.1262069
            ],
            [
              -93.9779869,
              45.1262403
            ],
            [
              -93.9774349,
              45.1263215
            ],
            [
              -93.9769192,
              45.1264497
            ],
            [
              -93.9764448,
              45.1266236
            ],
            [
              -93.9760161,
              45.1268416
            ],
            [
              -93.9756374,
              45.1271016
            ],
            [
              -93.9753123,
              45.127401
            ],
            [
              -93.9750438,
              45.127737
            ],
            [
              -93.9748346,
              45.1281064
            ],
            [
              -93.9746868,
              45.1285055
            ],
            [
              -93.9746016,
              45.1289306
            ],
            [
              -93.97458,
              45.1293776
            ],
            [
              -93.9746222,
              45.1298421
            ],
            [
              -93.9747277,
              45.1303197
            ],
            [
              -93.9748955,
              45.1308058
            ],
            [
              -93.9751241,
              45.1312957
            ],
            [
              -93.9754111,
              45.1317846
            ],
            [
              -93.975754,
              45.1322679
            ],
            [
              -93.9761492,
              45.132741
            ],
            [
              -93.9765931,
              45.1331992
            ],
            [
              -93.9770814,
              45.1336381
            ]
          ]
        ]
      }
    },
    {
      "type": "Feature",
      "properties": {
        "lake": "Lake Francis",
        "depth_ft": 22.5,
        "color": "#3077bc",
        "weight": 1,
        "fill_opacity": 0.5,
        "line_opacity": 0.8
      },
      "geometry": {
        "type": "Polygon",
        "coordinates": [
          [
            [
              -93.9778919,
              45.1331583
            ],
            [
              -93.9783159,
              45.133492
            ],
            [
              -93.9787678,
              45.1338037
            ],
            [
              -93.979243,
              45.1340902
            ],
            [
              -93.9797371,
              45.1343489
            ],
            [
              -93.9802453,
              45.1345773
            ],
            [
              -93.9807627,
              45.1347732
            ],
            [
              -93.9812843,
              45.1349347
            ],
            [
              -93.981805,
              45.1350601
            ],
            [
              -93.98232,
              45.1351485
            ],
            [
              -93.9828242,
              45.1351988
            ],
            [
              -93.9833127,
              45.1352105
            ],
            [
              -93.9837809,
              45.1351837
            ],
            [
              -93.9842242,
              45.1351185
            ],
            [
              -93.9846384,
              45.1350155
            ],
            [
              -93.9850195,
              45.1348758
            ],
            [
              -93.9853638,
              45.1347008
            ],
            [
              -93.985668,
              45.1344919
            ],
            [
              -93.9859291,
              45.1342514
            ],
            [
              -93.9861448,
              45.1339815
            ],
            [
              -93.9863128,
              45.1336849
            ],
            [
              -93.9864316,
              45.1333642
            ],
            [
              -93.9864999,
              45.1330228
            ],
            [
              -93.9865173,
              45.1326638
            ],
            [
              -93.9864834,
              45.1322907
            ],
            [
              -93.9863987,
              45.1319071
            ],
            [
              -93.9862639,
              45.1315166
            ],
            [
              -93.9860803,
              45.1311232
            ],
            [
              -93.9858497,
              45.1307304
            ],
            [
              -93.9855744,
              45.1303422
            ],
            [
              -93.9852569,
              45.1299623
            ],
            [
              -93.9849003,
              45.1295942
            ],
            [
              -93.9845081,
              45.1292417
            ],
            [
              -93.9840841,
              45.128908
            ],
            [
              -93.9836322,
              45.1285963
            ],
            [
              -93.983157,
              45.1283098
            ],
            [
              -93.9826629,
              45.1280511
            ],
            [
              -93.9821547,
              45.1278227
            ],
            [
              -93.9816373,
              45.1276268
            ],
            [
              -93.9811157,
              45.1274653
            ],
            [
              -93.980595,
              45.1273399
            ],
            [
              -93.98008,
              45.1272515
            ],
            [
              -93.9795758,
              45.1272012
            ],
            [
              -93.9790873,
              45.1271895
            ],
            [
              -93.9786191,
              45.1272163
            ],
            [
              -93.9781758,
              45.1272815
            ],
            [
              -93.9777616,
              45.1273845
            ],
            [
              -93.9773805,
              45.1275242
            ],
            [
              -93.9770362,
              45.1276992
            ],
            [
              -93.976732,
              45.1279081
            ],
            [
              -93.9764709,
              45.1281486
            ],
            [
              -93.9762552,
              45.1284185
            ],
            [
              -93.9760872,
              45.1287151
            ],
            [
              -93.9759684,
              45.1290358
            ],
            [
              -93.9759001,
              45.1293772
            ],
            [
              -93.9758827,
              45.1297362
            ],
            [
              -93.9759166,
              45.1301093
            ],
            [
              -93.9760013,
              45.1304929
            ],
            [
              -93.9761361,
              45.1308834
            ],
            [
              -93.9763197,
              45.1312768
            ],
            [
              -93.9765503,
              45.1316696
            ],
            [
              -93.9768256,
              45.1320578
            ],
            [
              -93.9771431,
              45.1324377
            ],
            [
              -93.9774997,
              45.1328058
            ],
            [
              -93.9778919,
              45.1331583
            ]
          ]
        ]
      }
    },
    {
      "type": "Feature",
      "properties": {
        "lake": "Lake Francis",
        "depth_ft": 26.2,
        "color": "#245790",
        "weight": 1,
        "fill_opacity": 0.5,
        "line_opacity": 0.8
      },
      "geometry": {
        "type": "Polygon",
        "coordinates": [
          [
            [
              -93.9788946,
              45.1325647
            ],
            [
              -93.9791901,
              45.1327973
            ],
            [
              -93.979505,
              45.1330145
            ],
            [
              -93.9798362,
              45.1332142
            ],
            [
              -93.9801805,
              45.1333945
            ],
            [
              -93.9805347,
              45.1335536
            ],
            [
              -93.9808952,
              45.1336901
            ],
            [
              -93.9812587,
              45.1338027
            ],
            [
              -93.9816216,
              45.1338901
            ],
            [
              -93.9819805,
              45.1339517
            ],
            [
              -93.9823319,
              45.1339867
            ],
            [
              -93.9826723,
              45.1339949
            ],
            [
              -93.9829986,
              45.1339762
            ],
            [
              -93.9833075,
              45.1339308
            ],
            [
              -93.9835962,
              45.133859
            ],
            [
              -93.9838618,
              45.1337617
            ],
            [
              -93.9841017,
              45.1336396
            ],
            [
              -93.9843137,
              45.1334941
            ],
            [
              -93.9844957,
              45.1333265
            ],
            [
              -93.984646,
              45.1331384
            ],
            [
              -93.9847631,
              45.1329317
            ],
            [
              -93.9848458,
              45.1327082
            ],
            [
              -93.9848935,
              45.1324703
            ],
            [
              -93.9849056,
              45.1322201
            ],
            [
              -93.984882,
              45.1319601
            ],
            [
              -93.9848229,
              45.1316927
            ],
            [
              -93.984729,
              45.1314207
            ],
            [
              -93.984601,
              45.1311465
            ],
            [
              -93.9844403,
              45.1308728
            ],
            [
              -93.9842485,
              45.1306022
            ],
            [
              -93.9840272,
              45.1303374
            ],
            [
              -93.9837787,
              45.130081
            ],
            [
              -93.9835054,
              45.1298353
            ],
            [
              -93.9832099,
              45.1296027
            ],
            [
              -93.982895,
              45.1293855
            ],
            [
              -93.9825638,
              45.1291858
            ],
            [
              -93.9822195,
              45.1290055
            ],
            [
              -93.9818653,
              45.1288464
            ],
            [
              -93.9815048,
              45.1287099
            ],
            [
              -93.9811413,
              45.1285973
            ],
            [
              -93.9807784,
              45.1285099
            ],
            [
              -93.9804195,
              45.1284483
            ],
            [
              -93.9800681,
              45.1284133
            ],
            [
              -93.9797277,
              45.1284051
            ],
            [
              -93.9794014,
              45.1284238
            ],
            [
              -93.9790925,
              45.1284692
            ],
            [
              -93.9788038,
              45.128541
            ],
            [
              -93.9785382,
              45.1286383
            ],
            [
              -93.9782983,
              45.1287604
            ],
            [
              -93.9780863,
              45.1289059
            ],
            [
              -93.9779043,
              45.1290735
            ],
            [
              -93.977754,
              45.1292616
            ],
            [
              -93.9776369,
              45.1294683
            ],
            [
              -93.9775542,
              45.1296918
            ],
            [
              -93.9775065,
              45.1299297
            ],
            [
              -93.9774944,
              45.1301799
            ],
            [
              -93.977518,
              45.1304399
            ],
            [
              -93.9775771,
              45.1307073
            ],
            [
              -93.977671,
              45.1309793
            ],
            [
              -93.977799,
              45.1312535
            ],
            [
              -93.9779597,
              45.1315272
            ],
            [
              -93.9781515,
              45.1317978
            ],
            [
              -93.9783728,
              45.1320626
            ],
            [
              -93.9786213,
              45.132319
            ],
            [
              -93.9788946,
              45.1325647
            ]
          ]
        ]
      }
    }
  ]
}