{
  "type": "FeatureCollection",
  "features": [
    {
      "type": "Feature",
      "properties": {
        "lake": "Lake Montrose",
        "depth_ft": 2.8,
        "color": "#a5d7f5",
        "weight": 1,
        "fill_opacity": 0.5,
        "line_opacity": 0.8
      },
      "geometry": {
        "type": "Polygon",
        "coordinates": [
          [
            [
              -94.0158865,
              45.0738595
            ],
            [
              -94.0165111,
              45.0739171
            ],
            [
              -94.0171395,
              45.0739351
            ],
            [
              -94.0177655,
              45.0739133
            ],
            [
              -94.0183833,
              45.0738518
            ],
            [
              -94.0189867,
              45.0737513
            ],
            [
              -94.01957,
              45.0736128
            ],
            [
              -94.0201277,
              45.0734375
            ],
            [
              -94.0206542,
              45.0732273
            ],
            [
              -94.0211446,
              45.072984
            ],
            [
              -94.0215941,
              45.07271
            ],
            [
              -94.0219984,
              45.072408
            ],
            [
              -94.0223536,
              45.0720809
            ],
            [
              -94.0226563,
              45.0717319
            ],
            [
              -94.0229036,
              45.0713642
            ],
            [
              -94.023093,
              45.0709815
            ],
            [
              -94.0232228,
              45.0705874
            ],
            [
              -94.0232917,
              45.0701857
            ],
            [
              -94.023299,
              45.0697803
            ],
            [
              -94.0232447,
              45.0693751
            ],
            [
              -94.0231294,
              45.0689739
            ],
            [
              -94.022954,
              45.0685808
            ],
            [
              -94.0227203,
              45.0681993
            ],
            [
              -94.0224306,
              45.0678333
            ],
            [
              -94.0220876,
              45.0674863
            ],
            [
              -94.0216946,
              45.0671615
            ],
            [
              -94.0212555,
              45.0668621
            ],
            [
              -94.0207744,
              45.066591
            ],
            [
              -94.020256,
              45.0663508
            ],
            [
              -94.0197053,
              45.0661439
            ],
            [
              -94.0191276,
              45.0659721
            ],
            [
              -94.0185284,
              45.0658372
            ],
            [
              -94.0179135,
              45.0657405
            ],
            [
              -94.0172889,
              45.0656829
            ],
            [
              -94.0166605,
              45.0656649
            ],
            [
              -94.0160345,
              45.0656867
            ],
            [
              -94.0154167,
              45.0657482
            ],
            [
              -94.0148133,
              45.0658487
            ],
            [
              -94.01423,
              45.0659872
            ],
            [
              -94.0136723,
              45.0661625
            ],
            [
              -94.0131458,
              45.0663727
            ],
            [
              -94.0126554,
              45.066616
            ],
            [
              -94.0122059,
              45.06689
            ],
            [
              -94.0118016,
              45.067192
            ],
            [
              -94.0114464,
              45.0675191
            ],
            [
              -94.0111437,
              45.0678681
            ],
            [
              -94.0108964,
              45.0682358
            ],
            [
              -94.010707,
              45.0686185
            ],
            [
              -94.0105772,
              45.0690126
            ],
            [
              -94.0105083,
              45.0694143
            ],
            [
              -94.010501,
              45.0698197
            ],
            [
              -94.0105553,
              45.0702249
            ],
            [
              -94.0106706,
              45.0706261
            ],
            [
              -94.010846,
              45.0710192
            ],
            [
              -94.0110797,
              45.0714007
            ],
            [
              -94.0113694,
              45.0717667
            ],
            [
              -94.0117124,
              45.0721137
            ],
            [
              -94.0121054,
              45.0724385
            ],
            [
              -94.0125445,
              45.0727379
            ],
            [
              -94.0130256,
              45.073009
            ],
            [
              -94.013544,
              45.0732492
            ],
            [
              -94.0140947,
              45.0734561
            ],
            [
              -94.0146724,
              45.0736279
            ],
            [
              -94.0152716,
              45.0737628
            ],
            [
              -94.0158865,
              45.0738595
            ]
          ]
        ]
      }
    },
    {
      "type": "Feature",
      "properties": {
        "lake": "Lake Montrose",
        "depth_ft": 5.5,
        "color": "#84c6f2",
        "weight": 1,
        "fill_opacity": 0.5,
        "line_opacity": 0.8
      },
      "geometry": {
        "type": "Polygon",
        "coordinates": [
          [
            [
              -94.0159979,
              45.0734133
            ],
            [
              -94.0165538,
              45.0734645
            ],
            [
              -94.0171131,
              45.0734806
            ],
            [
              -94.0176704,
              45.0734611
            ],
            [
              -94.0182202,
              45.0734064
            ],
            [
              -94.0187573,
              45.073317
            ],
            [
              -94.0192765,
              45.0731937
            ],
            [
              -94.0197729,
              45.0730377
            ],
            [
              -94.0202415,
              45.0728505
            ],
            [
              -94.020678,
              45.072634
            ],
            [
              -94.0210781,
              45.0723901
            ],
            [
              -94.021438,
              45.0721213
            ],
            [
              -94.0217542,
              45.0718302
            ],
            [
              -94.0220236,
              45.0715195
            ],
            [
              -94.0222436,
              45.0711923
            ],
            [
              -94.0224122,
              45.0708516
            ],
            [
              -94.0225278,
              45.0705008
            ],
            [
              -94.0225891,
              45.0701433
            ],
            [
              -94.0225956,
              45.0697824
            ],
            [
              -94.0225473,
              45.0694218
            ],
            [
              -94.0224446,
              45.0690647
            ],
            [
              -94.0222885,
              45.0687148
            ],
            [
              -94.0220805,
              45.0683753
            ],
            [
              -94.0218226,
              45.0680495
            ],
            [
              -94.0215173,
              45.0677406
            ],
            [
              -94.0211676,
              45.0674515
            ],
            [
              -94.0207767,
              45.067185
            ],
            [
              -94.0203485,
              45.0669438
            ],
            [
              -94.0198871,
              45.06673
            ],
            [
              -94.0193969,
              45.0665458
            ],
            [
              -94.0188827,
              45.0663929
            ],
            [
              -94.0183494,
              45.0662728
            ],
            [
              -94.0178021,
              45.0661867
            ],
            [
              -94.0172462,
              45.0661355
            ],
            [
              -94.0166869,
              45.0661194
            ],
            [
              -94.0161296,
              45.0661389
            ],
            [
              -94.0155798,
              45.0661936
            ],
            [
              -94.0150427,
              45.066283
            ],
            [
              -94.0145235,
              45.0664063
            ],
            [
              -94.0140271,
              45.0665623
            ],
            [
              -94.0135585,
              45.0667495
            ],
            [
              -94.013122,
              45.066966
            ],
            [
              -94.0127219,
              45.0672099
            ],
            [
              -94.012362,
              45.0674787
            ],
            [
              -94.0120458,
              45.0677698
            ],
            [
              -94.0117764,
              45.0680805
            ],
            [
              -94.0115564,
              45.0684077
            ],
            [
              -94.0113878,
              45.0687484
            ],
            [
              -94.0112722,
              45.0690992
            ],
            [
              -94.0112109,
              45.0694567
            ],
            [
              -94.0112044,
              45.0698176
            ],
            [
              -94.0112527,
              45.0701782
            ],
            [
              -94.0113554,
              45.0705353
            ],
            [
              -94.0115115,
              45.0708852
            ],
            [
              -94.0117195,
              45.0712247
            ],
            [
              -94.0119774,
              45.0715505
            ],
            [
              -94.0122827,
              45.0718594
            ],
            [
              -94.0126324,
              45.0721485
            ],
            [
              -94.0130233,
              45.072415
            ],
            [
              -94.0134515,
              45.0726562
            ],
            [
              -94.0139129,
              45.07287
            ],
            [
              -94.0144031,
              45.0730542
            ],
            [
              -94.0149173,
              45.0732071
            ],
            [
              -94.0154506,
              45.0733272
            ],
            [
              -94.0159979,
              45.0734133
            ]
          ]
        ]
      }
    },
    {
      "type": "Feature",
      "properties": {
        "lake": "Lake Montrose",
        "depth_ft": 8.2,
        "color": "#68b6ed",
        "weight": 1,
        "fill_opacity": 0.5,
        "line_opacity": 0.8
      },
      "geometry": {
        "type": "Polygon",
        "coordinates": [
          [
            [
              -94.0160993,
              45.0730069
            ],
            [
              -94.0165928,
              45.0730524
            ],
            [
              -94.0170892,
              45.0730666
            ],
            [
              -94.0175837,
              45.0730493
            ],
            [
              -94.0180717,
              45.0730008
            ],
            [
              -94.0185484,
              45.0729214
            ],
            [
              -94.0190092,
              45.072812
            ],
            [
              -94.0194498,
              45.0726735
            ],
            [
              -94.0198657,
              45.0725074
            ],
            [
              -94.0202531,
              45.0723152
            ],
            [
              -94.0206082,
              45.0720988
            ],
            [
              -94.0209276,
              45.0718603
            ],
            [
              -94.0212082,
              45.0716019
            ],
            [
              -94.0214473,
              45.0713261
            ],
            [
              -94.0216426,
              45.0710357
            ],
            [
              -94.0217923,
              45.0707333
            ],
            [
              -94.0218948,
              45.070422
            ],
            [
              -94.0219492,
              45.0701047
            ],
            [
              -94.021955,
              45.0697844
            ],
            [
              -94.0219122,
              45.0694643
            ],
            [
              -94.021821,
              45.0691474
            ],
            [
              -94.0216825,
              45.0688368
            ],
            [
              -94.0214979,
              45.0685355
            ],
            [
              -94.021269,
              45.0682464
            ],
            [
              -94.020998,
              45.0679722
            ],
            [
              -94.0206876,
              45.0677156
            ],
            [
              -94.0203407,
              45.0674792
            ],
            [
              -94.0199607,
              45.067265
            ],
            [
              -94.0195511,
              45.0670753
            ],
            [
              -94.0191161,
              45.0669118
            ],
            [
              -94.0186597,
              45.0667761
            ],
            [
              -94.0181864,
              45.0666695
            ],
            [
              -94.0177007,
              45.0665931
            ],
            [
              -94.0172072,
              45.0665476
            ],
            [
              -94.0167108,
              45.0665334
            ],
            [
              -94.0162163,
              45.0665507
            ],
            [
              -94.0157283,
              45.0665992
            ],
            [
              -94.0152516,
              45.0666786
            ],
            [
              -94.0147908,
              45.066788
            ],
            [
              -94.0143502,
              45.0669265
            ],
            [
              -94.0139343,
              45.0670926
            ],
            [
              -94.0135469,
              45.0672848
            ],
            [
              -94.0131918,
              45.0675012
            ],
            [
              -94.0128724,
              45.0677397
            ],
            [
              -94.0125918,
              45.0679981
            ],
            [
              -94.0123527,
              45.0682739
            ],
            [
              -94.0121574,
              45.0685643
            ],
            [
              -94.0120077,
              45.0688667
            ],
            [
              -94.0119052,
              45.069178
            ],
            [
              -94.0118508,
              45.0694953
            ],
            [
              -94.011845,
              45.0698156
            ],
            [
              -94.0118878,
              45.0701357
            ],
            [
              -94.011979,
              45.0704526
            ],
            [
              -94.0121175,
              45.0707632
            ],
            [
              -94.0123021,
              45.0710645
            ],
            [
              -94.012531,
              45.0713536
            ],
            [
              -94.012802,
              45.0716278
            ],
            [
              -94.0131124,
              45.0718844
            ],
            [
              -94.0134593,
              45.0721208
            ],
            [
              -94.0138393,
              45.072335
            ],
            [
              -94.0142489,
              45.0725247
            ],
            [
              -94.0146839,
              45.0726882
            ],
            [
              -94.0151403,
              45.0728239
            ],
            [
              -94.0156136,
              45.0729305
            ],
            [
              -94.0160993,
              45.0730069
            ]
          ]
        ]
      }
    },
    {
      "type": "Feature",
      "properties": {
        "lake": "Lake Montrose",
        "depth_ft": 11.0,
        "color": "#52a6e7",
        "weight": 1,
        "fill_opacity": 0.5,
        "line_opacity": 0.8
      },
      "geometry": {
        "type": "Polygon",
        "coordinates": [
          [
            [
              -94.0161998,
              45.0726046
            ],
            [
              -94.0166313,
              45.0726445
            ],
            [
              -94.0170654,
              45.0726569
            ],
            [
              -94.017498,
              45.0726418
            ],
            [
              -94.0179248,
              45.0725993
            ],
            [
              -94.0183417,
              45.0725299
            ],
            [
              -94.0187447,
              45.0724342
            ],
            [
              -94.0191299,
              45.0723131
            ],
            [
              -94.0194937,
              45.0721678
            ],
            [
              -94.0198325,
              45.0719997
            ],
            [
              -94.0201431,
              45.0718105
            ],
            [
              -94.0204224,
              45.0716018
            ],
            [
              -94.0206678,
              45.0713759
            ],
            [
              -94.020877,
              45.0711347
            ],
            [
              -94.0210478,
              45.0708807
            ],
            [
              -94.0211786,
              45.0706163
            ],
            [
              -94.0212683,
              45.070344
            ],
            [
              -94.0213159,
              45.0700665
            ],
            [
              -94.021321,
              45.0697864
            ],
            [
              -94.0212835,
              45.0695064
            ],
            [
              -94.0212038,
              45.0692293
            ],
            [
              -94.0210826,
              45.0689577
            ],
            [
              -94.0209211,
              45.0686941
            ],
            [
              -94.020721,
              45.0684413
            ],
            [
              -94.020484,
              45.0682015
            ],
            [
              -94.0202125,
              45.0679771
            ],
            [
              -94.0199091,
              45.0677703
            ],
            [
              -94.0195768,
              45.067583
            ],
            [
              -94.0192186,
              45.067417
            ],
            [
              -94.0188381,
              45.067274
            ],
            [
              -94.018439,
              45.0671554
            ],
            [
              -94.018025,
              45.0670622
            ],
            [
              -94.0176002,
              45.0669954
            ],
            [
              -94.0171687,
              45.0669555
            ],
            [
              -94.0167346,
              45.0669431
            ],
            [
              -94.016302,
              45.0669582
            ],
            [
              -94.0158752,
              45.0670007
            ],
            [
              -94.0154583,
              45.0670701
            ],
            [
              -94.0150553,
              45.0671658
            ],
            [
              -94.0146701,
              45.0672869
            ],
            [
              -94.0143063,
              45.0674322
            ],
            [
              -94.0139675,
              45.0676003
            ],
            [
              -94.0136569,
              45.0677895
            ],
            [
              -94.0133776,
              45.0679982
            ],
            [
              -94.0131322,
              45.0682241
            ],
            [
              -94.012923,
              45.0684653
            ],
            [
              -94.0127522,
              45.0687193
            ],
            [
              -94.0126214,
              45.0689837
            ],
            [
              -94.0125317,
              45.069256
            ],
            [
              -94.0124841,
              45.0695335
            ],
            [
              -94.012479,
              45.0698136
            ],
            [
              -94.0125165,
              45.0700936
            ],
            [
              -94.0125962,
              45.0703707
            ],
            [
              -94.0127174,
              45.0706423
            ],
            [
              -94.0128789,
              45.0709059
            ],
            [
              -94.013079,
              45.0711587
            ],
            [
              -94.013316,
              45.0713985
            ],
            [
              -94.0135875,
              45.0716229
            ],
            [
              -94.0138909,
              45.0718297
            ],
            [
              -94.0142232,
              45.072017
            ],
            [
              -94.0145814,
              45.072183
            ],
            [
              -94.0149619,
              45.072326
            ],
            [
              -94.015361,
              45.0724446
            ],
            [
              -94.015775,
              45.0725378
            ],
            [
              -94.0161998,
              45.0726046
            ]
          ]
        ]
      }
    },
    {
      "type": "Feature",
      "properties": {
        "lake": "Lake Montrose",
        "depth_ft": 13.8,
        "color": "#3f93da",
        "weight": 1,
        "fill_opacity": 0.5,
        "line_opacity": 0.8
      },
      "geometry": {
        "type": "Polygon",
        "coordinates": [
          [
            [
              -94.0163049,
              45.0721835
            ],
            [
              -94.0166717,
              45.0722173
            ],
            [
              -94.0170406,
              45.0722278
            ],
            [
              -94.0174082,
              45.072215
            ],
            [
              -94.0177709,
              45.0721789
            ],
            [
              -94.0181252,
              45.0721199
            ],
            [
              -94.0184677,
              45.0720386
            ],
            [
              -94.0187951,
              45.0719357
            ],
            [
              -94.0191042,
              45.0718123
            ],
            [
              -94.0193921,
              45.0716694
            ],
            [
              -94.0196561,
              45.0715086
            ],
            [
              -94.0198935,
              45.0713313
            ],
            [
              -94.020102,
              45.0711392
            ],
            [
              -94.0202797,
              45.0709343
            ],
            [
              -94.0204249,
              45.0707184
            ],
            [
              -94.0205361,
              45.0704937
            ],
            [
              -94.0206123,
              45.0702623
            ],
            [
              -94.0206528,
              45.0700264
            ],
            [
              -94.0206571,
              45.0697884
            ],
            [
              -94.0206252,
              45.0695505
            ],
            [
              -94.0205575,
              45.069315
            ],
            [
              -94.0204545,
              45.0690842
            ],
            [
              -94.0203173,
              45.0688602
            ],
            [
              -94.0201472,
              45.0686453
            ],
            [
              -94.0199458,
              45.0684415
            ],
            [
              -94.0197151,
              45.0682508
            ],
            [
              -94.0194572,
              45.0680751
            ],
            [
              -94.0191748,
              45.0679159
            ],
            [
              -94.0188704,
              45.0677749
            ],
            [
              -94.0185471,
              45.0676534
            ],
            [
              -94.0182079,
              45.0675525
            ],
            [
              -94.0178561,
              45.0674733
            ],
            [
              -94.0174951,
              45.0674165
            ],
            [
              -94.0171283,
              45.0673827
            ],
            [
              -94.0167594,
              45.0673722
            ],
            [
              -94.0163918,
              45.067385
            ],
            [
              -94.0160291,
              45.0674211
            ],
            [
              -94.0156748,
              45.0674801
            ],
            [
              -94.0153323,
              45.0675614
            ],
            [
              -94.0150049,
              45.0676643
            ],
            [
              -94.0146958,
              45.0677877
            ],
            [
              -94.0144079,
              45.0679306
            ],
            [
              -94.0141439,
              45.0680914
            ],
            [
              -94.0139065,
              45.0682687
            ],
            [
              -94.013698,
              45.0684608
            ],
            [
              -94.0135203,
              45.0686657
            ],
            [
              -94.0133751,
              45.0688816
            ],
            [
              -94.0132639,
              45.0691063
            ],
            [
              -94.0131877,
              45.0693377
            ],
            [
              -94.0131472,
              45.0695736
            ],
            [
              -94.0131429,
              45.0698116
            ],
            [
              -94.0131748,
              45.0700495
            ],
            [
              -94.0132425,
              45.070285
            ],
            [
              -94.0133455,
              45.0705158
            ],
            [
              -94.0134827,
              45.0707398
            ],
            [
              -94.0136528,
              45.0709547
            ],
            [
              -94.0138542,
              45.0711585
            ],
            [
              -94.0140849,
              45.0713492
            ],
            [
              -94.0143428,
              45.0715249
            ],
            [
              -94.0146252,
              45.0716841
            ],
            [
              -94.0149296,
              45.0718251
            ],
            [
              -94.0152529,
              45.0719466
            ],
            [
              -94.0155921,
              45.0720475
            ],
            [
              -94.0159439,
              45.0721267
            ],
            [
              -94.0163049,
              45.0721835
            ]
          ]
        ]
      }
    },
    {
      "type": "Feature",
      "properties": {
        "lake": "Lake Montrose",
        "depth_ft": 16.5,
        "color": "#3077bc",
        "weight": 1,
        "fill_opacity": 0.5,
        "line_opacity": 0.8
      },
      "geometry": {
        "type": "Polygon",
        "coordinates": [
          [
            [
              -94.016422,
              45.0717144
            ],
            [
              -94.0167166,
              45.0717416
            ],
            [
              -94.0170129,
              45.0717501
            ],
            [
              -94.0173082,
              45.0717398
            ],
            [
              -94.0175995,
              45.0717108
            ],
            [
              -94.0178841,
              45.0716634
            ],
            [
              -94.0181592,
              45.0715981
            ],
            [
              -94.0184222,
              45.0715154
            ],
            [
              -94.0186705,
              45.0714163
            ],
            [
              -94.0189017,
              45.0713015
            ],
            [
              -94.0191137,
              45.0711723
            ],
            [
              -94.0193044,
              45.0710299
            ],
            [
              -94.0194719,
              45.0708757
            ],
            [
              -94.0196147,
              45.0707111
            ],
            [
              -94.0197313,
              45.0705377
            ],
            [
              -94.0198206,
              45.0703572
            ],
            [
              -94.0198818,
              45.0701713
            ],
            [
              -94.0199143,
              45.0699819
            ],
            [
              -94.0199178,
              45.0697907
            ],
            [
              -94.0198922,
              45.0695996
            ],
            [
              -94.0198377,
              45.0694104
            ],
            [
              -94.019755,
              45.069225
            ],
            [
              -94.0196448,
              45.0690451
            ],
            [
              -94.0195082,
              45.0688725
            ],
            [
              -94.0193464,
              45.0687089
            ],
            [
              -94.0191611,
              45.0685557
            ],
            [
              -94.018954,
              45.0684145
            ],
            [
              -94.0187271,
              45.0682867
            ],
            [
              -94.0184827,
              45.0681734
            ],
            [
              -94.018223,
              45.0680758
            ],
            [
              -94.0179505,
              45.0679948
            ],
            [
              -94.0176679,
              45.0679312
            ],
            [
              -94.017378,
              45.0678856
            ],
            [
              -94.0170834,
              45.0678584
            ],
            [
              -94.0167871,
              45.0678499
            ],
            [
              -94.0164918,
              45.0678602
            ],
            [
              -94.0162005,
              45.0678892
            ],
            [
              -94.0159159,
              45.0679366
            ],
            [
              -94.0156408,
              45.0680019
            ],
            [
              -94.0153778,
              45.0680846
            ],
            [
              -94.0151295,
              45.0681837
            ],
            [
              -94.0148983,
              45.0682985
            ],
            [
              -94.0146863,
              45.0684277
            ],
            [
              -94.0144956,
              45.0685701
            ],
            [
              -94.0143281,
              45.0687243
            ],
            [
              -94.0141853,
              45.0688889
            ],
            [
              -94.0140687,
              45.0690623
            ],
            [
              -94.0139794,
              45.0692428
            ],
            [
              -94.0139182,
              45.0694287
            ],
            [
              -94.0138857,
              45.0696181
            ],
            [
              -94.0138822,
              45.0698093
            ],
            [
              -94.0139078,
              45.0700004
            ],
            [
              -94.0139623,
              45.0701896
            ],
            [
              -94.014045,
              45.070375
            ],
            [
              -94.0141552,
              45.0705549
            ],
            [
              -94.0142918,
              45.0707275
            ],
            [
              -94.0144536,
              45.0708911
            ],
            [
              -94.0146389,
              45.0710443
            ],
            [
              -94.014846,
              45.0711855
            ],
            [
              -94.0150729,
              45.0713133
            ],
            [
              -94.0153173,
              45.0714266
            ],
            [
              -94.015577,
              45.0715242
            ],
            [
              -94.0158495,
              45.0716052
            ],
            [
              -94.0161321,
              45.0716688
            ],
            [
              -94.016422,
              45.0717144
            ]
          ]
        ]
      }
    },
    {
      "type": "Feature",
      "properties": {
        "lake": "Lake Montrose",
        "depth_ft": 19.2,
        "color": "#245790",
        "weight": 1,
        "fill_opacity": 0.5,
        "line_opacity": 0.8
      },
      "geometry": {
        "type": "Polygon",
        "coordinates": [
          [
            [
              -94.0165669,
              45.0711342
            ],
            [
              -94.0167722,
              45.0711531
            ],
            [
              -94.0169787,
              45.071159
            ],
            [
              -94.0171845,
              45.0711518
            ],
            [
              -94.0173875,
              45.0711316
            ],
            [
              -94.0175858,
              45.0710986
            ],
            [
              -94.0177775,
              45.0710531
            ],
            [
              -94.0179608,
              45.0709955
            ],
            [
              -94.0181338,
              45.0709264
            ],
            [
              -94.018295,
              45.0708464
            ],
            [
              -94.0184427,
              45.0707564
            ],
            [
              -94.0185756,
              45.0706571
            ],
            [
              -94.0186923,
              45.0705496
            ],
            [
              -94.0187918,
              45.0704349
            ],
            [
              -94.0188731,
              45.0703141
            ],
            [
              -94.0189353,
              45.0701883
            ],
            [
              -94.018978,
              45.0700588
            ],
            [
              -94.0190006,
              45.0699268
            ],
            [
              -94.019003,
              45.0697935
            ],
            [
              -94.0189852,
              45.0696603
            ],
            [
              -94.0189473,
              45.0695285
            ],
            [
              -94.0188896,
              45.0693993
            ],
            [
              -94.0188128,
              45.0692739
            ],
            [
              -94.0187176,
              45.0691537
            ],
            [
              -94.0186049,
              45.0690396
            ],
            [
              -94.0184758,
              45.0689328
            ],
            [
              -94.0183314,
              45.0688345
            ],
            [
              -94.0181733,
              45.0687454
            ],
            [
              -94.018003,
              45.0686664
            ],
            [
              -94.017822,
              45.0685984
            ],
            [
              -94.0176321,
              45.068542
            ],
            [
              -94.0174352,
              45.0684976
            ],
            [
              -94.0172331,
              45.0684658
            ],
            [
              -94.0170278,
              45.0684469
            ],
            [
              -94.0168213,
              45.068441
            ],
            [
              -94.0166155,
              45.0684482
            ],
            [
              -94.0164125,
              45.0684684
            ],
            [
              -94.0162142,
              45.0685014
            ],
            [
              -94.0160225,
              45.0685469
            ],
            [
              -94.0158392,
              45.0686045
            ],
            [
              -94.0156662,
              45.0686736
            ],
            [
              -94.015505,
              45.0687536
            ],
            [
              -94.0153573,
              45.0688436
            ],
            [
              -94.0152244,
              45.0689429
            ],
            [
              -94.0151077,
              45.0690504
            ],
            [
              -94.0150082,
              45.0691651
            ],
            [
              -94.0149269,
              45.0692859
            ],
            [
              -94.0148647,
              45.0694117
            ],
            [
              -94.014822,
              45.0695412
            ],
            [
              -94.0147994,
              45.0696732
            ],
            [
              -94.014797,
              45.0698065
            ],
            [
              -94.0148148,
              45.0699397
            ],
            [
              -94.0148527,
              45.0700715
            ],
            [
              -94.0149104,
              45.0702007
            ],
            [
              -94.0149872,
              45.0703261
            ],
            [
              -94.0150824,
              45.0704463
            ],
            [
              -94.0151951,
              45.0705604
            ],
            [
              -94.0153242,
              45.0706672
            ],
            [
              -94.0154686,
              45.0707655
            ],
            [
              -94.0156267,
              45.0708546
            ],
            [
              -94.015797,
              45.0709336
            ],
            [
              -94.015978,
              45.0710016
            ],
            [
              -94.0161679,
              45.071058
            ],
            [
              -94.0163648,
              45.0711024
            ],
            [
              -94.0165669,
              45.0711342
            ]
          ]
        ]
      }
    }
  ]
}