{
  "type": "FeatureCollection",
  "features": [
    {
      "type": "Feature",
      "properties": {
        "lake": "Lake Sylvia",
        "depth_ft": 6.5,
        "color": "#a5d7f5",
        "weight": 1,
        "fill_opacity": 0.5,
        "line_opacity": 0.8
      },
      "geometry": {
        "type": "Polygon",
        "coordinates": [
          [
            [
              -93.9903772,
              45.2892561
            ],
            [
              -93.9911208,
              45.2897411
            ],
            [
              -93.9919113,
              45.2901834
            ],
            [
              -93.9927412,
              45.2905786
            ],
            [
              -93.9936025,
              45.290923
            ],
            [
              -93.9944869,
              45.2912133
            ],
            [
              -93.9953858,
              45.2914466
            ],
            [
              -93.9962907,
              45.2916207
            ],
            [
              -93.9971928,
              45.2917339
            ],
            [
              -93.9980834,
              45.2917852
            ],
            [
              -93.9989539,
              45.291774
            ],
            [
              -93.9997959,
              45.2917005
            ],
            [
              -94.0006015,
              45.2915653
            ],
            [
              -94.0013627,
              45.2913698
            ],
            [
              -94.0020722,
              45.2911158
            ],
            [
              -94.0027233,
              45.2908059
            ],
            [
              -94.0033096,
              45.2904429
            ],
            [
              -94.0038255,
              45.2900303
            ],
            [
              -94.0042661,
              45.2895723
            ],
            [
              -94.0046271,
              45.289073
            ],
            [
              -94.0049049,
              45.2885375
            ],
            [
              -94.0050971,
              45.2879707
            ],
            [
              -94.0052016,
              45.2873783
            ],
            [
              -94.0052175,
              45.2867658
            ],
            [
              -94.0051446,
              45.2861392
            ],
            [
              -94.0049836,
              45.2855045
            ],
            [
              -94.0047362,
              45.2848679
            ],
            [
              -94.0044046,
              45.2842354
            ],
            [
              -94.003992,
              45.2836132
            ],
            [
              -94.0035025,
              45.2830072
            ],
            [
              -94.0029408,
              45.2824233
            ],
            [
              -94.0023122,
              45.2818671
            ],
            [
              -94.0016228,
              45.2813439
            ],
            [
              -94.0008792,
              45.2808589
            ],
            [
              -94.0000887,
              45.2804166
            ],
            [
              -93.9992588,
              45.2800214
            ],
            [
              -93.9983975,
              45.279677
            ],
            [
              -93.9975131,
              45.2793867
            ],
            [
              -93.9966142,
              45.2791534
            ],
            [
              -93.9957093,
              45.2789793
            ],
            [
              -93.9948072,
              45.2788661
            ],
            [
              -93.9939166,
              45.2788148
            ],
            [
              -93.9930461,
              45.278826
            ],
            [
              -93.9922041,
              45.2788995
            ],
            [
              -93.9913985,
              45.2790347
            ],
            [
              -93.9906373,
              45.2792302
            ],
            [
              -93.9899278,
              45.2794842
            ],
            [
              -93.9892767,
              45.2797941
            ],
            [
              -93.9886904,
              45.2801571
            ],
            [
              -93.9881745,
              45.2805697
            ],
            [
              -93.9877339,
              45.2810277
            ],
            [
              -93.9873729,
              45.281527
            ],
            [
              -93.9870951,
              45.2820625
            ],
            [
              -93.9869029,
              45.2826293
            ],
            [
              -93.9867984,
              45.2832217
            ],
            [
              -93.9867825,
              45.2838342
            ],
            [
              -93.9868554,
              45.2844608
            ],
            [
              -93.9870164,
              45.2850955
            ],
            [
              -93.9872638,
              45.2857321
            ],
            [
              -93.9875954,
              45.2863646
            ],
            [
              -93.988008,
              45.2869868
            ],
            [
              -93.9884975,
              45.2875928
            ],
            [
              -93.9890592,
              45.2881767
            ],
            [
              -93.9896878,
              45.2887329
            ],
            [
              -93.9903772,
              45.2892561
            ]
          ]
        ]
      }
    },
    {
      "type": "Feature",
      "properties": {
        "lake": "Lake Sylvia",
        "depth_ft": 13.0,
        "color": "#84c6f2",
        "weight": 1,
        "fill_opacity": 0.5,
        "line_opacity": 0.8
      },
      "geometry": {
        "type": "Polygon",
        "coordinates": [
          [
            [
              -93.9909953,
              45.2888212
            ],
            [
              -93.9916571,
              45.2892529
            ],
            [
              -93.9923607,
              45.2896466
            ],
            [
              -93.9930994,
              45.2899984
            ],
            [
              -93.993866,
              45.2903049
            ],
            [
              -93.9946532,
              45.2905633
            ],
            [
              -93.9954533,
              45.2907709
            ],
            [
              -93.9962587,
              45.2909259
            ],
            [
              -93.9970617,
              45.2910267
            ],
            [
              -93.9978543,
              45.2910723
            ],
            [
              -93.9986292,
              45.2910624
            ],
            [
              -93.9993787,
              45.2909969
            ],
            [
              -94.0000956,
              45.2908766
            ],
            [
              -94.0007732,
              45.2907026
            ],
            [
              -94.0014047,
              45.2904765
            ],
            [
              -94.0019842,
              45.2902006
            ],
            [
              -94.0025061,
              45.2898775
            ],
            [
              -94.0029653,
              45.2895104
            ],
            [
              -94.0033575,
              45.2891026
            ],
            [
              -94.0036787,
              45.2886583
            ],
            [
              -94.0039261,
              45.2881816
            ],
            [
              -94.0040971,
              45.2876772
            ],
            [
              -94.0041901,
              45.2871498
            ],
            [
              -94.0042042,
              45.2866047
            ],
            [
              -94.0041394,
              45.286047
            ],
            [
              -94.0039961,
              45.285482
            ],
            [
              -94.0037758,
              45.2849154
            ],
            [
              -94.0034807,
              45.2843524
            ],
            [
              -94.0031135,
              45.2837986
            ],
            [
              -94.0026778,
              45.2832592
            ],
            [
              -94.0021778,
              45.2827395
            ],
            [
              -94.0016183,
              45.2822444
            ],
            [
              -94.0010047,
              45.2817788
            ],
            [
              -94.0003429,
              45.2813471
            ],
            [
              -93.9996393,
              45.2809534
            ],
            [
              -93.9989006,
              45.2806016
            ],
            [
              -93.998134,
              45.2802951
            ],
            [
              -93.9973468,
              45.2800367
            ],
            [
              -93.9965467,
              45.2798291
            ],
            [
              -93.9957413,
              45.2796741
            ],
            [
              -93.9949383,
              45.2795733
            ],
            [
              -93.9941457,
              45.2795277
            ],
            [
              -93.9933708,
              45.2795376
            ],
            [
              -93.9926213,
              45.2796031
            ],
            [
              -93.9919044,
              45.2797234
            ],
            [
              -93.9912268,
              45.2798974
            ],
            [
              -93.9905953,
              45.2801235
            ],
            [
              -93.9900158,
              45.2803994
            ],
            [
              -93.9894939,
              45.2807225
            ],
            [
              -93.9890347,
              45.2810896
            ],
            [
              -93.9886425,
              45.2814974
            ],
            [
              -93.9883213,
              45.2819417
            ],
            [
              -93.9880739,
              45.2824184
            ],
            [
              -93.9879029,
              45.2829228
            ],
            [
              -93.9878099,
              45.2834502
            ],
            [
              -93.9877958,
              45.2839953
            ],
            [
              -93.9878606,
              45.284553
            ],
            [
              -93.9880039,
              45.285118
            ],
            [
              -93.9882242,
              45.2856846
            ],
            [
              -93.9885193,
              45.2862476
            ],
            [
              -93.9888865,
              45.2868014
            ],
            [
              -93.9893222,
              45.2873408
            ],
            [
              -93.9898222,
              45.2878605
            ],
            [
              -93.9903817,
              45.2883556
            ],
            [
              -93.9909953,
              45.2888212
            ]
          ]
        ]
      }
    },
    {
      "type": "Feature",
      "properties": {
        "lake": "Lake Sylvia",
        "depth_ft": 19.5,
        "color": "#68b6ed",
        "weight": 1,
        "fill_opacity": 0.5,
        "line_opacity": 0.8
      },
      "geometry": {
        "type": "Polygon",
        "coordinates": [
          [
            [
              -93.9915582,
              45.2884252
            ],
            [
              -93.9921456,
              45.2888083
            ],
            [
              -93.9927701,
              45.2891577
            ],
            [
              -93.9934257,
              45.2894699
            ],
            [
              -93.994106,
              45.289742
            ],
            [
              -93.9948047,
              45.2899713
            ],
            [
              -93.9955148,
              45.2901556
            ],
            [
              -93.9962296,
              45.2902931
            ],
            [
              -93.9969423,
              45.2903826
            ],
            [
              -93.9976458,
              45.2904231
            ],
            [
              -93.9983335,
              45.2904143
            ],
            [
              -93.9989987,
              45.2903562
            ],
            [
              -93.999635,
              45.2902494
            ],
            [
              -94.0002363,
              45.290095
            ],
            [
              -94.0007969,
              45.2898943
            ],
            [
              -94.0013112,
              45.2896495
            ],
            [
              -94.0017744,
              45.2893627
            ],
            [
              -94.0021819,
              45.2890368
            ],
            [
              -94.00253,
              45.288675
            ],
            [
              -94.0028151,
              45.2882806
            ],
            [
              -94.0030346,
              45.2878575
            ],
            [
              -94.0031864,
              45.2874098
            ],
            [
              -94.0032689,
              45.2869418
            ],
            [
              -94.0032815,
              45.2864579
            ],
            [
              -94.0032239,
              45.2859629
            ],
            [
              -94.0030968,
              45.2854616
            ],
            [
              -94.0029013,
              45.2849586
            ],
            [
              -94.0026393,
              45.284459
            ],
            [
              -94.0023135,
              45.2839675
            ],
            [
              -94.0019268,
              45.2834887
            ],
            [
              -94.001483,
              45.2830275
            ],
            [
              -94.0009864,
              45.2825881
            ],
            [
              -94.0004418,
              45.2821748
            ],
            [
              -93.9998544,
              45.2817917
            ],
            [
              -93.9992299,
              45.2814423
            ],
            [
              -93.9985743,
              45.2811301
            ],
            [
              -93.997894,
              45.280858
            ],
            [
              -93.9971953,
              45.2806287
            ],
            [
              -93.9964852,
              45.2804444
            ],
            [
              -93.9957704,
              45.2803069
            ],
            [
              -93.9950577,
              45.2802174
            ],
            [
              -93.9943542,
              45.2801769
            ],
            [
              -93.9936665,
              45.2801857
            ],
            [
              -93.9930013,
              45.2802438
            ],
            [
              -93.992365,
              45.2803506
            ],
            [
              -93.9917637,
              45.280505
            ],
            [
              -93.9912031,
              45.2807057
            ],
            [
              -93.9906888,
              45.2809505
            ],
            [
              -93.9902256,
              45.2812373
            ],
            [
              -93.9898181,
              45.2815632
            ],
            [
              -93.98947,
              45.281925
            ],
            [
              -93.9891849,
              45.2823194
            ],
            [
              -93.9889654,
              45.2827425
            ],
            [
              -93.9888136,
              45.2831902
            ],
            [
              -93.9887311,
              45.2836582
            ],
            [
              -93.9887185,
              45.2841421
            ],
            [
              -93.9887761,
              45.2846371
            ],
            [
              -93.9889032,
              45.2851384
            ],
            [
              -93.9890987,
              45.2856414
            ],
            [
              -93.9893607,
              45.286141
            ],
            [
              -93.9896865,
              45.2866325
            ],
            [
              -93.9900732,
              45.2871113
            ],
            [
              -93.990517,
              45.2875725
            ],
            [
              -93.9910136,
              45.2880119
            ],
            [
              -93.9915582,
              45.2884252
            ]
          ]
        ]
      }
    },
    {
      "type": "Feature",
      "properties": {
        "lake": "Lake Sylvia",
        "depth_ft": 26.0,
        "color": "#52a6e7",
        "weight": 1,
        "fill_opacity": 0.5,
        "line_opacity": 0.8
      },
      "geometry": {
        "type": "Polygon",
        "coordinates": [
          [
            [
              -93.9921153,
              45.2880332
            ],
            [
              -93.992629,
              45.2883683
            ],
            [
              -93.9931752,
              45.2886738
            ],
            [
              -93.9937486,
              45.2889469
            ],
            [
              -93.9943436,
              45.2891848
            ],
            [
              -93.9949546,
              45.2893854
            ],
            [
              -93.9955757,
              45.2895466
            ],
            [
              -93.9962008,
              45.2896669
            ],
            [
              -93.9968241,
              45.2897451
            ],
            [
              -93.9974394,
              45.2897805
            ],
            [
              -93.9980408,
              45.2897728
            ],
            [
              -93.9986226,
              45.289722
            ],
            [
              -93.9991791,
              45.2896286
            ],
            [
              -93.999705,
              45.2894935
            ],
            [
              -94.0001952,
              45.2893181
            ],
            [
              -94.000645,
              45.2891039
            ],
            [
              -94.0010501,
              45.2888531
            ],
            [
              -94.0014065,
              45.2885681
            ],
            [
              -94.0017109,
              45.2882516
            ],
            [
              -94.0019603,
              45.2879067
            ],
            [
              -94.0021523,
              45.2875367
            ],
            [
              -94.002285,
              45.2871452
            ],
            [
              -94.0023572,
              45.2867358
            ],
            [
              -94.0023682,
              45.2863127
            ],
            [
              -94.0023178,
              45.2858798
            ],
            [
              -94.0022066,
              45.2854413
            ],
            [
              -94.0020357,
              45.2850015
            ],
            [
              -94.0018066,
              45.2845645
            ],
            [
              -94.0015216,
              45.2841346
            ],
            [
              -94.0011834,
              45.2837159
            ],
            [
              -94.0007953,
              45.2833125
            ],
            [
              -94.000361,
              45.2829283
            ],
            [
              -93.9998847,
              45.2825668
            ],
            [
              -93.999371,
              45.2822317
            ],
            [
              -93.9988248,
              45.2819262
            ],
            [
              -93.9982514,
              45.2816531
            ],
            [
              -93.9976564,
              45.2814152
            ],
            [
              -93.9970454,
              45.2812146
            ],
            [
              -93.9964243,
              45.2810534
            ],
            [
              -93.9957992,
              45.2809331
            ],
            [
              -93.9951759,
              45.2808549
            ],
            [
              -93.9945606,
              45.2808195
            ],
            [
              -93.9939592,
              45.2808272
            ],
            [
              -93.9933774,
              45.280878
            ],
            [
              -93.9928209,
              45.2809714
            ],
            [
              -93.992295,
              45.2811065
            ],
            [
              -93.9918048,
              45.2812819
            ],
            [
              -93.991355,
              45.2814961
            ],
            [
              -93.9909499,
              45.2817469
            ],
            [
              -93.9905935,
              45.2820319
            ],
            [
              -93.9902891,
              45.2823484
            ],
            [
              -93.9900397,
              45.2826933
            ],
            [
              -93.9898477,
              45.2830633
            ],
            [
              -93.989715,
              45.2834548
            ],
            [
              -93.9896428,
              45.2838642
            ],
            [
              -93.9896318,
              45.2842873
            ],
            [
              -93.9896822,
              45.2847202
            ],
            [
              -93.9897934,
              45.2851587
            ],
            [
              -93.9899643,
              45.2855985
            ],
            [
              -93.9901934,
              45.2860355
            ],
            [
              -93.9904784,
              45.2864654
            ],
            [
              -93.9908166,
              45.2868841
            ],
            [
              -93.9912047,
              45.2872875
            ],
            [
              -93.991639,
              45.2876717
            ],
            [
              -93.9921153,
              45.2880332
            ]
          ]
        ]
      }
    },
    {
      "type": "Feature",
      "properties": {
        "lake": "Lake Sylvia",
        "depth_ft": 32.5,
        "color": "#3f93da",
        "weight": 1,
        "fill_opacity": 0.5,
        "line_opacity": 0.8
      },
      "geometry": {
        "type": "Polygon",
        "coordinates": [
          [
            [
              -93.9926987,
              45.2876227
            ],
            [
              -93.9931352,
              45.2879075
            ],
            [
              -93.9935994,
              45.2881672
            ],
            [
              -93.9940867,
              45.2883992
            ],
            [
              -93.9945924,
              45.2886014
            ],
            [
              -93.9951116,
              45.2887719
            ],
            [
              -93.9956394,
              45.2889088
            ],
            [
              -93.9961707,
              45.2890111
            ],
            [
              -93.9967003,
              45.2890776
            ],
            [
              -93.9972232,
              45.2891077
            ],
            [
              -93.9977343,
              45.2891011
            ],
            [
              -93.9982287,
              45.2890579
            ],
            [
              -93.9987017,
              45.2889786
            ],
            [
              -93.9991486,
              45.2888638
            ],
            [
              -93.9995652,
              45.2887147
            ],
            [
              -93.9999475,
              45.2885327
            ],
            [
              -94.0002917,
              45.2883195
            ],
            [
              -94.0005946,
              45.2880773
            ],
            [
              -94.0008533,
              45.2878084
            ],
            [
              -94.0010652,
              45.2875153
            ],
            [
              -94.0012284,
              45.2872008
            ],
            [
              -94.0013412,
              45.2868681
            ],
            [
              -94.0014025,
              45.2865202
            ],
            [
              -94.0014119,
              45.2861606
            ],
            [
              -94.0013691,
              45.2857927
            ],
            [
              -94.0012746,
              45.2854201
            ],
            [
              -94.0011293,
              45.2850463
            ],
            [
              -94.0009346,
              45.2846749
            ],
            [
              -94.0006924,
              45.2843096
            ],
            [
              -94.000405,
              45.2839538
            ],
            [
              -94.0000751,
              45.283611
            ],
            [
              -93.9997061,
              45.2832844
            ],
            [
              -93.9993013,
              45.2829773
            ],
            [
              -93.9988648,
              45.2826925
            ],
            [
              -93.9984006,
              45.2824328
            ],
            [
              -93.9979133,
              45.2822008
            ],
            [
              -93.9974076,
              45.2819986
            ],
            [
              -93.9968884,
              45.2818281
            ],
            [
              -93.9963606,
              45.2816912
            ],
            [
              -93.9958293,
              45.2815889
            ],
            [
              -93.9952997,
              45.2815224
            ],
            [
              -93.9947768,
              45.2814923
            ],
            [
              -93.9942657,
              45.2814989
            ],
            [
              -93.9937713,
              45.2815421
            ],
            [
              -93.9932983,
              45.2816214
            ],
            [
              -93.9928514,
              45.2817362
            ],
            [
              -93.9924348,
              45.2818853
            ],
            [
              -93.9920525,
              45.2820673
            ],
            [
              -93.9917083,
              45.2822805
            ],
            [
              -93.9914054,
              45.2825227
            ],
            [
              -93.9911467,
              45.2827916
            ],
            [
              -93.9909348,
              45.2830847
            ],
            [
              -93.9907716,
              45.2833992
            ],
            [
              -93.9906588,
              45.2837319
            ],
            [
              -93.9905975,
              45.2840798
            ],
            [
              -93.9905881,
              45.2844394
            ],
            [
              -93.9906309,
              45.2848073
            ],
            [
              -93.9907254,
              45.2851799
            ],
            [
              -93.9908707,
              45.2855537
            ],
            [
              -93.9910654,
              45.2859251
            ],
            [
              -93.9913076,
              45.2862904
            ],
            [
              -93.991595,
              45.2866462
            ],
            [
              -93.9919249,
              45.286989
            ],
            [
              -93.9922939,
              45.2873156
            ],
            [
              -93.9926987,
              45.2876227
            ]
          ]
        ]
      }
    },
    {
      "type": "Feature",
      "properties": {
        "lake": "Lake Sylvia",
        "depth_ft": 39.0,
        "color": "#3077bc",
        "weight": 1,
        "fill_opacity": 0.5,
        "line_opacity": 0.8
      },
      "geometry": {
        "type": "Polygon",
        "coordinates": [
          [
            [
              -93.9933483,
              45.2871657
            ],
            [
              -93.993699,
              45.2873944
            ],
            [
              -93.9940718,
              45.287603
            ],
            [
              -93.9944632,
              45.2877894
            ],
            [
              -93.9948694,
              45.2879518
            ],
            [
              -93.9952864,
              45.2880887
            ],
            [
              -93.9957104,
              45.2881987
            ],
            [
              -93.9961371,
              45.2882808
            ],
            [
              -93.9965625,
              45.2883342
            ],
            [
              -93.9969825,
              45.2883584
            ],
            [
              -93.997393,
              45.2883531
            ],
            [
              -93.9977901,
              45.2883184
            ],
            [
              -93.99817,
              45.2882547
            ],
            [
              -93.998529,
              45.2881625
            ],
            [
              -93.9988636,
              45.2880427
            ],
            [
              -93.9991707,
              45.2878965
            ],
            [
              -93.9994472,
              45.2877254
            ],
            [
              -93.9996905,
              45.2875308
            ],
            [
              -93.9998983,
              45.2873148
            ],
            [
              -94.0000685,
              45.2870793
            ],
            [
              -94.0001995,
              45.2868268
            ],
            [
              -94.0002901,
              45.2865595
            ],
            [
              -94.0003394,
              45.2862801
            ],
            [
              -94.0003469,
              45.2859913
            ],
            [
              -94.0003125,
              45.2856958
            ],
            [
              -94.0002366,
              45.2853965
            ],
            [
              -94.0001199,
              45.2850962
            ],
            [
              -93.9999636,
              45.2847979
            ],
            [
              -93.999769,
              45.2845045
            ],
            [
              -93.9995382,
              45.2842187
            ],
            [
              -93.9992732,
              45.2839434
            ],
            [
              -93.9989768,
              45.2836811
            ],
            [
              -93.9986517,
              45.2834343
            ],
            [
              -93.998301,
              45.2832056
            ],
            [
              -93.9979282,
              45.282997
            ],
            [
              -93.9975368,
              45.2828106
            ],
            [
              -93.9971306,
              45.2826482
            ],
            [
              -93.9967136,
              45.2825113
            ],
            [
              -93.9962896,
              45.2824013
            ],
            [
              -93.9958629,
              45.2823192
            ],
            [
              -93.9954375,
              45.2822658
            ],
            [
              -93.9950175,
              45.2822416
            ],
            [
              -93.994607,
              45.2822469
            ],
            [
              -93.9942099,
              45.2822816
            ],
            [
              -93.99383,
              45.2823453
            ],
            [
              -93.993471,
              45.2824375
            ],
            [
              -93.9931364,
              45.2825573
            ],
            [
              -93.9928293,
              45.2827035
            ],
            [
              -93.9925528,
              45.2828746
            ],
            [
              -93.9923095,
              45.2830692
            ],
            [
              -93.9921017,
              45.2832852
            ],
            [
              -93.9919315,
              45.2835207
            ],
            [
              -93.9918005,
              45.2837732
            ],
            [
              -93.9917099,
              45.2840405
            ],
            [
              -93.9916606,
              45.2843199
            ],
            [
              -93.9916531,
              45.2846087
            ],
            [
              -93.9916875,
              45.2849042
            ],
            [
              -93.9917634,
              45.2852035
            ],
            [
              -93.9918801,
              45.2855038
            ],
            [
              -93.9920364,
              45.2858021
            ],
            [
              -93.992231,
              45.2860955
            ],
            [
              -93.9924618,
              45.2863813
            ],
            [
              -93.9927268,
              45.2866566
            ],
            [
              -93.9930232,
              45.2869189
            ],
            [
              -93.9933483,
              45.2871657
            ]
          ]
        ]
      }
    },
    {
      "type": "Feature",
      "properties": {
        "lake": "Lake Sylvia",
        "depth_ft": 45.5,
        "color": "#245790",
        "weight": 1,
        "fill_opacity": 0.5,
        "line_opacity": 0.8
      },
      "geometry": {
        "type": "Polygon",
        "coordinates": [
          [
            [
              -93.9941521,
              45.2866002
            ],
            [
              -93.9943964,
              45.2867596
            ],
            [
              -93.9946562,
              45.2869049
            ],
            [
              -93.994929,
              45.2870348
            ],
            [
              -93.9952121,
              45.287148
            ],
            [
              -93.9955027,
              45.2872434
            ],
            [
              -93.9957982,
              45.2873201
            ],
            [
              -93.9960955,
              45.2873773
            ],
            [
              -93.996392,
              45.2874145
            ],
            [
              -93.9966847,
              45.2874314
            ],
            [
              -93.9969708,
              45.2874277
            ],
            [
              -93.9972475,
              45.2874035
            ],
            [
              -93.9975123,
              45.2873591
            ],
            [
              -93.9977624,
              45.2872948
            ],
            [
              -93.9979956,
              45.2872114
            ],
            [
              -93.9982096,
              45.2871095
            ],
            [
              -93.9984023,
              45.2869902
            ],
            [
              -93.9985719,
              45.2868546
            ],
            [
              -93.9987167,
              45.2867041
            ],
            [
              -93.9988353,
              45.28654
            ],
            [
              -93.9989266,
              45.286364
            ],
            [
              -93.9989898,
              45.2861777
            ],
            [
              -93.9990241,
              45.285983
            ],
            [
              -93.9990293,
              45.2857817
            ],
            [
              -93.9990054,
              45.2855758
            ],
            [
              -93.9989525,
              45.2853672
            ],
            [
              -93.9988712,
              45.285158
            ],
            [
              -93.9987622,
              45.2849501
            ],
            [
              -93.9986266,
              45.2847456
            ],
            [
              -93.9984657,
              45.2845465
            ],
            [
              -93.9982811,
              45.2843546
            ],
            [
              -93.9980745,
              45.2841718
            ],
            [
              -93.9978479,
              45.2839998
            ],
            [
              -93.9976036,
              45.2838404
            ],
            [
              -93.9973438,
              45.2836951
            ],
            [
              -93.997071,
              45.2835652
            ],
            [
              -93.9967879,
              45.283452
            ],
            [
              -93.9964973,
              45.2833566
            ],
            [
              -93.9962018,
              45.2832799
            ],
            [
              -93.9959045,
              45.2832227
            ],
            [
              -93.995608,
              45.2831855
            ],
            [
              -93.9953153,
              45.2831686
            ],
            [
              -93.9950292,
              45.2831723
            ],
            [
              -93.9947525,
              45.2831965
            ],
            [
              -93.9944877,
              45.2832409
            ],
            [
              -93.9942376,
              45.2833052
            ],
            [
              -93.9940044,
              45.2833886
            ],
            [
              -93.9937904,
              45.2834905
            ],
            [
              -93.9935977,
              45.2836098
            ],
            [
              -93.9934281,
              45.2837454
            ],
            [
              -93.9932833,
              45.2838959
            ],
            [
              -93.9931647,
              45.28406
            ],
            [
              -93.9930734,
              45.284236
            ],
            [
              -93.9930102,
              45.2844223
            ],
            [
              -93.9929759,
              45.284617
            ],
            [
              -93.9929707,
              45.2848183
            ],
            [
              -93.9929946,
              45.2850242
            ],
            [
              -93.9930475,
              45.2852328
            ],
            [
              -93.9931288,
              45.285442
            ],
            [
              -93.9932378,
              45.2856499
            ],
            [
              -93.9933734,
              45.2858544
            ],
            [
              -93.9935343,
              45.2860535
            ],
            [
              -93.9937189,
              45.2862454
            ],
            [
              -93.9939255,
              45.2864282
            ],
            [
              -93.9941521,
              45.2866002
            ]
          ]
        ]
      }
    }
  ]
}