{
  "type": "FeatureCollection",
  "features": [
    {
      "type": "Feature",
      "properties": {
        "lake": "Lake Ida",
        "depth_ft": 4.0,
        "color": "#a5d7f5",
        "weight": 1,
        "fill_opacity": 0.5,
        "line_opacity": 0.8
      },
      "geometry": {
        "type": "Polygon",
        "coordinates": [
          [
            [
              -94.2127952,
              45.0940438
            ],
            [
              -94.2137399,
              45.0944767
            ],
            [
              -94.2147208,
              45.0948598
            ],
            [
              -94.2157284,
              45.0951894
            ],
            [
              -94.2167532,
              45.0954623
            ],
            [
              -94.2177851,
              45.0956758
            ],
            [
              -94.2188143,
              45.0958279
            ],
            [
              -94.2198308,
              45.0959171
            ],
            [
              -94.2208248,
              45.0959426
            ],
            [
              -94.2217869,
              45.0959041
            ],
            [
              -94.2227077,
              45.0958021
            ],
            [
              -94.2235783,
              45.0956374
            ],
            [
              -94.2243903,
              45.0954117
            ],
            [
              -94.2251361,
              45.0951271
            ],
            [
              -94.2258082,
              45.0947864
            ],
            [
              -94.2264004,
              45.0943929
            ],
            [
              -94.2269069,
              45.0939503
            ],
            [
              -94.2273227,
              45.0934629
            ],
            [
              -94.227644,
              45.0929355
            ],
            [
              -94.2278675,
              45.092373
            ],
            [
              -94.2279913,
              45.0917809
            ],
            [
              -94.2280139,
              45.091165
            ],
            [
              -94.2279354,
              45.0905311
            ],
            [
              -94.2277563,
              45.0898853
            ],
            [
              -94.2274785,
              45.0892339
            ],
            [
              -94.2271045,
              45.0885831
            ],
            [
              -94.2266381,
              45.0879393
            ],
            [
              -94.2260836,
              45.0873085
            ],
            [
              -94.2254465,
              45.0866969
            ],
            [
              -94.2247329,
              45.0861104
            ],
            [
              -94.2239496,
              45.0855546
            ],
            [
              -94.2231042,
              45.0850349
            ],
            [
              -94.2222048,
              45.0845562
            ],
            [
              -94.2212601,
              45.0841233
            ],
            [
              -94.2202792,
              45.0837402
            ],
            [
              -94.2192716,
              45.0834106
            ],
            [
              -94.2182468,
              45.0831377
            ],
            [
              -94.2172149,
              45.0829242
            ],
            [
              -94.2161857,
              45.0827721
            ],
            [
              -94.2151692,
              45.0826829
            ],
            [
              -94.2141752,
              45.0826574
            ],
            [
              -94.2132131,
              45.0826959
            ],
            [
              -94.2122923,
              45.0827979
            ],
            [
              -94.2114217,
              45.0829626
            ],
            [
              -94.2106097,
              45.0831883
            ],
            [
              -94.2098639,
              45.0834729
            ],
            [
              -94.2091918,
              45.0838136
            ],
            [
              -94.2085996,
              45.0842071
            ],
            [
              -94.2080931,
              45.0846497
            ],
            [
              -94.2076773,
              45.0851371
            ],
            [
              -94.207356,
              45.0856645
            ],
            [
              -94.2071325,
              45.086227
            ],
            [
              -94.2070087,
              45.0868191
            ],
            [
              -94.2069861,
              45.087435
            ],
            [
              -94.2070646,
              45.0880689
            ],
            [
              -94.2072437,
              45.0887147
            ],
            [
              -94.2075215,
              45.0893661
            ],
            [
              -94.2078955,
              45.0900169
            ],
            [
              -94.2083619,
              45.0906607
            ],
            [
              -94.2089164,
              45.0912915
            ],
            [
              -94.2095535,
              45.0919031
            ],
            [
              -94.2102671,
              45.0924896
            ],
            [
              -94.2110504,
              45.0930454
            ],
            [
              -94.2118958,
              45.0935651
            ],
            [
              -94.2127952,
              45.0940438
            ]
          ]
        ]
      }
    },
    {
      "type": "Feature",
      "properties": {
        "lake": "Lake Ida",
        "depth_ft": 8.0,
        "color": "#84c6f2",
        "weight": 1,
        "fill_opacity": 0.5,
        "line_opacity": 0.8
      },
      "geometry": {
        "type": "Polygon",
        "coordinates": [
          [
            [
              -94.2133124,
              45.0935223
            ],
            [
              -94.2141532,
              45.0939077
            ],
            [
              -94.2150263,
              45.0942487
            ],
            [
              -94.2159232,
              45.094542
            ],
            [
              -94.2168353,
              45.0947849
            ],
            [
              -94.2177537,
              45.0949749
            ],
            [
              -94.2186698,
              45.0951103
            ],
            [
              -94.2195746,
              45.0951897
            ],
            [
              -94.2204594,
              45.0952124
            ],
            [
              -94.2213157,
              45.0951782
            ],
            [
              -94.2221352,
              45.0950873
            ],
            [
              -94.2229101,
              45.0949407
            ],
            [
              -94.2236329,
              45.0947398
            ],
            [
              -94.2242967,
              45.0944865
            ],
            [
              -94.224895,
              45.0941833
            ],
            [
              -94.225422,
              45.093833
            ],
            [
              -94.2258728,
              45.0934391
            ],
            [
              -94.226243,
              45.0930053
            ],
            [
              -94.2265289,
              45.0925358
            ],
            [
              -94.2267279,
              45.0920352
            ],
            [
              -94.226838,
              45.0915082
            ],
            [
              -94.2268582,
              45.09096
            ],
            [
              -94.2267883,
              45.0903957
            ],
            [
              -94.2266289,
              45.089821
            ],
            [
              -94.2263816,
              45.0892412
            ],
            [
              -94.2260488,
              45.0886619
            ],
            [
              -94.2256336,
              45.0880888
            ],
            [
              -94.2251401,
              45.0875274
            ],
            [
              -94.224573,
              45.0869831
            ],
            [
              -94.2239378,
              45.086461
            ],
            [
              -94.2232406,
              45.0859663
            ],
            [
              -94.2224882,
              45.0855037
            ],
            [
              -94.2216876,
              45.0850777
            ],
            [
              -94.2208468,
              45.0846923
            ],
            [
              -94.2199737,
              45.0843513
            ],
            [
              -94.2190768,
              45.084058
            ],
            [
              -94.2181647,
              45.0838151
            ],
            [
              -94.2172463,
              45.0836251
            ],
            [
              -94.2163302,
              45.0834897
            ],
            [
              -94.2154254,
              45.0834103
            ],
            [
              -94.2145406,
              45.0833876
            ],
            [
              -94.2136843,
              45.0834218
            ],
            [
              -94.2128648,
              45.0835127
            ],
            [
              -94.2120899,
              45.0836593
            ],
            [
              -94.2113671,
              45.0838602
            ],
            [
              -94.2107033,
              45.0841135
            ],
            [
              -94.210105,
              45.0844167
            ],
            [
              -94.209578,
              45.084767
            ],
            [
              -94.2091272,
              45.0851609
            ],
            [
              -94.208757,
              45.0855947
            ],
            [
              -94.2084711,
              45.0860642
            ],
            [
              -94.2082721,
              45.0865648
            ],
            [
              -94.208162,
              45.0870918
            ],
            [
              -94.2081418,
              45.08764
            ],
            [
              -94.2082117,
              45.0882043
            ],
            [
              -94.2083711,
              45.088779
            ],
            [
              -94.2086184,
              45.0893588
            ],
            [
              -94.2089512,
              45.0899381
            ],
            [
              -94.2093664,
              45.0905112
            ],
            [
              -94.2098599,
              45.0910726
            ],
            [
              -94.210427,
              45.0916169
            ],
            [
              -94.2110622,
              45.092139
            ],
            [
              -94.2117594,
              45.0926337
            ],
            [
              -94.2125118,
              45.0930963
            ],
            [
              -94.2133124,
              45.0935223
            ]
          ]
        ]
      }
    },
    {
      "type": "Feature",
      "properties": {
        "lake": "Lake Ida",
        "depth_ft": 12.0,
        "color": "#68b6ed",
        "weight": 1,
        "fill_opacity": 0.5,
        "line_opacity": 0.8
      },
      "geometry": {
        "type": "Polygon",
        "coordinates": [
          [
            [
              -94.2137833,
              45.0930474
            ],
            [
              -94.2145296,
              45.0933895
            ],
            [
              -94.2153045,
              45.0936921
            ],
            [
              -94.2161005,
              45.0939524
            ],
            [
              -94.21691,
              45.094168
            ],
            [
              -94.2177252,
              45.0943366
            ],
            [
              -94.2185382,
              45.0944568
            ],
            [
              -94.2193412,
              45.0945273
            ],
            [
              -94.2201265,
              45.0945474
            ],
            [
              -94.2208865,
              45.0945171
            ],
            [
              -94.2216139,
              45.0944364
            ],
            [
              -94.2223016,
              45.0943063
            ],
            [
              -94.2229432,
              45.094128
            ],
            [
              -94.2235323,
              45.0939032
            ],
            [
              -94.2240633,
              45.0936341
            ],
            [
              -94.224531,
              45.0933232
            ],
            [
              -94.2249311,
              45.0929736
            ],
            [
              -94.2252596,
              45.0925886
            ],
            [
              -94.2255134,
              45.0921719
            ],
            [
              -94.22569,
              45.0917276
            ],
            [
              -94.2257878,
              45.0912599
            ],
            [
              -94.2258057,
              45.0907733
            ],
            [
              -94.2257436,
              45.0902725
            ],
            [
              -94.2256022,
              45.0897624
            ],
            [
              -94.2253827,
              45.0892478
            ],
            [
              -94.2250873,
              45.0887337
            ],
            [
              -94.2247188,
              45.0882251
            ],
            [
              -94.2242808,
              45.0877268
            ],
            [
              -94.2237775,
              45.0872436
            ],
            [
              -94.2232138,
              45.0867803
            ],
            [
              -94.222595,
              45.0863413
            ],
            [
              -94.2219271,
              45.0859307
            ],
            [
              -94.2212167,
              45.0855526
            ],
            [
              -94.2204704,
              45.0852105
            ],
            [
              -94.2196955,
              45.0849079
            ],
            [
              -94.2188995,
              45.0846476
            ],
            [
              -94.21809,
              45.084432
            ],
            [
              -94.2172748,
              45.0842634
            ],
            [
              -94.2164618,
              45.0841432
            ],
            [
              -94.2156588,
              45.0840727
            ],
            [
              -94.2148735,
              45.0840526
            ],
            [
              -94.2141135,
              45.0840829
            ],
            [
              -94.2133861,
              45.0841636
            ],
            [
              -94.2126984,
              45.0842937
            ],
            [
              -94.2120568,
              45.084472
            ],
            [
              -94.2114677,
              45.0846968
            ],
            [
              -94.2109367,
              45.0849659
            ],
            [
              -94.210469,
              45.0852768
            ],
            [
              -94.2100689,
              45.0856264
            ],
            [
              -94.2097404,
              45.0860114
            ],
            [
              -94.2094866,
              45.0864281
            ],
            [
              -94.20931,
              45.0868724
            ],
            [
              -94.2092122,
              45.0873401
            ],
            [
              -94.2091943,
              45.0878267
            ],
            [
              -94.2092564,
              45.0883275
            ],
            [
              -94.2093978,
              45.0888376
            ],
            [
              -94.2096173,
              45.0893522
            ],
            [
              -94.2099127,
              45.0898663
            ],
            [
              -94.2102812,
              45.0903749
            ],
            [
              -94.2107192,
              45.0908732
            ],
            [
              -94.2112225,
              45.0913564
            ],
            [
              -94.2117862,
              45.0918197
            ],
            [
              -94.212405,
              45.0922587
            ],
            [
              -94.2130729,
              45.0926693
            ],
            [
              -94.2137833,
              45.0930474
            ]
          ]
        ]
      }
    },
    {
      "type": "Feature",
      "properties": {
        "lake": "Lake Ida",
        "depth_ft": 16.0,
        "color": "#52a6e7",
        "weight": 1,
        "fill_opacity": 0.5,
        "line_opacity": 0.8
      },
      "geometry": {
        "type": "Polygon",
        "coordinates": [
          [
            [
              -94.2142495,
              45.0925774
            ],
            [
              -94.2149022,
              45.0928765
            ],
            [
              -94.2155799,
              45.0931412
            ],
            [
              -94.2162761,
              45.0933689
            ],
            [
              -94.216984,
              45.0935574
            ],
            [
              -94.217697,
              45.0937049
            ],
            [
              -94.218408,
              45.09381
            ],
            [
              -94.2191103,
              45.0938716
            ],
            [
              -94.2197971,
              45.0938893
            ],
            [
              -94.2204617,
              45.0938627
            ],
            [
              -94.2210979,
              45.0937922
            ],
            [
              -94.2216994,
              45.0936784
            ],
            [
              -94.2222604,
              45.0935224
            ],
            [
              -94.2227756,
              45.0933258
            ],
            [
              -94.22324,
              45.0930905
            ],
            [
              -94.2236491,
              45.0928186
            ],
            [
              -94.223999,
              45.0925128
            ],
            [
              -94.2242864,
              45.0921761
            ],
            [
              -94.2245083,
              45.0918117
            ],
            [
              -94.2246628,
              45.0914231
            ],
            [
              -94.2247482,
              45.091014
            ],
            [
              -94.2247639,
              45.0905885
            ],
            [
              -94.2247096,
              45.0901505
            ],
            [
              -94.2245859,
              45.0897044
            ],
            [
              -94.224394,
              45.0892543
            ],
            [
              -94.2241356,
              45.0888047
            ],
            [
              -94.2238134,
              45.0883599
            ],
            [
              -94.2234303,
              45.0879241
            ],
            [
              -94.2229901,
              45.0875016
            ],
            [
              -94.2224971,
              45.0870964
            ],
            [
              -94.2219559,
              45.0867124
            ],
            [
              -94.2213719,
              45.0863533
            ],
            [
              -94.2207505,
              45.0860226
            ],
            [
              -94.2200978,
              45.0857235
            ],
            [
              -94.2194201,
              45.0854588
            ],
            [
              -94.2187239,
              45.0852311
            ],
            [
              -94.218016,
              45.0850426
            ],
            [
              -94.217303,
              45.0848951
            ],
            [
              -94.216592,
              45.08479
            ],
            [
              -94.2158897,
              45.0847284
            ],
            [
              -94.2152029,
              45.0847107
            ],
            [
              -94.2145383,
              45.0847373
            ],
            [
              -94.2139021,
              45.0848078
            ],
            [
              -94.2133006,
              45.0849216
            ],
            [
              -94.2127396,
              45.0850776
            ],
            [
              -94.2122244,
              45.0852742
            ],
            [
              -94.21176,
              45.0855095
            ],
            [
              -94.2113509,
              45.0857814
            ],
            [
              -94.211001,
              45.0860872
            ],
            [
              -94.2107136,
              45.0864239
            ],
            [
              -94.2104917,
              45.0867883
            ],
            [
              -94.2103372,
              45.0871769
            ],
            [
              -94.2102518,
              45.087586
            ],
            [
              -94.2102361,
              45.0880115
            ],
            [
              -94.2102904,
              45.0884495
            ],
            [
              -94.2104141,
              45.0888956
            ],
            [
              -94.210606,
              45.0893457
            ],
            [
              -94.2108644,
              45.0897953
            ],
            [
              -94.2111866,
              45.0902401
            ],
            [
              -94.2115697,
              45.0906759
            ],
            [
              -94.2120099,
              45.0910984
            ],
            [
              -94.2125029,
              45.0915036
            ],
            [
              -94.2130441,
              45.0918876
            ],
            [
              -94.2136281,
              45.0922467
            ],
            [
              -94.2142495,
              45.0925774
            ]
          ]
        ]
      }
    },
    {
      "type": "Feature",
      "properties": {
        "lake": "Lake Ida",
        "depth_ft": 20.0,
        "color": "#3f93da",
        "weight": 1,
        "fill_opacity": 0.5,
        "line_opacity": 0.8
      },
      "geometry": {
        "type": "Polygon",
        "coordinates": [
          [
            [
              -94.2147376,
              45.0920852
            ],
            [
              -94.2152923,
              45.0923394
            ],
            [
              -94.2158682,
              45.0925644
            ],
            [
              -94.2164599,
              45.0927579
            ],
            [
              -94.2170615,
              45.0929181
            ],
            [
              -94.2176674,
              45.0930434
            ],
            [
              -94.2182716,
              45.0931327
            ],
            [
              -94.2188685,
              45.0931851
            ],
            [
              -94.2194521,
              45.0932001
            ],
            [
              -94.220017,
              45.0931775
            ],
            [
              -94.2205576,
              45.0931176
            ],
            [
              -94.2210687,
              45.0930209
            ],
            [
              -94.2215455,
              45.0928883
            ],
            [
              -94.2219834,
              45.0927213
            ],
            [
              -94.222378,
              45.0925212
            ],
            [
              -94.2227257,
              45.0922902
            ],
            [
              -94.2230231,
              45.0920303
            ],
            [
              -94.2232672,
              45.0917442
            ],
            [
              -94.2234558,
              45.0914345
            ],
            [
              -94.2235871,
              45.0911043
            ],
            [
              -94.2236598,
              45.0907566
            ],
            [
              -94.2236731,
              45.090395
            ],
            [
              -94.2236269,
              45.0900228
            ],
            [
              -94.2235218,
              45.0896436
            ],
            [
              -94.2233587,
              45.0892612
            ],
            [
              -94.2231391,
              45.0888791
            ],
            [
              -94.2228653,
              45.0885011
            ],
            [
              -94.2225397,
              45.0881307
            ],
            [
              -94.2221657,
              45.0877716
            ],
            [
              -94.2217467,
              45.0874273
            ],
            [
              -94.2212868,
              45.087101
            ],
            [
              -94.2207904,
              45.0867958
            ],
            [
              -94.2202624,
              45.0865148
            ],
            [
              -94.2197077,
              45.0862606
            ],
            [
              -94.2191318,
              45.0860356
            ],
            [
              -94.2185401,
              45.0858421
            ],
            [
              -94.2179385,
              45.0856819
            ],
            [
              -94.2173326,
              45.0855566
            ],
            [
              -94.2167284,
              45.0854673
            ],
            [
              -94.2161315,
              45.0854149
            ],
            [
              -94.2155479,
              45.0853999
            ],
            [
              -94.214983,
              45.0854225
            ],
            [
              -94.2144424,
              45.0854824
            ],
            [
              -94.2139313,
              45.0855791
            ],
            [
              -94.2134545,
              45.0857117
            ],
            [
              -94.2130166,
              45.0858787
            ],
            [
              -94.212622,
              45.0860788
            ],
            [
              -94.2122743,
              45.0863098
            ],
            [
              -94.2119769,
              45.0865697
            ],
            [
              -94.2117328,
              45.0868558
            ],
            [
              -94.2115442,
              45.0871655
            ],
            [
              -94.2114129,
              45.0874957
            ],
            [
              -94.2113402,
              45.0878434
            ],
            [
              -94.2113269,
              45.088205
            ],
            [
              -94.2113731,
              45.0885772
            ],
            [
              -94.2114782,
              45.0889564
            ],
            [
              -94.2116413,
              45.0893388
            ],
            [
              -94.2118609,
              45.0897209
            ],
            [
              -94.2121347,
              45.0900989
            ],
            [
              -94.2124603,
              45.0904693
            ],
            [
              -94.2128343,
              45.0908284
            ],
            [
              -94.2132533,
              45.0911727
            ],
            [
              -94.2137132,
              45.091499
            ],
            [
              -94.2142096,
              45.0918042
            ],
            [
              -94.2147376,
              45.0920852
            ]
          ]
        ]
      }
    },
    {
      "type": "Feature",
      "properties": {
        "lake": "Lake Ida",
        "depth_ft": 24.0,
        "color": "#3077bc",
        "weight": 1,
        "fill_opacity": 0.5,
        "line_opacity": 0.8
      },
      "geometry": {
        "type": "Polygon",
        "coordinates": [
          [
            [
              -94.2152812,
              45.0915371
            ],
            [
              -94.2157267,
              45.0917413
            ],
            [
              -94.2161893,
              45.091922
            ],
            [
              -94.2166645,
              45.0920774
            ],
            [
              -94.2171478,
              45.0922061
            ],
            [
              -94.2176344,
              45.0923068
            ],
            [
              -94.2181198,
              45.0923785
            ],
            [
              -94.2185992,
              45.0924206
            ],
            [
              -94.219068,
              45.0924326
            ],
            [
              -94.2195217,
              45.0924145
            ],
            [
              -94.2199559,
              45.0923663
            ],
            [
              -94.2203665,
              45.0922887
            ],
            [
              -94.2207495,
              45.0921822
            ],
            [
              -94.2211011,
              45.092048
            ],
            [
              -94.2214181,
              45.0918873
            ],
            [
              -94.2216974,
              45.0917018
            ],
            [
              -94.2219362,
              45.091493
            ],
            [
              -94.2221323,
              45.0912632
            ],
            [
              -94.2222838,
              45.0910145
            ],
            [
              -94.2223893,
              45.0907492
            ],
            [
              -94.2224476,
              45.09047
            ],
            [
              -94.2224583,
              45.0901795
            ],
            [
              -94.2224213,
              45.0898806
            ],
            [
              -94.2223368,
              45.089576
            ],
            [
              -94.2222058,
              45.0892688
            ],
            [
              -94.2220294,
              45.0889619
            ],
            [
              -94.2218095,
              45.0886583
            ],
            [
              -94.221548,
              45.0883608
            ],
            [
              -94.2212475,
              45.0880724
            ],
            [
              -94.220911,
              45.0877958
            ],
            [
              -94.2205416,
              45.0875337
            ],
            [
              -94.2201429,
              45.0872886
            ],
            [
              -94.2197188,
              45.0870629
            ],
            [
              -94.2192733,
              45.0868587
            ],
            [
              -94.2188107,
              45.086678
            ],
            [
              -94.2183355,
              45.0865226
            ],
            [
              -94.2178522,
              45.0863939
            ],
            [
              -94.2173656,
              45.0862932
            ],
            [
              -94.2168802,
              45.0862215
            ],
            [
              -94.2164008,
              45.0861794
            ],
            [
              -94.215932,
              45.0861674
            ],
            [
              -94.2154783,
              45.0861855
            ],
            [
              -94.2150441,
              45.0862337
            ],
            [
              -94.2146335,
              45.0863113
            ],
            [
              -94.2142505,
              45.0864178
            ],
            [
              -94.2138989,
              45.086552
            ],
            [
              -94.2135819,
              45.0867127
            ],
            [
              -94.2133026,
              45.0868982
            ],
            [
              -94.2130638,
              45.087107
            ],
            [
              -94.2128677,
              45.0873368
            ],
            [
              -94.2127162,
              45.0875855
            ],
            [
              -94.2126107,
              45.0878508
            ],
            [
              -94.2125524,
              45.08813
            ],
            [
              -94.2125417,
              45.0884205
            ],
            [
              -94.2125787,
              45.0887194
            ],
            [
              -94.2126632,
              45.089024
            ],
            [
              -94.2127942,
              45.0893312
            ],
            [
              -94.2129706,
              45.0896381
            ],
            [
              -94.2131905,
              45.0899417
            ],
            [
              -94.213452,
              45.0902392
            ],
            [
              -94.2137525,
              45.0905276
            ],
            [
              -94.214089,
              45.0908042
            ],
            [
              -94.2144584,
              45.0910663
            ],
            [
              -94.2148571,
              45.0913114
            ],
            [
              -94.2152812,
              45.0915371
            ]
          ]
        ]
      }
    },
    {
      "type": "Feature",
      "properties": {
        "lake": "Lake Ida",
        "depth_ft": 28.0,
        "color": "#245790",
        "weight": 1,
        "fill_opacity": 0.5,
        "line_opacity": 0.8
      },
      "geometry": {
        "type": "Polygon",
        "coordinates": [
          [
            [
              -94.2159538,
              45.090859
            ],
            [
              -94.2162642,
              45.0910013
            ],
            [
              -94.2165866,
              45.0911272
            ],
            [
              -94.2169178,
              45.0912356
            ],
            [
              -94.2172545,
              45.0913252
            ],
            [
              -94.2175937,
              45.0913954
            ],
            [
              -94.2179319,
              45.0914454
            ],
            [
              -94.218266,
              45.0914747
            ],
            [
              -94.2185927,
              45.0914831
            ],
            [
              -94.2189089,
              45.0914705
            ],
            [
              -94.2192115,
              45.0914369
            ],
            [
              -94.2194976,
              45.0913828
            ],
            [
              -94.2197645,
              45.0913086
            ],
            [
              -94.2200096,
              45.0912151
            ],
            [
              -94.2202305,
              45.0911031
            ],
            [
              -94.2204251,
              45.0909738
            ],
            [
              -94.2205916,
              45.0908283
            ],
            [
              -94.2207282,
              45.0906681
            ],
            [
              -94.2208338,
              45.0904948
            ],
            [
              -94.2209073,
              45.0903099
            ],
            [
              -94.220948,
              45.0901154
            ],
            [
              -94.2209554,
              45.0899129
            ],
            [
              -94.2209296,
              45.0897046
            ],
            [
              -94.2208707,
              45.0894924
            ],
            [
              -94.2207794,
              45.0892783
            ],
            [
              -94.2206565,
              45.0890644
            ],
            [
              -94.2205032,
              45.0888528
            ],
            [
              -94.220321,
              45.0886455
            ],
            [
              -94.2201116,
              45.0884445
            ],
            [
              -94.2198771,
              45.0882517
            ],
            [
              -94.2196197,
              45.0880691
            ],
            [
              -94.2193418,
              45.0878983
            ],
            [
              -94.2190462,
              45.087741
            ],
            [
              -94.2187358,
              45.0875987
            ],
            [
              -94.2184134,
              45.0874728
            ],
            [
              -94.2180822,
              45.0873644
            ],
            [
              -94.2177455,
              45.0872748
            ],
            [
              -94.2174063,
              45.0872046
            ],
            [
              -94.2170681,
              45.0871546
            ],
            [
              -94.216734,
              45.0871253
            ],
            [
              -94.2164073,
              45.0871169
            ],
            [
              -94.2160911,
              45.0871295
            ],
            [
              -94.2157885,
              45.0871631
            ],
            [
              -94.2155024,
              45.0872172
            ],
            [
              -94.2152355,
              45.0872914
            ],
            [
              -94.2149904,
              45.0873849
            ],
            [
              -94.2147695,
              45.0874969
            ],
            [
              -94.2145749,
              45.0876262
            ],
            [
              -94.2144084,
              45.0877717
            ],
            [
              -94.2142718,
              45.0879319
            ],
            [
              -94.2141662,
              45.0881052
            ],
            [
              -94.2140927,
              45.0882901
            ],
            [
              -94.214052,
              45.0884846
            ],
            [
              -94.2140446,
              45.0886871
            ],
            [
              -94.2140704,
              45.0888954
            ],
            [
              -94.2141293,
              45.0891076
            ],
            [
              -94.2142206,
              45.0893217
            ],
            [
              -94.2143435,
              45.0895356
            ],
            [
              -94.2144968,
              45.0897472
            ],
            [
              -94.214679,
              45.0899545
            ],
            [
              -94.2148884,
              45.0901555
            ],
            [
              -94.2151229,
              45.0903483
            ],
            [
              -94.2153803,
              45.0905309
            ],
            [
              -94.2156582,
              45.0907017
            ],
            [
              -94.2159538,
              45.090859
            ]
          ]
        ]
      }
    }
  ]
}