{
  "type": "FeatureCollection",
  "features": [
    {
      "type": "Feature",
      "properties": {
        "lake": "Lake Andrew",
        "depth_ft": 3.8,
        "color": "#a5d7f5",
        "weight": 1,
        "fill_opacity": 0.5,
        "line_opacity": 0.8
      },
      "geometry": {
        "type": "Polygon",
        "coordinates": [
          [
            [
              -94.2406401,
              45.1472361
            ],
            [
              -94.2413625,
              45.1479121
            ],
            [
              -94.2421469,
              45.1485475
            ],
            [
              -94.2429858,
              45.1491362
            ],
            [
              -94.2438711,
              45.1496726
            ],
            [
              -94.2447941,
              45.1501515
            ],
            [
              -94.2457462,
              45.1505682
            ],
            [
              -94.246718,
              45.1509187
            ],
            [
              -94.2477002,
              45.1511998
            ],
            [
              -94.2486834,
              45.1514086
            ],
            [
              -94.2496581,
              45.1515432
            ],
            [
              -94.2506149,
              45.1516023
            ],
            [
              -94.2515446,
              45.1515852
            ],
            [
              -94.2524382,
              45.1514922
            ],
            [
              -94.2532871,
              45.1513242
            ],
            [
              -94.2540832,
              45.1510827
            ],
            [
              -94.2548188,
              45.1507702
            ],
            [
              -94.2554868,
              45.1503895
            ],
            [
              -94.2560808,
              45.1499445
            ],
            [
              -94.256595,
              45.1494393
            ],
            [
              -94.2570245,
              45.1488788
            ],
            [
              -94.2573652,
              45.1482684
            ],
            [
              -94.2576138,
              45.1476141
            ],
            [
              -94.2577678,
              45.146922
            ],
            [
              -94.2578259,
              45.1461989
            ],
            [
              -94.2577874,
              45.1454518
            ],
            [
              -94.2576527,
              45.1446878
            ],
            [
              -94.2574232,
              45.1439143
            ],
            [
              -94.2571009,
              45.1431387
            ],
            [
              -94.2566891,
              45.1423685
            ],
            [
              -94.2561917,
              45.1416111
            ],
            [
              -94.2556134,
              45.1408739
            ],
            [
              -94.2549599,
              45.1401639
            ],
            [
              -94.2542375,
              45.1394879
            ],
            [
              -94.2534531,
              45.1388525
            ],
            [
              -94.2526142,
              45.1382638
            ],
            [
              -94.2517289,
              45.1377274
            ],
            [
              -94.2508059,
              45.1372485
            ],
            [
              -94.2498538,
              45.1368318
            ],
            [
              -94.248882,
              45.1364813
            ],
            [
              -94.2478998,
              45.1362002
            ],
            [
              -94.2469166,
              45.1359914
            ],
            [
              -94.2459419,
              45.1358568
            ],
            [
              -94.2449851,
              45.1357977
            ],
            [
              -94.2440554,
              45.1358148
            ],
            [
              -94.2431618,
              45.1359078
            ],
            [
              -94.2423129,
              45.1360758
            ],
            [
              -94.2415168,
              45.1363173
            ],
            [
              -94.2407812,
              45.1366298
            ],
            [
              -94.2401132,
              45.1370105
            ],
            [
              -94.2395192,
              45.1374555
            ],
            [
              -94.239005,
              45.1379607
            ],
            [
              -94.2385755,
              45.1385212
            ],
            [
              -94.2382348,
              45.1391316
            ],
            [
              -94.2379862,
              45.1397859
            ],
            [
              -94.2378322,
              45.140478
            ],
            [
              -94.2377741,
              45.1412011
            ],
            [
              -94.2378126,
              45.1419482
            ],
            [
              -94.2379473,
              45.1427122
            ],
            [
              -94.2381768,
              45.1434857
            ],
            [
              -94.2384991,
              45.1442613
            ],
            [
              -94.2389109,
              45.1450315
            ],
            [
              -94.2394083,
              45.1457889
            ],
            [
              -94.2399866,
              45.1465261
            ],
            [
              -94.2406401,
              45.1472361
            ]
          ]
        ]
      }
    },
    {
      "type": "Feature",
      "properties": {
        "lake": "Lake Andrew",
        "depth_ft": 7.5,
        "color": "#84c6f2",
        "weight": 1,
        "fill_opacity": 0.5,
        "line_opacity": 0.8
      },
      "geometry": {
        "type": "Polygon",
        "coordinates": [
          [
            [
              -94.2414271,
              45.1468474
            ],
            [
              -94.2420701,
              45.1474491
            ],
            [
              -94.2427684,
              45.1480147
            ],
            [
              -94.243515,
              45.1485387
            ],
            [
              -94.244303,
              45.1490161
            ],
            [
              -94.2451246,
              45.1494423
            ],
            [
              -94.2459719,
              45.1498132
            ],
            [
              -94.2468369,
              45.1501252
            ],
            [
              -94.2477112,
              45.1503754
            ],
            [
              -94.2485863,
              45.1505613
            ],
            [
              -94.2494538,
              45.1506811
            ],
            [
              -94.2503055,
              45.1507336
            ],
            [
              -94.2511329,
              45.1507184
            ],
            [
              -94.2519283,
              45.1506357
            ],
            [
              -94.252684,
              45.1504861
            ],
            [
              -94.2533925,
              45.1502712
            ],
            [
              -94.2540473,
              45.149993
            ],
            [
              -94.2546418,
              45.1496542
            ],
            [
              -94.2551705,
              45.149258
            ],
            [
              -94.2556282,
              45.1488084
            ],
            [
              -94.2560105,
              45.1483095
            ],
            [
              -94.2563138,
              45.1477662
            ],
            [
              -94.256535,
              45.1471838
            ],
            [
              -94.2566721,
              45.1465678
            ],
            [
              -94.2567238,
              45.1459242
            ],
            [
              -94.2566895,
              45.1452592
            ],
            [
              -94.2565697,
              45.1445792
            ],
            [
              -94.2563653,
              45.1438907
            ],
            [
              -94.2560785,
              45.1432004
            ],
            [
              -94.255712,
              45.1425149
            ],
            [
              -94.2552692,
              45.1418407
            ],
            [
              -94.2547545,
              45.1411845
            ],
            [
              -94.2541729,
              45.1405526
            ],
            [
              -94.2535299,
              45.1399509
            ],
            [
              -94.2528316,
              45.1393853
            ],
            [
              -94.252085,
              45.1388613
            ],
            [
              -94.251297,
              45.1383839
            ],
            [
              -94.2504754,
              45.1379577
            ],
            [
              -94.2496281,
              45.1375868
            ],
            [
              -94.2487631,
              45.1372748
            ],
            [
              -94.2478888,
              45.1370246
            ],
            [
              -94.2470137,
              45.1368387
            ],
            [
              -94.2461462,
              45.1367189
            ],
            [
              -94.2452945,
              45.1366664
            ],
            [
              -94.2444671,
              45.1366816
            ],
            [
              -94.2436717,
              45.1367643
            ],
            [
              -94.242916,
              45.1369139
            ],
            [
              -94.2422075,
              45.1371288
            ],
            [
              -94.2415527,
              45.137407
            ],
            [
              -94.2409582,
              45.1377458
            ],
            [
              -94.2404295,
              45.138142
            ],
            [
              -94.2399718,
              45.1385916
            ],
            [
              -94.2395895,
              45.1390905
            ],
            [
              -94.2392862,
              45.1396338
            ],
            [
              -94.239065,
              45.1402162
            ],
            [
              -94.2389279,
              45.1408322
            ],
            [
              -94.2388762,
              45.1414758
            ],
            [
              -94.2389105,
              45.1421408
            ],
            [
              -94.2390303,
              45.1428208
            ],
            [
              -94.2392347,
              45.1435093
            ],
            [
              -94.2395215,
              45.1441996
            ],
            [
              -94.239888,
              45.1448851
            ],
            [
              -94.2403308,
              45.1455593
            ],
            [
              -94.2408455,
              45.1462155
            ],
            [
              -94.2414271,
              45.1468474
            ]
          ]
        ]
      }
    },
    {
      "type": "Feature",
      "properties": {
        "lake": "Lake Andrew",
        "depth_ft": 11.2,
        "color": "#68b6ed",
        "weight": 1,
        "fill_opacity": 0.5,
        "line_opacity": 0.8
      },
      "geometry": {
        "type": "Polygon",
        "coordinates": [
          [
            [
              -94.2421439,
              45.1464934
            ],
            [
              -94.2427146,
              45.1470274
            ],
            [
              -94.2433343,
              45.1475294
            ],
            [
              -94.2439969,
              45.1479945
            ],
            [
              -94.2446963,
              45.1484182
            ],
            [
              -94.2454255,
              45.1487964
            ],
            [
              -94.2461775,
              45.1491256
            ],
            [
              -94.2469452,
              45.1494026
            ],
            [
              -94.2477212,
              45.1496246
            ],
            [
              -94.2484979,
              45.1497896
            ],
            [
              -94.2492678,
              45.1498959
            ],
            [
              -94.2500237,
              45.1499425
            ],
            [
              -94.2507581,
              45.1499291
            ],
            [
              -94.251464,
              45.1498556
            ],
            [
              -94.2521347,
              45.1497229
            ],
            [
              -94.2527636,
              45.1495321
            ],
            [
              -94.2533446,
              45.1492852
            ],
            [
              -94.2538723,
              45.1489845
            ],
            [
              -94.2543416,
              45.1486329
            ],
            [
              -94.2547478,
              45.1482338
            ],
            [
              -94.2550871,
              45.1477911
            ],
            [
              -94.2553562,
              45.1473089
            ],
            [
              -94.2555526,
              45.146792
            ],
            [
              -94.2556743,
              45.1462453
            ],
            [
              -94.2557201,
              45.1456741
            ],
            [
              -94.2556897,
              45.1450839
            ],
            [
              -94.2555833,
              45.1444803
            ],
            [
              -94.255402,
              45.1438693
            ],
            [
              -94.2551474,
              45.1432566
            ],
            [
              -94.2548221,
              45.1426482
            ],
            [
              -94.2544292,
              45.1420499
            ],
            [
              -94.2539724,
              45.1414675
            ],
            [
              -94.2534561,
              45.1409066
            ],
            [
              -94.2528854,
              45.1403726
            ],
            [
              -94.2522657,
              45.1398706
            ],
            [
              -94.2516031,
              45.1394055
            ],
            [
              -94.2509037,
              45.1389818
            ],
            [
              -94.2501745,
              45.1386036
            ],
            [
              -94.2494225,
              45.1382744
            ],
            [
              -94.2486548,
              45.1379974
            ],
            [
              -94.2478788,
              45.1377754
            ],
            [
              -94.2471021,
              45.1376104
            ],
            [
              -94.2463322,
              45.1375041
            ],
            [
              -94.2455763,
              45.1374575
            ],
            [
              -94.2448419,
              45.1374709
            ],
            [
              -94.244136,
              45.1375444
            ],
            [
              -94.2434653,
              45.1376771
            ],
            [
              -94.2428364,
              45.1378679
            ],
            [
              -94.2422554,
              45.1381148
            ],
            [
              -94.2417277,
              45.1384155
            ],
            [
              -94.2412584,
              45.1387671
            ],
            [
              -94.2408522,
              45.1391662
            ],
            [
              -94.2405129,
              45.1396089
            ],
            [
              -94.2402438,
              45.1400911
            ],
            [
              -94.2400474,
              45.140608
            ],
            [
              -94.2399257,
              45.1411547
            ],
            [
              -94.2398799,
              45.1417259
            ],
            [
              -94.2399103,
              45.1423161
            ],
            [
              -94.2400167,
              45.1429197
            ],
            [
              -94.240198,
              45.1435307
            ],
            [
              -94.2404526,
              45.1441434
            ],
            [
              -94.2407779,
              45.1447518
            ],
            [
              -94.2411708,
              45.1453501
            ],
            [
              -94.2416276,
              45.1459325
            ],
            [
              -94.2421439,
              45.1464934
            ]
          ]
        ]
      }
    },
    {
      "type": "Feature",
      "properties": {
        "lake": "Lake Andrew",
        "depth_ft": 15.0,
        "color": "#52a6e7",
        "weight": 1,
        "fill_opacity": 0.5,
        "line_opacity": 0.8
      },
      "geometry": {
        "type": "Polygon",
        "coordinates": [
          [
            [
              -94.2428533,
              45.1461431
            ],
            [
              -94.2433524,
              45.1466101
            ],
            [
              -94.2438944,
              45.1470491
            ],
            [
              -94.244474,
              45.1474558
            ],
            [
              -94.2450856,
              45.1478264
            ],
            [
              -94.2457233,
              45.1481572
            ],
            [
              -94.246381,
              45.1484451
            ],
            [
              -94.2470525,
              45.1486873
            ],
            [
              -94.2477311,
              45.1488815
            ],
            [
              -94.2484103,
              45.1490258
            ],
            [
              -94.2490837,
              45.1491187
            ],
            [
              -94.2497448,
              45.1491595
            ],
            [
              -94.2503871,
              45.1491478
            ],
            [
              -94.2510044,
              45.1490835
            ],
            [
              -94.251591,
              45.1489674
            ],
            [
              -94.252141,
              45.1488006
            ],
            [
              -94.2526492,
              45.1485847
            ],
            [
              -94.2531107,
              45.1483217
            ],
            [
              -94.2535211,
              45.1480142
            ],
            [
              -94.2538763,
              45.1476652
            ],
            [
              -94.2541731,
              45.1472779
            ],
            [
              -94.2544085,
              45.1468562
            ],
            [
              -94.2545802,
              45.1464042
            ],
            [
              -94.2546866,
              45.145926
            ],
            [
              -94.2547267,
              45.1454265
            ],
            [
              -94.2547001,
              45.1449103
            ],
            [
              -94.2546071,
              45.1443824
            ],
            [
              -94.2544485,
              45.143848
            ],
            [
              -94.2542258,
              45.1433122
            ],
            [
              -94.2539413,
              45.1427801
            ],
            [
              -94.2535977,
              45.1422568
            ],
            [
              -94.2531982,
              45.1417475
            ],
            [
              -94.2527467,
              45.1412569
            ],
            [
              -94.2522476,
              45.1407899
            ],
            [
              -94.2517056,
              45.1403509
            ],
            [
              -94.251126,
              45.1399442
            ],
            [
              -94.2505144,
              45.1395736
            ],
            [
              -94.2498767,
              45.1392428
            ],
            [
              -94.249219,
              45.1389549
            ],
            [
              -94.2485475,
              45.1387127
            ],
            [
              -94.2478689,
              45.1385185
            ],
            [
              -94.2471897,
              45.1383742
            ],
            [
              -94.2465163,
              45.1382813
            ],
            [
              -94.2458552,
              45.1382405
            ],
            [
              -94.2452129,
              45.1382522
            ],
            [
              -94.2445956,
              45.1383165
            ],
            [
              -94.244009,
              45.1384326
            ],
            [
              -94.243459,
              45.1385994
            ],
            [
              -94.2429508,
              45.1388153
            ],
            [
              -94.2424893,
              45.1390783
            ],
            [
              -94.2420789,
              45.1393858
            ],
            [
              -94.2417237,
              45.1397348
            ],
            [
              -94.2414269,
              45.1401221
            ],
            [
              -94.2411915,
              45.1405438
            ],
            [
              -94.2410198,
              45.1409958
            ],
            [
              -94.2409134,
              45.141474
            ],
            [
              -94.2408733,
              45.1419735
            ],
            [
              -94.2408999,
              45.1424897
            ],
            [
              -94.2409929,
              45.1430176
            ],
            [
              -94.2411515,
              45.143552
            ],
            [
              -94.2413742,
              45.1440878
            ],
            [
              -94.2416587,
              45.1446199
            ],
            [
              -94.2420023,
              45.1451432
            ],
            [
              -94.2424018,
              45.1456525
            ],
            [
              -94.2428533,
              45.1461431
            ]
          ]
        ]
      }
    },
    {
      "type": "Feature",
      "properties": {
        "lake": "Lake Andrew",
        "depth_ft": 18.8,
        "color": "#3f93da",
        "weight": 1,
        "fill_opacity": 0.5,
        "line_opacity": 0.8
      },
      "geometry": {
        "type": "Polygon",
        "coordinates": [
          [
            [
              -94.2435962,
              45.1457762
            ],
            [
              -94.2440203,
              45.1461731
            ],
            [
              -94.2444809,
              45.1465461
            ],
            [
              -94.2449734,
              45.1468918
            ],
            [
              -94.2454932,
              45.1472067
            ],
            [
              -94.2460352,
              45.1474879
            ],
            [
              -94.2465941,
              45.1477325
            ],
            [
              -94.2471647,
              45.1479384
            ],
            [
              -94.2477414,
              45.1481034
            ],
            [
              -94.2483187,
              45.148226
            ],
            [
              -94.2488909,
              45.148305
            ],
            [
              -94.2494527,
              45.1483397
            ],
            [
              -94.2499985,
              45.1483297
            ],
            [
              -94.2505232,
              45.1482751
            ],
            [
              -94.2510217,
              45.1481764
            ],
            [
              -94.2514891,
              45.1480346
            ],
            [
              -94.251921,
              45.1478511
            ],
            [
              -94.2523132,
              45.1476276
            ],
            [
              -94.2526619,
              45.1473663
            ],
            [
              -94.2529638,
              45.1470697
            ],
            [
              -94.253216,
              45.1467406
            ],
            [
              -94.253416,
              45.1463823
            ],
            [
              -94.253562,
              45.1459981
            ],
            [
              -94.2536524,
              45.1455918
            ],
            [
              -94.2536865,
              45.1451672
            ],
            [
              -94.2536639,
              45.1447285
            ],
            [
              -94.2535848,
              45.14428
            ],
            [
              -94.2534501,
              45.1438258
            ],
            [
              -94.2532609,
              45.1433704
            ],
            [
              -94.2530191,
              45.1429182
            ],
            [
              -94.252727,
              45.1424736
            ],
            [
              -94.2523875,
              45.1420407
            ],
            [
              -94.2520038,
              45.1416238
            ],
            [
              -94.2515797,
              45.1412269
            ],
            [
              -94.2511191,
              45.1408539
            ],
            [
              -94.2506266,
              45.1405082
            ],
            [
              -94.2501068,
              45.1401933
            ],
            [
              -94.2495648,
              45.1399121
            ],
            [
              -94.2490059,
              45.1396675
            ],
            [
              -94.2484353,
              45.1394616
            ],
            [
              -94.2478586,
              45.1392966
            ],
            [
              -94.2472813,
              45.139174
            ],
            [
              -94.2467091,
              45.139095
            ],
            [
              -94.2461473,
              45.1390603
            ],
            [
              -94.2456015,
              45.1390703
            ],
            [
              -94.2450768,
              45.1391249
            ],
            [
              -94.2445783,
              45.1392236
            ],
            [
              -94.2441109,
              45.1393654
            ],
            [
              -94.243679,
              45.1395489
            ],
            [
              -94.2432868,
              45.1397724
            ],
            [
              -94.2429381,
              45.1400337
            ],
            [
              -94.2426362,
              45.1403303
            ],
            [
              -94.242384,
              45.1406594
            ],
            [
              -94.242184,
              45.1410177
            ],
            [
              -94.242038,
              45.1414019
            ],
            [
              -94.2419476,
              45.1418082
            ],
            [
              -94.2419135,
              45.1422328
            ],
            [
              -94.2419361,
              45.1426715
            ],
            [
              -94.2420152,
              45.14312
            ],
            [
              -94.2421499,
              45.1435742
            ],
            [
              -94.2423391,
              45.1440296
            ],
            [
              -94.2425809,
              45.1444818
            ],
            [
              -94.242873,
              45.1449264
            ],
            [
              -94.2432125,
              45.1453593
            ],
            [
              -94.2435962,
              45.1457762
            ]
          ]
        ]
      }
    },
    {
      "type": "Feature",
      "properties": {
        "lake": "Lake Andrew",
        "depth_ft": 22.5,
        "color": "#3077bc",
        "weight": 1,
        "fill_opacity": 0.5,
        "line_opacity": 0.8
      },
      "geometry": {
        "type": "Polygon",
        "coordinates": [
          [
            [
              -94.2444234,
              45.1453676
            ],
            [
              -94.2447641,
              45.1456864
            ],
            [
              -94.245134,
              45.1459861
            ],
            [
              -94.2455297,
              45.1462637
            ],
            [
              -94.2459471,
              45.1465167
            ],
            [
              -94.2463825,
              45.1467425
            ],
            [
              -94.2468314,
              45.146939
            ],
            [
              -94.2472897,
              45.1471043
            ],
            [
              -94.2477529,
              45.1472369
            ],
            [
              -94.2482166,
              45.1473353
            ],
            [
              -94.2486763,
              45.1473988
            ],
            [
              -94.2491275,
              45.1474267
            ],
            [
              -94.2495659,
              45.1474186
            ],
            [
              -94.2499873,
              45.1473748
            ],
            [
              -94.2503877,
              45.1472955
            ],
            [
              -94.2507631,
              45.1471817
            ],
            [
              -94.25111,
              45.1470343
            ],
            [
              -94.2514251,
              45.1468547
            ],
            [
              -94.2517052,
              45.1466449
            ],
            [
              -94.2519477,
              45.1464066
            ],
            [
              -94.2521502,
              45.1461423
            ],
            [
              -94.2523109,
              45.1458544
            ],
            [
              -94.2524281,
              45.1455459
            ],
            [
              -94.2525008,
              45.1452195
            ],
            [
              -94.2525282,
              45.1448785
            ],
            [
              -94.25251,
              45.1445261
            ],
            [
              -94.2524465,
              45.1441658
            ],
            [
              -94.2523382,
              45.143801
            ],
            [
              -94.2521863,
              45.1434353
            ],
            [
              -94.2519921,
              45.1430721
            ],
            [
              -94.2517575,
              45.1427149
            ],
            [
              -94.2514848,
              45.1423672
            ],
            [
              -94.2511766,
              45.1420324
            ],
            [
              -94.2508359,
              45.1417136
            ],
            [
              -94.250466,
              45.1414139
            ],
            [
              -94.2500703,
              45.1411363
            ],
            [
              -94.2496529,
              45.1408833
            ],
            [
              -94.2492175,
              45.1406575
            ],
            [
              -94.2487686,
              45.140461
            ],
            [
              -94.2483103,
              45.1402957
            ],
            [
              -94.2478471,
              45.1401631
            ],
            [
              -94.2473834,
              45.1400647
            ],
            [
              -94.2469237,
              45.1400012
            ],
            [
              -94.2464725,
              45.1399733
            ],
            [
              -94.2460341,
              45.1399814
            ],
            [
              -94.2456127,
              45.1400252
            ],
            [
              -94.2452123,
              45.1401045
            ],
            [
              -94.2448369,
              45.1402183
            ],
            [
              -94.24449,
              45.1403657
            ],
            [
              -94.2441749,
              45.1405453
            ],
            [
              -94.2438948,
              45.1407551
            ],
            [
              -94.2436523,
              45.1409934
            ],
            [
              -94.2434498,
              45.1412577
            ],
            [
              -94.2432891,
              45.1415456
            ],
            [
              -94.2431719,
              45.1418541
            ],
            [
              -94.2430992,
              45.1421805
            ],
            [
              -94.2430718,
              45.1425215
            ],
            [
              -94.24309,
              45.1428739
            ],
            [
              -94.2431535,
              45.1432342
            ],
            [
              -94.2432618,
              45.143599
            ],
            [
              -94.2434137,
              45.1439647
            ],
            [
              -94.2436079,
              45.1443279
            ],
            [
              -94.2438425,
              45.1446851
            ],
            [
              -94.2441152,
              45.1450328
            ],
            [
              -94.2444234,
              45.1453676
            ]
          ]
        ]
      }
    },
    {
      "type": "Feature",
      "properties": {
        "lake": "Lake Andrew",
        "depth_ft": 26.2,
        "color": "#245790",
        "weight": 1,
        "fill_opacity": 0.5,
        "line_opacity": 0.8
      },
      "geometry": {
        "type": "Polygon",
        "coordinates": [
          [
            [
              -94.2454469,
              45.1448622
            ],
            [
              -94.2456843,
              45.1450843
            ],
            [
              -94.2459421,
              45.1452931
            ],
            [
              -94.2462178,
              45.1454866
            ],
            [
              -94.2465088,
              45.1456629
            ],
            [
              -94.2468121,
              45.1458203
            ],
            [
              -94.247125,
              45.1459572
            ],
            [
              -94.2474444,
              45.1460724
            ],
            [
              -94.2477672,
              45.1461648
            ],
            [
              -94.2480903,
              45.1462334
            ],
            [
              -94.2484107,
              45.1462777
            ],
            [
              -94.2487251,
              45.1462971
            ],
            [
              -94.2490307,
              45.1462915
            ],
            [
              -94.2493243,
              45.1462609
            ],
            [
              -94.2496033,
              45.1462057
            ],
            [
              -94.249865,
              45.1461263
            ],
            [
              -94.2501067,
              45.1460236
            ],
            [
              -94.2503263,
              45.1458985
            ],
            [
              -94.2505215,
              45.1457522
            ],
            [
              -94.2506905,
              45.1455862
            ],
            [
              -94.2508317,
              45.145402
            ],
            [
              -94.2509436,
              45.1452014
            ],
            [
              -94.2510253,
              45.1449864
            ],
            [
              -94.2510759,
              45.1447589
            ],
            [
              -94.251095,
              45.1445213
            ],
            [
              -94.2510824,
              45.1442757
            ],
            [
              -94.2510381,
              45.1440246
            ],
            [
              -94.2509627,
              45.1437704
            ],
            [
              -94.2508568,
              45.1435155
            ],
            [
              -94.2507214,
              45.1432624
            ],
            [
              -94.2505579,
              45.1430135
            ],
            [
              -94.2503679,
              45.1427712
            ],
            [
              -94.2501531,
              45.1425378
            ],
            [
              -94.2499157,
              45.1423157
            ],
            [
              -94.2496579,
              45.1421069
            ],
            [
              -94.2493822,
              45.1419134
            ],
            [
              -94.2490912,
              45.1417371
            ],
            [
              -94.2487879,
              45.1415797
            ],
            [
              -94.248475,
              45.1414428
            ],
            [
              -94.2481556,
              45.1413276
            ],
            [
              -94.2478328,
              45.1412352
            ],
            [
              -94.2475097,
              45.1411666
            ],
            [
              -94.2471893,
              45.1411223
            ],
            [
              -94.2468749,
              45.1411029
            ],
            [
              -94.2465693,
              45.1411085
            ],
            [
              -94.2462757,
              45.1411391
            ],
            [
              -94.2459967,
              45.1411943
            ],
            [
              -94.245735,
              45.1412737
            ],
            [
              -94.2454933,
              45.1413764
            ],
            [
              -94.2452737,
              45.1415015
            ],
            [
              -94.2450785,
              45.1416478
            ],
            [
              -94.2449095,
              45.1418138
            ],
            [
              -94.2447683,
              45.141998
            ],
            [
              -94.2446564,
              45.1421986
            ],
            [
              -94.2445747,
              45.1424136
            ],
            [
              -94.2445241,
              45.1426411
            ],
            [
              -94.244505,
              45.1428787
            ],
            [
              -94.2445176,
              45.1431243
            ],
            [
              -94.2445619,
              45.1433754
            ],
            [
              -94.2446373,
              45.1436296
            ],
            [
              -94.2447432,
              45.1438845
            ],
            [
              -94.2448786,
              45.1441376
            ],
            [
              -94.2450421,
              45.1443865
            ],
            [
              -94.2452321,
              45.1446288
            ],
            [
              -94.2454469,
              45.1448622
            ]
          ]
        ]
      }
    }
  ]
}