{"type": "FeatureCollection", "features": [{"type": "Feature", "properties": {"depth_ft": 0.0, "lake": "Lake Ida", "dow": "86014600"}, "geometry": {"type": "Polygon", "coordinates": [[[-93.911044, 45.300516], [-93.911026, 45.300597], [-93.911008, 45.300678], [-93.911005, 45.300694], [-93.91084, 45.30095], [-93.91077, 45.30137], [-93.910623, 45.30179], [-93.910341, 45.302117], [-93.909982, 45.302417], [-93.909759, 45.302824], [-93.909532, 45.303042], [-93.909304, 45.303166], [-93.909451, 45.303935], [-93.9094, 45.304382], [-93.909102, 45.304871], [-93.90836, 45.305188], [-93.908056, 45.305393], [-93.908021, 45.305569], [-93.908214, 45.305676], [-93.908635, 45.305659], [-93.909074, 45.305561], [-93.909401, 45.305599], [-93.909614, 45.305759], [-93.909675, 45.305948], [-93.909354, 45.306289], [-93.909035, 45.306683], [-93.908814, 45.30728], [-93.908673, 45.307998], [-93.908641, 45.30839], [-93.908359, 45.308784], [-93.908192, 45.30907], [-93.907773, 45.309235], [-93.907047, 45.309417], [-93.906265, 45.309599], [-93.905882, 45.309602], [-93.905295, 45.308876], [-93.904977, 45.308176], [-93.904586, 45.307652], [-93.903968, 45.307332], [-93.903238, 45.307216], [-93.902609, 45.307464], [-93.902197, 45.308063], [-93.901862, 45.30866], [-93.901331, 45.308989], [-93.900797, 45.309142], [-93.900447, 45.308847], [-93.900095, 45.308417], [-93.899287, 45.308167], [-93.898749, 45.308117], [-93.898514, 45.307767], [-93.898451, 45.307443], [-93.898581, 45.307185], [-93.899019, 45.306965], [-93.899511, 45.306624], [-93.89989, 45.306337], [-93.899922, 45.305944], [-93.899685, 45.305473], [-93.899465, 45.304893], [-93.899327, 45.304678], [-93.898917, 45.304154], [-93.898605, 45.303832], [-93.89793, 45.303526], [-93.897447, 45.303287], [-93.897251, 45.303004], [-93.897321, 45.302598], [-93.897524, 45.302083], [-93.897785, 45.301662], [-93.898274, 45.301049], [-93.898995, 45.300598], [-93.899546, 45.300323], [-93.90008, 45.300156], [-93.900598, 45.300206], [-93.900906, 45.300353], [-93.901252, 45.300377], [-93.901864, 45.300332], [-93.902113, 45.300303], [-93.902495, 45.300232], [-93.902891, 45.299877], [-93.903422, 45.299508], [-93.90395, 45.29899], [-93.904404, 45.298608], [-93.90486, 45.298361], [-93.905183, 45.29821], [-93.905469, 45.298153], [-93.90612, 45.298121], [-93.906925, 45.298155], [-93.907517, 45.298029], [-93.908262, 45.297861], [-93.908856, 45.297883], [-93.909607, 45.29812], [-93.910147, 45.298332], [-93.910631, 45.298653], [-93.911231, 45.299027], [-93.911407, 45.299269], [-93.911545, 45.299525], [-93.911454, 45.299809], [-93.911044, 45.300516]]]}}, {"type": "Feature", "properties": {"depth_ft": 50.0, "lake": "Lake Ida", "dow": "86014600"}, "geometry": {"type": "Polygon", "coordinates": [[[-93.906828, 45.302208], [-93.906066, 45.302035], [-93.905762, 45.301993], [-93.905647, 45.301896], [-93.90562, 45.301771], [-93.905719, 45.301636], [-93.905955, 45.301412], [-93.90623, 45.301195], [-93.907224, 45.30092], [-93.907905, 45.300816], [-93.908045, 45.300833], [-93.90811, 45.300948], [-93.90799, 45.301342], [-93.907731, 45.301763], [-93.907431, 45.302015], [-93.907105, 45.30217], [-93.906929, 45.302216], [-93.906828, 45.302208]]]}}, {"type": "Feature", "properties": {"depth_ft": 40.0, "lake": "Lake Ida", "dow": "86014600"}, "geometry": {"type": "Polygon", "coordinates": [[[-93.908336, 45.301669], [-93.907613, 45.302317], [-93.9072, 45.302588], [-93.906898, 45.302671], [-93.906468, 45.302657], [-93.90615, 45.302516], [-93.905781, 45.302359], [-93.905413, 45.302299], [-93.904935, 45.302428], [-93.904583, 45.302573], [-93.904368, 45.302548], [-93.904315, 45.302424], [-93.904701, 45.302001], [-93.905122, 45.301454], [-93.905491, 45.300826], [-93.905724, 45.30037], [-93.906249, 45.300026], [-93.906927, 45.299691], [-93.907317, 45.299608], [-93.907646, 45.299605], [-93.907912, 45.299647], [-93.908461, 45.3], [-93.90872, 45.300346], [-93.908789, 45.300747], [-93.908633, 45.30123], [-93.908336, 45.301669]]]}}, {"type": "Feature", "properties": {"depth_ft": 30.0, "lake": "Lake Ida", "dow": "86014600"}, "geometry": {"type": "Polygon", "coordinates": [[[-93.908904, 45.301575], [-93.908483, 45.302132], [-93.907973, 45.302698], [-93.907838, 45.30294], [-93.907785, 45.303592], [-93.907804, 45.303957], [-93.907569, 45.304316], [-93.907208, 45.304622], [-93.90602, 45.305444], [-93.904879, 45.306086], [-93.904402, 45.306295], [-93.903935, 45.306352], [-93.903353, 45.306303], [-93.902947, 45.306182], [-93.902692, 45.306059], [-93.902547, 45.30573], [-93.90267, 45.305479], [-93.902994, 45.305218], [-93.903332, 45.304947], [-93.903704, 45.304534], [-93.903787, 45.304194], [-93.903592, 45.303821], [-93.903399, 45.303627], [-93.903143, 45.303441], [-93.902673, 45.303293], [-93.902294, 45.303278], [-93.902168, 45.303315], [-93.902055, 45.303396], [-93.901895, 45.303656], [-93.90171, 45.303925], [-93.901433, 45.304008], [-93.901243, 45.303965], [-93.90095, 45.303851], [-93.900539, 45.303444], [-93.900129, 45.303126], [-93.900026, 45.302966], [-93.9001, 45.302867], [-93.900377, 45.302821], [-93.900782, 45.302809], [-93.901032, 45.302655], [-93.901169, 45.302511], [-93.901382, 45.30242], [-93.90171, 45.302346], [-93.902086, 45.302147], [-93.902729, 45.302035], [-93.903183, 45.301969], [-93.903989, 45.301784], [-93.904404, 45.301602], [-93.904553, 45.301449], [-93.904747, 45.30093], [-93.904867, 45.300546], [-93.905189, 45.300133], [-93.905601, 45.2998], [-93.906002, 45.299547], [-93.906593, 45.299346], [-93.906982, 45.2992], [-93.907411, 45.299125], [-93.907765, 45.29914], [-93.90812, 45.2992], [-93.908463, 45.299313], [-93.908834, 45.299587], [-93.909169, 45.300012], [-93.909306, 45.300636], [-93.909185, 45.300984], [-93.908904, 45.301575]]]}}, {"type": "Feature", "properties": {"depth_ft": 10.0, "lake": "Lake Ida", "dow": "86014600"}, "geometry": {"type": "Polygon", "coordinates": [[[-93.903221, 45.304386], [-93.903098, 45.304583], [-93.90286, 45.30471], [-93.902557, 45.304731], [-93.902377, 45.304527], [-93.902398, 45.304277], [-93.902522, 45.304106], [-93.902722, 45.303989], [-93.902924, 45.30396], [-93.903064, 45.304013], [-93.903217, 45.304128], [-93.903221, 45.304386]]]}}, {"type": "Feature", "properties": {"depth_ft": 15.0, "lake": "Lake Ida", "dow": "86014600"}, "geometry": {"type": "Polygon", "coordinates": [[[-93.90221, 45.304376], [-93.902432, 45.304009], [-93.902644, 45.30382], [-93.902795, 45.303783], [-93.903074, 45.303834], [-93.903253, 45.304011], [-93.903384, 45.304251], [-93.903337, 45.304466], [-93.903062, 45.304709], [-93.902811, 45.304836], [-93.902495, 45.304811], [-93.902266, 45.304724], [-93.902187, 45.304555], [-93.90221, 45.304376]]]}}, {"type": "Feature", "properties": {"depth_ft": 20.0, "lake": "Lake Ida", "dow": "86014600"}, "geometry": {"type": "Polygon", "coordinates": [[[-93.902579, 45.303704], [-93.902755, 45.303667], [-93.902971, 45.303719], [-93.903264, 45.30386], [-93.90347, 45.304143], [-93.903462, 45.30442], [-93.903329, 45.30476], [-93.903103, 45.304887], [-93.902826, 45.304978], [-93.902536, 45.304998], [-93.90223, 45.304867], [-93.902025, 45.30469], [-93.901996, 45.304432], [-93.90223, 45.304028], [-93.902579, 45.303704]]]}}, {"type": "Feature", "properties": {"depth_ft": 20.0, "lake": "Lake Ida", "dow": "86014600"}, "geometry": {"type": "Polygon", "coordinates": [[[-93.907451, 45.304808], [-93.90678, 45.305527], [-93.906158, 45.30621], [-93.905736, 45.306695], [-93.905487, 45.306947], [-93.905249, 45.307064], [-93.905021, 45.30704], [-93.904271, 45.306778], [-93.903649, 45.306631], [-93.902534, 45.306461], [-93.901861, 45.306306], [-93.901376, 45.305998], [-93.900644, 45.305254], [-93.90051, 45.304827], [-93.900502, 45.304327], [-93.900462, 45.30414], [-93.90032, 45.30399], [-93.899837, 45.303788], [-93.899594, 45.303621], [-93.89923, 45.303035], [-93.899262, 45.302642], [-93.899337, 45.30257], [-93.89974, 45.302469], [-93.90051, 45.302418], [-93.900965, 45.302379], [-93.901279, 45.302243], [-93.901754, 45.301918], [-93.902143, 45.301763], [-93.90237, 45.301725], [-93.902559, 45.301706], [-93.90299, 45.301756], [-93.903305, 45.3017], [-93.903568, 45.301555], [-93.90373, 45.301402], [-93.903752, 45.301161], [-93.903746, 45.300769], [-93.903868, 45.3005], [-93.904042, 45.300356], [-93.904606, 45.300039], [-93.905157, 45.299714], [-93.905557, 45.299425], [-93.905945, 45.299172], [-93.906498, 45.298945], [-93.907151, 45.298708], [-93.907365, 45.298653], [-93.907745, 45.298658], [-93.908252, 45.29877], [-93.908848, 45.298899], [-93.909457, 45.299028], [-93.909788, 45.299151], [-93.910182, 45.299308], [-93.910285, 45.299397], [-93.910287, 45.299557], [-93.910116, 45.299915], [-93.909775, 45.300703], [-93.909482, 45.301401], [-93.909362, 45.301813], [-93.909191, 45.302135], [-93.908818, 45.302549], [-93.908259, 45.303186], [-93.908251, 45.303454], [-93.908294, 45.303748], [-93.908371, 45.303873], [-93.908425, 45.304077], [-93.908429, 45.304318], [-93.908191, 45.304472], [-93.907877, 45.304563], [-93.907638, 45.304655], [-93.907451, 45.304808]]]}}, {"type": "Feature", "properties": {"depth_ft": 15.0, "lake": "Lake Ida", "dow": "86014600"}, "geometry": {"type": "Polygon", "coordinates": [[[-93.907566, 45.304869], [-93.906621, 45.305903], [-93.906211, 45.306343], [-93.905877, 45.306783], [-93.905604, 45.307124], [-93.905341, 45.30726], [-93.905049, 45.307227], [-93.904514, 45.306972], [-93.903956, 45.306825], [-93.903386, 45.306776], [-93.901941, 45.306529], [-93.901457, 45.306327], [-93.901086, 45.306071], [-93.900583, 45.305424], [-93.900372, 45.304899], [-93.900329, 45.304552], [-93.900351, 45.30432], [-93.900336, 45.304168], [-93.900207, 45.304017], [-93.899736, 45.303834], [-93.899288, 45.303507], [-93.899068, 45.303188], [-93.899063, 45.30284], [-93.899159, 45.302518], [-93.899259, 45.302419], [-93.89956, 45.302319], [-93.900306, 45.302286], [-93.900874, 45.302237], [-93.901188, 45.302109], [-93.901677, 45.301847], [-93.902142, 45.3017], [-93.90266, 45.301661], [-93.902951, 45.301658], [-93.903253, 45.301567], [-93.903427, 45.301378], [-93.903511, 45.30111], [-93.903416, 45.300709], [-93.903526, 45.300476], [-93.903915, 45.300286], [-93.904554, 45.299924], [-93.905129, 45.299554], [-93.906005, 45.298985], [-93.90711, 45.298521], [-93.907399, 45.298402], [-93.907589, 45.29841], [-93.908046, 45.29854], [-93.909887, 45.299061], [-93.910333, 45.299253], [-93.910423, 45.299387], [-93.910416, 45.299708], [-93.910211, 45.300307], [-93.909855, 45.301015], [-93.909603, 45.301829], [-93.909207, 45.302385], [-93.908935, 45.302744], [-93.908485, 45.303095], [-93.90839, 45.30348], [-93.90842, 45.303765], [-93.908525, 45.304014], [-93.908579, 45.304228], [-93.908531, 45.304371], [-93.908306, 45.304507], [-93.907803, 45.304689], [-93.907566, 45.304869]]]}}, {"type": "Feature", "properties": {"depth_ft": 10.0, "lake": "Lake Ida", "dow": "86014600"}, "geometry": {"type": "Polygon", "coordinates": [[[-93.908546, 45.304531], [-93.907881, 45.304849], [-93.907333, 45.305362], [-93.906899, 45.305883], [-93.906539, 45.306314], [-93.906315, 45.306503], [-93.906081, 45.306942], [-93.905908, 45.307166], [-93.905507, 45.307375], [-93.905166, 45.307395], [-93.904734, 45.307309], [-93.904061, 45.307074], [-93.903491, 45.307034], [-93.902909, 45.306976], [-93.901994, 45.306698], [-93.901397, 45.306497], [-93.901052, 45.306286], [-93.900731, 45.305994], [-93.900522, 45.305532], [-93.900301, 45.305185], [-93.90023, 45.304669], [-93.900236, 45.304267], [-93.90017, 45.30408], [-93.89994, 45.303966], [-93.899699, 45.303888], [-93.899266, 45.303677], [-93.899035, 45.303465], [-93.898965, 45.303046], [-93.89897, 45.302582], [-93.899119, 45.302367], [-93.899344, 45.302231], [-93.900126, 45.302127], [-93.90096, 45.302058], [-93.901311, 45.301877], [-93.901599, 45.301723], [-93.902216, 45.301584], [-93.902973, 45.30148], [-93.903275, 45.301379], [-93.903348, 45.301227], [-93.903383, 45.301013], [-93.903277, 45.30071], [-93.903324, 45.300505], [-93.903762, 45.300207], [-93.904363, 45.299845], [-93.904825, 45.299467], [-93.905451, 45.299114], [-93.905852, 45.29887], [-93.906668, 45.298533], [-93.90712, 45.298324], [-93.907346, 45.29826], [-93.907764, 45.298319], [-93.908564, 45.298509], [-93.909211, 45.298665], [-93.909936, 45.298926], [-93.91047, 45.299127], [-93.910522, 45.299216], [-93.910602, 45.299483], [-93.910533, 45.299885], [-93.910277, 45.300476], [-93.910092, 45.30079], [-93.909779, 45.301756], [-93.909459, 45.302347], [-93.909075, 45.302787], [-93.908749, 45.303004], [-93.908614, 45.303228], [-93.90858, 45.303469], [-93.90861, 45.303773], [-93.908783, 45.304298], [-93.908546, 45.304531]]]}}]}