{"type": "FeatureCollection", "features": [{"type": "Feature", "properties": {"depth_ft": 5.0, "lake": "Lake Sylvia", "dow": "86099700"}, "geometry": {"type": "Polygon", "coordinates": [[[-93.97747499999998, 45.2853], [-93.9775642029384, 45.28404293017527], [-93.97783095268052, 45.282797966620144], [-93.97827268028054, 45.28157709901421], [-93.97888513166022, 45.280392084979916], [-93.97966240857794, 45.2792543368502], [-93.98059702543208, 45.278174811761524], [-93.98167998135143, 45.277163906130596], [-93.98290084687852, 45.27623135553128], [-93.98424786441086, 45.27538614093562], [-93.9857080614333, 45.27463640222222], [-93.9872673754503, 45.273989359784736], [-93.98891078941543, 45.273451244995535], [-93.99062247635385, 45.27302724019423], [-93.99238595178464, 45.27272142877882], [-93.99418423247539, 45.27253675588043], [-93.996, 45.272475], [-93.99781576752459, 45.27253675588043], [-93.99961404821534, 45.27272142877882], [-94.00137752364613, 45.27302724019423], [-94.00308921058455, 45.273451244995535], [-94.00473262454969, 45.273989359784736], [-94.00629193856668, 45.27463640222222], [-94.00775213558912, 45.27538614093562], [-94.00909915312147, 45.27623135553128], [-94.01032001864854, 45.277163906130596], [-94.0114029745679, 45.278174811761524], [-94.01233759142205, 45.2792543368502], [-94.01311486833976, 45.280392084979916], [-94.01372731971944, 45.28157709901421], [-94.01416904731946, 45.282797966620144], [-94.0144357970616, 45.28404293017527], [-94.01452499999999, 45.2853], [-94.0144357970616, 45.286557069824724], [-94.01416904731946, 45.28780203337985], [-94.01372731971944, 45.289022900985785], [-94.01311486833976, 45.290207915020076], [-94.01233759142205, 45.29134566314979], [-94.0114029745679, 45.29242518823847], [-94.01032001864854, 45.293436093869396], [-94.00909915312147, 45.29436864446872], [-94.00775213558912, 45.295213859064376], [-94.00629193856668, 45.29596359777778], [-94.00473262454969, 45.29661064021526], [-94.00308921058455, 45.29714875500446], [-94.00137752364613, 45.29757275980576], [-93.99961404821534, 45.29787857122117], [-93.99781576752459, 45.29806324411957], [-93.996, 45.29812499999999], [-93.99418423247539, 45.29806324411957], [-93.99238595178464, 45.29787857122117], [-93.99062247635385, 45.29757275980576], [-93.98891078941543, 45.29714875500446], [-93.9872673754503, 45.29661064021526], [-93.9857080614333, 45.29596359777778], [-93.98424786441086, 45.295213859064376], [-93.98290084687852, 45.29436864446872], [-93.98167998135143, 45.293436093869396], [-93.98059702543208, 45.29242518823847], [-93.97966240857794, 45.29134566314979], [-93.97888513166022, 45.290207915020076], [-93.97827268028054, 45.289022900985785], [-93.97783095268052, 45.28780203337985], [-93.9775642029384, 45.286557069824724], [-93.97747499999998, 45.2853]]]}}, {"type": "Feature", "properties": {"depth_ft": 10.0, "lake": "Lake Sylvia", "dow": "86099700"}, "geometry": {"type": "Polygon", "coordinates": [[[-93.97845, 45.2853], [-93.97853450804689, 45.28410909174499], [-93.97878721832892, 45.282929652587505], [-93.97920569710789, 45.281773041171355], [-93.97978591420441, 45.280650396296764], [-93.98052228181068, 45.27957252964756], [-93.98140770830408, 45.27854982166881], [-93.98243366654347, 45.27759212159741], [-93.98359027599017, 45.27670865260858], [-93.98486639786292, 45.27590792299164], [-93.9862497424105, 45.27519764421052], [-93.98772698726869, 45.27458465663816], [-93.989283905762, 45.274074863679985], [-93.99090550391416, 45.273673174920845], [-93.99257616484861, 45.27338345884309], [-93.99427979918721, 45.273208505570935], [-93.996, 45.273149999999994], [-93.99772020081278, 45.273208505570935], [-93.99942383515138, 45.27338345884309], [-94.00109449608581, 45.273673174920845], [-94.002716094238, 45.274074863679985], [-94.00427301273129, 45.27458465663816], [-94.00575025758948, 45.27519764421052], [-94.00713360213706, 45.27590792299164], [-94.00840972400982, 45.27670865260858], [-94.0095663334565, 45.27759212159741], [-94.0105922916959, 45.27854982166881], [-94.01147771818931, 45.27957252964756], [-94.01221408579558, 45.280650396296764], [-94.01279430289209, 45.281773041171355], [-94.01321278167107, 45.282929652587505], [-94.0134654919531, 45.28410909174499], [-94.01354999999998, 45.2853], [-94.0134654919531, 45.286490908255004], [-94.01321278167107, 45.287670347412494], [-94.01279430289209, 45.288826958828636], [-94.01221408579558, 45.28994960370323], [-94.01147771818931, 45.29102747035243], [-94.0105922916959, 45.29205017833118], [-94.0095663334565, 45.293007878402584], [-94.00840972400982, 45.29389134739141], [-94.00713360213706, 45.29469207700835], [-94.00575025758948, 45.29540235578948], [-94.00427301273129, 45.29601534336183], [-94.002716094238, 45.29652513632001], [-94.00109449608581, 45.29692682507915], [-93.99942383515138, 45.2972165411569], [-93.99772020081278, 45.297391494429064], [-93.996, 45.29745], [-93.99427979918721, 45.297391494429064], [-93.99257616484861, 45.2972165411569], [-93.99090550391416, 45.29692682507915], [-93.989283905762, 45.29652513632001], [-93.98772698726869, 45.29601534336183], [-93.9862497424105, 45.29540235578948], [-93.98486639786292, 45.29469207700835], [-93.98359027599017, 45.29389134739141], [-93.98243366654347, 45.293007878402584], [-93.98140770830408, 45.29205017833118], [-93.98052228181068, 45.29102747035243], [-93.97978591420441, 45.28994960370323], [-93.97920569710789, 45.288826958828636], [-93.97878721832892, 45.287670347412494], [-93.97853450804689, 45.286490908255004], [-93.97845, 45.2853]]]}}, {"type": "Feature", "properties": {"depth_ft": 15.0, "lake": "Lake Sylvia", "dow": "86099700"}, "geometry": {"type": "Polygon", "coordinates": [[[-93.97942499999999, 45.2853], [-93.9795048131554, 45.284175253314714], [-93.97974348397732, 45.28306133855486], [-93.98013871393523, 45.2819689833285], [-93.98068669674862, 45.280908707613605], [-93.98138215504342, 45.27989072244492], [-93.98221839117608, 45.2789248315761], [-93.9831873517355, 45.27802033706422], [-93.98427970510183, 45.27718594968588], [-93.98548493131499, 45.27642970504766], [-93.98679142338769, 45.27575888619883], [-93.9881865990871, 45.2751799534916], [-93.98965702210855, 45.27469848236443], [-93.9911885314745, 45.27431910964747], [-93.99276637791257, 45.27404548890737], [-93.99437536589903, 45.27388025526143], [-93.996, 45.273825], [-93.99762463410094, 45.27388025526143], [-93.9992336220874, 45.27404548890737], [-94.00081146852548, 45.27431910964747], [-94.00234297789143, 45.27469848236443], [-94.00381340091289, 45.2751799534916], [-94.00520857661229, 45.27575888619883], [-94.006515068685, 45.27642970504766], [-94.00772029489816, 45.27718594968588], [-94.00881264826448, 45.27802033706422], [-94.0097816088239, 45.2789248315761], [-94.01061784495657, 45.27989072244492], [-94.01131330325137, 45.280908707613605], [-94.01186128606476, 45.2819689833285], [-94.01225651602267, 45.28306133855486], [-94.01249518684457, 45.284175253314714], [-94.01257499999998, 45.2853], [-94.01249518684457, 45.28642474668528], [-94.01225651602267, 45.28753866144513], [-94.01186128606476, 45.288631016671495], [-94.01131330325137, 45.28969129238639], [-94.01061784495657, 45.290709277555074], [-94.0097816088239, 45.29167516842389], [-94.00881264826448, 45.29257966293577], [-94.00772029489816, 45.29341405031411], [-94.006515068685, 45.29417029495233], [-94.00520857661229, 45.29484111380117], [-94.00381340091289, 45.29542004650839], [-94.00234297789143, 45.29590151763556], [-94.00081146852548, 45.29628089035253], [-93.9992336220874, 45.29655451109262], [-93.99762463410094, 45.29671974473856], [-93.996, 45.296775], [-93.99437536589903, 45.29671974473856], [-93.99276637791257, 45.29655451109262], [-93.9911885314745, 45.29628089035253], [-93.98965702210855, 45.29590151763556], [-93.9881865990871, 45.29542004650839], [-93.98679142338769, 45.29484111380117], [-93.98548493131499, 45.29417029495233], [-93.98427970510183, 45.29341405031411], [-93.9831873517355, 45.29257966293577], [-93.98221839117608, 45.29167516842389], [-93.98138215504342, 45.290709277555074], [-93.98068669674862, 45.28969129238639], [-93.98013871393523, 45.288631016671495], [-93.97974348397732, 45.28753866144513], [-93.9795048131554, 45.28642474668528], [-93.97942499999999, 45.2853]]]}}, {"type": "Feature", "properties": {"depth_ft": 20.0, "lake": "Lake Sylvia", "dow": "86099700"}, "geometry": {"type": "Polygon", "coordinates": [[[-93.98039999999999, 45.2853], [-93.9804751182639, 45.28424141488444], [-93.9806997496257, 45.28319302452222], [-93.98107173076257, 45.282164925485645], [-93.98158747929281, 45.281167018930454], [-93.98224202827616, 45.28020891524228], [-93.98302907404808, 45.279299841483386], [-93.98394103692753, 45.27844855253103], [-93.98496913421349, 45.27766324676318], [-93.98610346476704, 45.27695148710368], [-93.98733310436488, 45.27632012818713], [-93.9886462109055, 45.275775250345035], [-93.99003013845508, 45.27532210104888], [-93.99147155903482, 45.27496504437409], [-93.99295659097653, 45.27470751897164], [-93.99447093261084, 45.274552004951936], [-93.996, 45.274499999999996], [-93.99752906738914, 45.274552004951936], [-93.99904340902344, 45.27470751897164], [-94.00052844096516, 45.27496504437409], [-94.0019698615449, 45.27532210104888], [-94.00335378909448, 45.275775250345035], [-94.0046668956351, 45.27632012818713], [-94.00589653523295, 45.27695148710368], [-94.00703086578649, 45.27766324676318], [-94.00805896307244, 45.27844855253103], [-94.0089709259519, 45.279299841483386], [-94.00975797172381, 45.28020891524228], [-94.01041252070716, 45.281167018930454], [-94.01092826923741, 45.282164925485645], [-94.01130025037428, 45.28319302452222], [-94.01152488173608, 45.28424141488444], [-94.01159999999999, 45.2853], [-94.01152488173608, 45.28635858511556], [-94.01130025037428, 45.28740697547777], [-94.01092826923741, 45.28843507451435], [-94.01041252070716, 45.28943298106954], [-94.00975797172381, 45.290391084757715], [-94.0089709259519, 45.291300158516606], [-94.00805896307244, 45.29215144746896], [-94.00703086578649, 45.292936753236816], [-94.00589653523295, 45.29364851289631], [-94.0046668956351, 45.29427987181287], [-94.00335378909448, 45.294824749654964], [-94.0019698615449, 45.29527789895111], [-94.00052844096516, 45.2956349556259], [-93.99904340902344, 45.29589248102835], [-93.99752906738914, 45.296047995048056], [-93.996, 45.296099999999996], [-93.99447093261084, 45.296047995048056], [-93.99295659097653, 45.29589248102835], [-93.99147155903482, 45.2956349556259], [-93.99003013845508, 45.29527789895111], [-93.9886462109055, 45.294824749654964], [-93.98733310436488, 45.29427987181287], [-93.98610346476704, 45.29364851289631], [-93.98496913421349, 45.292936753236816], [-93.98394103692753, 45.29215144746896], [-93.98302907404808, 45.291300158516606], [-93.98224202827616, 45.290391084757715], [-93.98158747929281, 45.28943298106954], [-93.98107173076257, 45.28843507451435], [-93.9806997496257, 45.28740697547777], [-93.9804751182639, 45.28635858511556], [-93.98039999999999, 45.2853]]]}}, {"type": "Feature", "properties": {"depth_ft": 25.0, "lake": "Lake Sylvia", "dow": "86099700"}, "geometry": {"type": "Polygon", "coordinates": [[[-93.98137499999999, 45.2853], [-93.9814454233724, 45.28430757645416], [-93.98165601527408, 45.28332471048958], [-93.98200474758991, 45.2823608676428], [-93.98248826183702, 45.2814253302473], [-93.9831019015089, 45.28052710803963], [-93.98383975692006, 45.27967485139067], [-93.98469472211956, 45.27887676799784], [-93.98565856332513, 45.278140543840486], [-93.9867219982191, 45.2774732691597], [-93.98787478534207, 45.27688137017544], [-93.98910582272391, 45.27637054719847], [-93.99040325480165, 45.27594571973332], [-93.99175458659514, 45.275610979100705], [-93.9931468040405, 45.275369549035915], [-93.99456649932267, 45.27522375464244], [-93.996, 45.275175], [-93.99743350067732, 45.27522375464244], [-93.99885319595948, 45.275369549035915], [-94.00024541340484, 45.275610979100705], [-94.00159674519834, 45.27594571973332], [-94.00289417727608, 45.27637054719847], [-94.0041252146579, 45.27688137017544], [-94.00527800178088, 45.2774732691597], [-94.00634143667486, 45.278140543840486], [-94.00730527788043, 45.27887676799784], [-94.00816024307993, 45.27967485139067], [-94.00889809849107, 45.28052710803963], [-94.00951173816296, 45.2814253302473], [-94.00999525241006, 45.2823608676428], [-94.01034398472589, 45.28332471048958], [-94.01055457662757, 45.28430757645416], [-94.01062499999999, 45.2853], [-94.01055457662757, 45.28629242354584], [-94.01034398472589, 45.28727528951041], [-94.00999525241006, 45.2882391323572], [-94.00951173816296, 45.28917466975269], [-94.00889809849107, 45.290072891960364], [-94.00816024307993, 45.29092514860932], [-94.00730527788043, 45.291723232002155], [-94.00634143667486, 45.29245945615951], [-94.00527800178088, 45.29312673084029], [-94.0041252146579, 45.29371862982456], [-94.00289417727608, 45.294229452801524], [-94.00159674519834, 45.29465428026668], [-94.00024541340484, 45.29498902089929], [-93.99885319595948, 45.29523045096408], [-93.99743350067732, 45.29537624535755], [-93.996, 45.295424999999994], [-93.99456649932267, 45.29537624535755], [-93.9931468040405, 45.29523045096408], [-93.99175458659514, 45.29498902089929], [-93.99040325480165, 45.29465428026668], [-93.98910582272391, 45.294229452801524], [-93.98787478534207, 45.29371862982456], [-93.9867219982191, 45.29312673084029], [-93.98565856332513, 45.29245945615951], [-93.98469472211956, 45.291723232002155], [-93.98383975692006, 45.29092514860932], [-93.9831019015089, 45.290072891960364], [-93.98248826183702, 45.28917466975269], [-93.98200474758991, 45.2882391323572], [-93.98165601527408, 45.28727528951041], [-93.9814454233724, 45.28629242354584], [-93.98137499999999, 45.2853]]]}}, {"type": "Feature", "properties": {"depth_ft": 30.0, "lake": "Lake Sylvia", "dow": "86099700"}, "geometry": {"type": "Polygon", "coordinates": [[[-93.98235, 45.2853], [-93.98241572848093, 45.28437373802389], [-93.9826122809225, 45.28345639645695], [-93.98293776441726, 45.28255680979994], [-93.98338904438121, 45.28168364156414], [-93.98396177474163, 45.28084530083699], [-93.98465043979206, 45.28004986129796], [-93.9854484073116, 45.27930498346465], [-93.98634799243679, 45.27861784091778], [-93.98734053167117, 45.27799505121572], [-93.98841646631926, 45.27744261216374], [-93.98956543454231, 45.27696584405191], [-93.9907763711482, 45.276569338417765], [-93.99203761415548, 45.276256913827325], [-93.99333701710447, 45.276031579100184], [-93.9946620660345, 45.275895504332944], [-93.996, 45.27585], [-93.99733793396548, 45.275895504332944], [-93.99866298289552, 45.276031579100184], [-93.99996238584451, 45.276256913827325], [-94.00122362885178, 45.276569338417765], [-94.00243456545766, 45.27696584405191], [-94.00358353368071, 45.27744261216374], [-94.00465946832882, 45.27799505121572], [-94.00565200756319, 45.27861784091778], [-94.0065515926884, 45.27930498346465], [-94.00734956020793, 45.28004986129796], [-94.00803822525836, 45.28084530083699], [-94.00861095561878, 45.28168364156414], [-94.00906223558273, 45.28255680979994], [-94.0093877190775, 45.28345639645695], [-94.00958427151906, 45.28437373802389], [-94.00964999999998, 45.2853], [-94.00958427151906, 45.28622626197611], [-94.0093877190775, 45.28714360354305], [-94.00906223558273, 45.28804319020006], [-94.00861095561878, 45.28891635843585], [-94.00803822525836, 45.289754699163005], [-94.00734956020793, 45.29055013870203], [-94.0065515926884, 45.291295016535344], [-94.00565200756319, 45.29198215908221], [-94.00465946832882, 45.29260494878427], [-94.00358353368071, 45.29315738783625], [-94.00243456545766, 45.29363415594809], [-94.00122362885178, 45.294030661582234], [-93.99996238584451, 45.29434308617267], [-93.99866298289552, 45.29456842089981], [-93.99733793396548, 45.29470449566705], [-93.996, 45.29475], [-93.9946620660345, 45.29470449566705], [-93.99333701710447, 45.29456842089981], [-93.99203761415548, 45.29434308617267], [-93.9907763711482, 45.294030661582234], [-93.98956543454231, 45.29363415594809], [-93.98841646631926, 45.29315738783625], [-93.98734053167117, 45.29260494878427], [-93.98634799243679, 45.29198215908221], [-93.9854484073116, 45.291295016535344], [-93.98465043979206, 45.29055013870203], [-93.98396177474163, 45.289754699163005], [-93.98338904438121, 45.28891635843585], [-93.98293776441726, 45.28804319020006], [-93.9826122809225, 45.28714360354305], [-93.98241572848093, 45.28622626197611], [-93.98235, 45.2853]]]}}, {"type": "Feature", "properties": {"depth_ft": 35.0, "lake": "Lake Sylvia", "dow": "86099700"}, "geometry": {"type": "Polygon", "coordinates": [[[-93.983325, 45.2853], [-93.98338603358943, 45.28443989959361], [-93.98356854657088, 45.28358808242431], [-93.98387078124458, 45.28275275195709], [-93.98428982692542, 45.28194195288099], [-93.98482164797437, 45.281163493634345], [-93.98546112266406, 45.28042487120525], [-93.98620209250362, 45.27973319893146], [-93.98703742154845, 45.279095137995085], [-93.98795906512322, 45.27851683327174], [-93.98895814729646, 45.27800385415204], [-93.99002504636073, 45.277561140905334], [-93.99114948749477, 45.27719295710221], [-93.99232064171579, 45.27690284855395], [-93.99352723016843, 45.27669360916446], [-93.9947576327463, 45.27656725402345], [-93.996, 45.276525], [-93.99724236725368, 45.27656725402345], [-93.99847276983155, 45.27669360916446], [-93.9996793582842, 45.27690284855395], [-94.00085051250522, 45.27719295710221], [-94.00197495363926, 45.277561140905334], [-94.00304185270352, 45.27800385415204], [-94.00404093487677, 45.27851683327174], [-94.00496257845153, 45.279095137995085], [-94.00579790749637, 45.27973319893146], [-94.00653887733593, 45.28042487120525], [-94.0071783520256, 45.281163493634345], [-94.00771017307457, 45.28194195288099], [-94.0081292187554, 45.28275275195709], [-94.00843145342911, 45.28358808242431], [-94.00861396641056, 45.28443989959361], [-94.00867499999998, 45.2853], [-94.00861396641056, 45.28616010040639], [-94.00843145342911, 45.28701191757569], [-94.0081292187554, 45.2878472480429], [-94.00771017307457, 45.288658047119], [-94.0071783520256, 45.28943650636565], [-94.00653887733593, 45.29017512879474], [-94.00579790749637, 45.29086680106853], [-94.00496257845153, 45.291504862004906], [-94.00404093487677, 45.292083166728254], [-94.00304185270352, 45.29259614584795], [-94.00197495363926, 45.29303885909466], [-94.00085051250522, 45.29340704289778], [-93.9996793582842, 45.29369715144605], [-93.99847276983155, 45.29390639083553], [-93.99724236725368, 45.294032745976544], [-93.996, 45.29407499999999], [-93.9947576327463, 45.294032745976544], [-93.99352723016843, 45.29390639083553], [-93.99232064171579, 45.29369715144605], [-93.99114948749477, 45.29340704289778], [-93.99002504636073, 45.29303885909466], [-93.98895814729646, 45.29259614584795], [-93.98795906512322, 45.292083166728254], [-93.98703742154845, 45.291504862004906], [-93.98620209250362, 45.29086680106853], [-93.98546112266406, 45.29017512879474], [-93.98482164797437, 45.28943650636565], [-93.98428982692542, 45.288658047119], [-93.98387078124458, 45.2878472480429], [-93.98356854657088, 45.28701191757569], [-93.98338603358943, 45.28616010040639], [-93.983325, 45.2853]]]}}, {"type": "Feature", "properties": {"depth_ft": 40.0, "lake": "Lake Sylvia", "dow": "86099700"}, "geometry": {"type": "Polygon", "coordinates": [[[-93.98429999999999, 45.2853], [-93.98435633869794, 45.28450606116333], [-93.98452481221928, 45.28371976839166], [-93.98480379807192, 45.28294869411424], [-93.98519060946961, 45.28220026419784], [-93.98568152120711, 45.281481686431704], [-93.98627180553605, 45.28079988111254], [-93.98695577769566, 45.28016141439827], [-93.98772685066012, 45.27957243507239], [-93.98857759857528, 45.27903861532776], [-93.98949982827365, 45.27856509614035], [-93.99048465817913, 45.278156437758774], [-93.99152260384132, 45.27781657578665], [-93.99260366927611, 45.277548783280565], [-93.99371744323241, 45.27735563922873], [-93.99485319945813, 45.27723900371395], [-93.996, 45.27719999999999], [-93.99714680054186, 45.27723900371395], [-93.99828255676758, 45.27735563922873], [-93.99939633072387, 45.277548783280565], [-94.00047739615866, 45.27781657578665], [-94.00151534182085, 45.278156437758774], [-94.00250017172633, 45.27856509614035], [-94.0034224014247, 45.27903861532776], [-94.00427314933987, 45.27957243507239], [-94.00504422230433, 45.28016141439827], [-94.00572819446394, 45.28079988111254], [-94.00631847879286, 45.281481686431704], [-94.00680939053036, 45.28220026419784], [-94.00719620192807, 45.28294869411424], [-94.0074751877807, 45.28371976839166], [-94.00764366130205, 45.28450606116333], [-94.00769999999999, 45.2853], [-94.00764366130205, 45.286093938836665], [-94.0074751877807, 45.28688023160833], [-94.00719620192807, 45.28765130588575], [-94.00680939053036, 45.28839973580215], [-94.00631847879286, 45.28911831356829], [-94.00572819446394, 45.289800118887456], [-94.00504422230433, 45.29043858560172], [-94.00427314933987, 45.29102756492761], [-94.0034224014247, 45.291561384672235], [-94.00250017172633, 45.292034903859644], [-94.00151534182085, 45.29244356224122], [-94.00047739615866, 45.29278342421334], [-93.99939633072387, 45.29305121671943], [-93.99828255676758, 45.29324436077126], [-93.99714680054186, 45.29336099628604], [-93.996, 45.2934], [-93.99485319945813, 45.29336099628604], [-93.99371744323241, 45.29324436077126], [-93.99260366927611, 45.29305121671943], [-93.99152260384132, 45.29278342421334], [-93.99048465817913, 45.29244356224122], [-93.98949982827365, 45.292034903859644], [-93.98857759857528, 45.291561384672235], [-93.98772685066012, 45.29102756492761], [-93.98695577769566, 45.29043858560172], [-93.98627180553605, 45.289800118887456], [-93.98568152120711, 45.28911831356829], [-93.98519060946961, 45.28839973580215], [-93.98480379807192, 45.28765130588575], [-93.98452481221928, 45.28688023160833], [-93.98435633869794, 45.286093938836665], [-93.98429999999999, 45.2853]]]}}, {"type": "Feature", "properties": {"depth_ft": 50.0, "lake": "Lake Sylvia", "dow": "86099700"}, "geometry": {"type": "Polygon", "coordinates": [[[-93.98625, 45.2853], [-93.98629694891494, 45.284638384302774], [-93.98643734351607, 45.28398314032639], [-93.9866698317266, 45.28334057842853], [-93.98699217455801, 45.28271688683153], [-93.9874012676726, 45.28211807202642], [-93.98789317128005, 45.28154990092712], [-93.9884631480797, 45.281017845331895], [-93.98910570888343, 45.28052702922699], [-93.9898146654794, 45.2800821794398], [-93.99058319022804, 45.279687580116956], [-93.99140388181594, 45.27934703146564], [-93.99226883653444, 45.279063813155545], [-93.99316972439676, 45.278840652733805], [-93.99409786936033, 45.278679699357276], [-93.99504433288178, 45.27858250309496], [-93.996, 45.278549999999996], [-93.99695566711821, 45.27858250309496], [-93.99790213063964, 45.278679699357276], [-93.99883027560323, 45.278840652733805], [-93.99973116346554, 45.279063813155545], [-94.00059611818403, 45.27934703146564], [-94.00141680977194, 45.279687580116956], [-94.00218533452059, 45.2800821794398], [-94.00289429111656, 45.28052702922699], [-94.00353685192027, 45.281017845331895], [-94.00410682871994, 45.28154990092712], [-94.00459873232738, 45.28211807202642], [-94.00500782544198, 45.28271688683153], [-94.00533016827337, 45.28334057842853], [-94.00556265648392, 45.28398314032639], [-94.00570305108504, 45.284638384302774], [-94.00574999999998, 45.2853], [-94.00570305108504, 45.28596161569722], [-94.00556265648392, 45.2866168596736], [-94.00533016827337, 45.28725942157146], [-94.00500782544198, 45.28788311316846], [-94.00459873232738, 45.28848192797357], [-94.00410682871994, 45.28905009907288], [-94.00353685192027, 45.2895821546681], [-94.00289429111656, 45.290072970773004], [-94.00218533452059, 45.2905178205602], [-94.00141680977194, 45.290912419883036], [-94.00059611818403, 45.29125296853435], [-93.99973116346554, 45.291536186844446], [-93.99883027560323, 45.291759347266186], [-93.99790213063964, 45.29192030064272], [-93.99695566711821, 45.29201749690504], [-93.996, 45.292049999999996], [-93.99504433288178, 45.29201749690504], [-93.99409786936033, 45.29192030064272], [-93.99316972439676, 45.291759347266186], [-93.99226883653444, 45.291536186844446], [-93.99140388181594, 45.29125296853435], [-93.99058319022804, 45.290912419883036], [-93.9898146654794, 45.2905178205602], [-93.98910570888343, 45.290072970773004], [-93.9884631480797, 45.2895821546681], [-93.98789317128005, 45.28905009907288], [-93.9874012676726, 45.28848192797357], [-93.98699217455801, 45.28788311316846], [-93.9866698317266, 45.28725942157146], [-93.98643734351607, 45.2866168596736], [-93.98629694891494, 45.28596161569722], [-93.98625, 45.2853]]]}}, {"type": "Feature", "properties": {"depth_ft": 60.0, "lake": "Lake Sylvia", "dow": "86099700"}, "geometry": {"type": "Polygon", "coordinates": [[[-93.98819999999999, 45.2853], [-93.98823755913196, 45.28477070744221], [-93.98834987481285, 45.284246512261106], [-93.98853586538127, 45.283732462742826], [-93.9887937396464, 45.28323350946522], [-93.98912101413806, 45.28275445762114], [-93.98951453702402, 45.28229992074169], [-93.98997051846376, 45.28187427626551], [-93.99048456710673, 45.281481623381595], [-93.99105173238351, 45.28112574355184], [-93.99166655218245, 45.280810064093565], [-93.99232310545275, 45.28053762517252], [-93.99301506922754, 45.28031105052444], [-93.99373577951742, 45.280132522187046], [-93.99447829548826, 45.28000375948582], [-93.99523546630543, 45.27992600247597], [-93.996, 45.2799], [-93.99676453369456, 45.27992600247597], [-93.99752170451171, 45.28000375948582], [-93.99826422048257, 45.280132522187046], [-93.99898493077244, 45.28031105052444], [-93.99967689454722, 45.28053762517252], [-94.00033344781754, 45.280810064093565], [-94.00094826761647, 45.28112574355184], [-94.00151543289326, 45.281481623381595], [-94.00202948153623, 45.28187427626551], [-94.00248546297595, 45.28229992074169], [-94.00287898586191, 45.28275445762114], [-94.0032062603536, 45.28323350946522], [-94.00346413461871, 45.283732462742826], [-94.00365012518712, 45.284246512261106], [-94.00376244086803, 45.28477070744221], [-94.0038, 45.2853], [-94.00376244086803, 45.28582929255778], [-94.00365012518712, 45.286353487738886], [-94.00346413461871, 45.28686753725717], [-94.0032062603536, 45.28736649053477], [-94.00287898586191, 45.28784554237886], [-94.00248546297595, 45.288300079258306], [-94.00202948153623, 45.28872572373448], [-94.00151543289326, 45.289118376618404], [-94.00094826761647, 45.28947425644815], [-94.00033344781754, 45.28978993590643], [-93.99967689454722, 45.29006237482748], [-93.99898493077244, 45.29028894947556], [-93.99826422048257, 45.29046747781295], [-93.99752170451171, 45.290596240514176], [-93.99676453369456, 45.29067399752403], [-93.996, 45.290699999999994], [-93.99523546630543, 45.29067399752403], [-93.99447829548826, 45.290596240514176], [-93.99373577951742, 45.29046747781295], [-93.99301506922754, 45.29028894947556], [-93.99232310545275, 45.29006237482748], [-93.99166655218245, 45.28978993590643], [-93.99105173238351, 45.28947425644815], [-93.99048456710673, 45.289118376618404], [-93.98997051846376, 45.28872572373448], [-93.98951453702402, 45.288300079258306], [-93.98912101413806, 45.28784554237886], [-93.9887937396464, 45.28736649053477], [-93.98853586538127, 45.28686753725717], [-93.98834987481285, 45.286353487738886], [-93.98823755913196, 45.28582929255778], [-93.98819999999999, 45.2853]]]}}, {"type": "Feature", "properties": {"depth_ft": 70.0, "lake": "Lake Sylvia", "dow": "86099700"}, "geometry": {"type": "Polygon", "coordinates": [[[-93.99015, 45.2853], [-93.99017816934897, 45.28490303058166], [-93.99026240610962, 45.284509884195835], [-93.99040189903596, 45.284124347057116], [-93.99059530473481, 45.283750132098916], [-93.99084076060355, 45.283390843215855], [-93.99113590276802, 45.28304994055627], [-93.99147788884783, 45.282730707199136], [-93.99186342533005, 45.282436217536194], [-93.99228879928764, 45.28216930766388], [-93.99274991413684, 45.281932548070166], [-93.99324232908955, 45.28172821887939], [-93.99376130192066, 45.281558287893326], [-93.99430183463805, 45.28142439164028], [-93.9948587216162, 45.28132781961437], [-93.99542659972906, 45.281269501856976], [-93.996, 45.28125], [-93.99657340027092, 45.281269501856976], [-93.9971412783838, 45.28132781961437], [-93.99769816536194, 45.28142439164028], [-93.99823869807932, 45.281558287893326], [-93.99875767091044, 45.28172821887939], [-93.99925008586315, 45.281932548070166], [-93.99971120071235, 45.28216930766388], [-94.00013657466992, 45.282436217536194], [-94.00052211115216, 45.282730707199136], [-94.00086409723195, 45.28304994055627], [-94.00115923939643, 45.283390843215855], [-94.00140469526518, 45.283750132098916], [-94.00159810096403, 45.284124347057116], [-94.00173759389035, 45.284509884195835], [-94.00182183065102, 45.28490303058166], [-94.00184999999998, 45.2853], [-94.00182183065102, 45.28569696941833], [-94.00173759389035, 45.28609011580416], [-94.00159810096403, 45.286475652942876], [-94.00140469526518, 45.286849867901076], [-94.00115923939643, 45.287209156784144], [-94.00086409723195, 45.28755005944373], [-94.00052211115216, 45.287869292800856], [-94.00013657466992, 45.2881637824638], [-93.99971120071235, 45.288430692336114], [-93.99925008586315, 45.288667451929825], [-93.99875767091044, 45.288871781120605], [-93.99823869807932, 45.289041712106666], [-93.99769816536194, 45.28917560835971], [-93.9971412783838, 45.28927218038563], [-93.99657340027092, 45.289330498143016], [-93.996, 45.28935], [-93.99542659972906, 45.289330498143016], [-93.9948587216162, 45.28927218038563], [-93.99430183463805, 45.28917560835971], [-93.99376130192066, 45.289041712106666], [-93.99324232908955, 45.288871781120605], [-93.99274991413684, 45.288667451929825], [-93.99228879928764, 45.288430692336114], [-93.99186342533005, 45.2881637824638], [-93.99147788884783, 45.287869292800856], [-93.99113590276802, 45.28755005944373], [-93.99084076060355, 45.287209156784144], [-93.99059530473481, 45.286849867901076], [-93.99040189903596, 45.286475652942876], [-93.99026240610962, 45.28609011580416], [-93.99017816934897, 45.28569696941833], [-93.99015, 45.2853]]]}}, {"type": "Feature", "properties": {"depth_ft": 80.0, "lake": "Lake Sylvia", "dow": "86099700"}, "geometry": {"type": "Polygon", "coordinates": [[[-93.9921, 45.2853], [-93.99211877956597, 45.285035353721106], [-93.99217493740642, 45.284773256130556], [-93.99226793269064, 45.28451623137141], [-93.9923968698232, 45.28426675473261], [-93.99256050706904, 45.28402722881057], [-93.99275726851201, 45.28379996037085], [-93.99298525923187, 45.28358713813275], [-93.99324228355336, 45.28339081169079], [-93.99352586619176, 45.283212871775916], [-93.99383327609122, 45.283055032046775], [-93.99416155272637, 45.28291881258625], [-93.99450753461377, 45.28280552526221], [-93.99486788975871, 45.28271626109352], [-93.99523914774414, 45.282651879742915], [-93.9956177331527, 45.28261300123798], [-93.996, 45.282599999999995], [-93.99638226684728, 45.28261300123798], [-93.99676085225585, 45.282651879742915], [-93.99713211024128, 45.28271626109352], [-93.9974924653862, 45.28280552526221], [-93.99783844727362, 45.28291881258625], [-93.99816672390877, 45.283055032046775], [-93.99847413380823, 45.283212871775916], [-93.99875771644662, 45.28339081169079], [-93.9990147407681, 45.28358713813275], [-93.99924273148797, 45.28379996037085], [-93.99943949293095, 45.28402722881057], [-93.9996031301768, 45.28426675473261], [-93.99973206730934, 45.28451623137141], [-93.99982506259357, 45.284773256130556], [-93.999881220434, 45.285035353721106], [-93.9999, 45.2853], [-93.999881220434, 45.285564646278885], [-93.99982506259357, 45.28582674386944], [-93.99973206730934, 45.28608376862858], [-93.9996031301768, 45.286333245267386], [-93.99943949293095, 45.28657277118943], [-93.99924273148797, 45.28680003962915], [-93.9990147407681, 45.28701286186724], [-93.99875771644662, 45.287209188309205], [-93.99847413380823, 45.287387128224076], [-93.99816672390877, 45.28754496795322], [-93.99783844727362, 45.28768118741374], [-93.9974924653862, 45.28779447473778], [-93.99713211024128, 45.28788373890648], [-93.99676085225585, 45.287948120257084], [-93.99638226684728, 45.28798699876201], [-93.996, 45.288], [-93.9956177331527, 45.28798699876201], [-93.99523914774414, 45.287948120257084], [-93.99486788975871, 45.28788373890648], [-93.99450753461377, 45.28779447473778], [-93.99416155272637, 45.28768118741374], [-93.99383327609122, 45.28754496795322], [-93.99352586619176, 45.287387128224076], [-93.99324228355336, 45.287209188309205], [-93.99298525923187, 45.28701286186724], [-93.99275726851201, 45.28680003962915], [-93.99256050706904, 45.28657277118943], [-93.9923968698232, 45.286333245267386], [-93.99226793269064, 45.28608376862858], [-93.99217493740642, 45.28582674386944], [-93.99211877956597, 45.285564646278885], [-93.9921, 45.2853]]]}}]}