{"type": "FeatureCollection", "features": [{"type": "Feature", "properties": {"depth_ft": 40.0, "lake": "Lake Charlotte", "dow": "86001100"}, "geometry": {"type": "Polygon", "coordinates": [[[-93.747197, 45.154397], [-93.746444, 45.15438], [-93.746224, 45.154337], [-93.74594, 45.154205], [-93.745782, 45.154073], [-93.745623, 45.153897], [-93.745526, 45.153676], [-93.745492, 45.153454], [-93.74555, 45.153099], [-93.745481, 45.152678], [-93.745412, 45.152191], [-93.745409, 45.151947], [-93.74553, 45.151591], [-93.745803, 45.15088], [-93.745892, 45.150502], [-93.745888, 45.150214], [-93.745822, 45.149948], [-93.745725, 45.149705], [-93.745533, 45.14944], [-93.745372, 45.149086], [-93.745274, 45.148754], [-93.745239, 45.148488], [-93.745203, 45.148178], [-93.745169, 45.147978], [-93.745065, 45.147181], [-93.745087, 45.146471], [-93.74521, 45.14627], [-93.745395, 45.146069], [-93.74574, 45.146067], [-93.745992, 45.146176], [-93.746121, 45.146464], [-93.746125, 45.14673], [-93.746068, 45.147196], [-93.74626, 45.147483], [-93.746455, 45.147992], [-93.746557, 45.148612], [-93.74672, 45.149077], [-93.746694, 45.149499], [-93.74667, 45.150053], [-93.746767, 45.150274], [-93.747088, 45.150871], [-93.747344, 45.151313], [-93.747665, 45.151843], [-93.748077, 45.152218], [-93.748428, 45.152725], [-93.748623, 45.15319], [-93.748756, 45.153766], [-93.748635, 45.154143], [-93.748355, 45.154323], [-93.747761, 45.154415], [-93.747197, 45.154397]]]}}, {"type": "Feature", "properties": {"depth_ft": 30.0, "lake": "Lake Charlotte", "dow": "86001100"}, "geometry": {"type": "Polygon", "coordinates": [[[-93.747144, 45.155151], [-93.746703, 45.155021], [-93.745692, 45.154407], [-93.745438, 45.154187], [-93.745216, 45.153922], [-93.745115, 45.153457], [-93.745263, 45.152768], [-93.745224, 45.152148], [-93.745282, 45.151792], [-93.745309, 45.151459], [-93.745493, 45.15117], [-93.745612, 45.150681], [-93.745545, 45.150349], [-93.745541, 45.150016], [-93.745507, 45.149795], [-93.745378, 45.149574], [-93.745122, 45.14911], [-93.745055, 45.148822], [-93.744957, 45.148534], [-93.744923, 45.148313], [-93.744764, 45.148136], [-93.74448, 45.148005], [-93.743818, 45.147677], [-93.743567, 45.147634], [-93.743345, 45.14748], [-93.743218, 45.147348], [-93.743185, 45.147193], [-93.743339, 45.14697], [-93.743493, 45.146769], [-93.743583, 45.146525], [-93.743737, 45.146302], [-93.743984, 45.146012], [-93.744232, 45.145789], [-93.744448, 45.145543], [-93.744601, 45.14521], [-93.744785, 45.14492], [-93.745096, 45.144718], [-93.74547, 45.144583], [-93.745908, 45.144491], [-93.746253, 45.144578], [-93.746444, 45.144776], [-93.746699, 45.145085], [-93.746861, 45.145505], [-93.746995, 45.146192], [-93.747004, 45.146835], [-93.747104, 45.147278], [-93.747328, 45.147676], [-93.747394, 45.147942], [-93.747366, 45.148208], [-93.747401, 45.148429], [-93.747561, 45.148739], [-93.747846, 45.148959], [-93.748322, 45.149377], [-93.748514, 45.149709], [-93.748797, 45.149773], [-93.74902, 45.149994], [-93.749275, 45.150325], [-93.749342, 45.150657], [-93.749574, 45.151609], [-93.749703, 45.151919], [-93.749831, 45.15214], [-93.750216, 45.152802], [-93.750442, 45.153267], [-93.750541, 45.15371], [-93.750513, 45.153909], [-93.750422, 45.154198], [-93.750333, 45.154576], [-93.750184, 45.155109], [-93.750187, 45.155353], [-93.750191, 45.155664], [-93.750131, 45.155841], [-93.749977, 45.156086], [-93.749636, 45.156355], [-93.74923, 45.156491], [-93.748947, 45.156448], [-93.748664, 45.156383], [-93.748285, 45.156164], [-93.748031, 45.155855], [-93.747871, 45.155634], [-93.747713, 45.155525], [-93.747428, 45.155283], [-93.747144, 45.155151]]]}}, {"type": "Feature", "properties": {"depth_ft": 20.0, "lake": "Lake Charlotte", "dow": "86001100"}, "geometry": {"type": "Polygon", "coordinates": [[[-93.746897, 45.155463], [-93.746331, 45.155334], [-93.745952, 45.155115], [-93.745604, 45.154829], [-93.745286, 45.154498], [-93.744841, 45.15408], [-93.744681, 45.153814], [-93.744707, 45.153371], [-93.744702, 45.152994], [-93.744817, 45.152217], [-93.745148, 45.151128], [-93.745326, 45.15035], [-93.745353, 45.150018], [-93.745159, 45.149553], [-93.744998, 45.149288], [-93.744837, 45.148912], [-93.744833, 45.148646], [-93.744705, 45.148425], [-93.74439, 45.148272], [-93.743918, 45.14812], [-93.743507, 45.1479], [-93.743128, 45.147659], [-93.742717, 45.147373], [-93.74262, 45.147174], [-93.742649, 45.146974], [-93.742835, 45.146796], [-93.743206, 45.146394], [-93.743546, 45.146037], [-93.743886, 45.145702], [-93.744195, 45.145345], [-93.744317, 45.145101], [-93.744377, 45.144878], [-93.744436, 45.144634], [-93.744747, 45.144432], [-93.745183, 45.144208], [-93.745777, 45.144071], [-93.746213, 45.143891], [-93.746743, 45.143665], [-93.747273, 45.143462], [-93.747554, 45.143372], [-93.747869, 45.143525], [-93.748249, 45.143833], [-93.748473, 45.144164], [-93.748449, 45.144697], [-93.748391, 45.145074], [-93.748368, 45.145695], [-93.748342, 45.146139], [-93.748316, 45.14656], [-93.748167, 45.147094], [-93.748045, 45.147405], [-93.74771, 45.148117], [-93.747588, 45.148362], [-93.747748, 45.148649], [-93.748032, 45.148802], [-93.748412, 45.149088], [-93.748541, 45.149331], [-93.748732, 45.149552], [-93.749395, 45.149947], [-93.749679, 45.150078], [-93.749901, 45.150254], [-93.750061, 45.150519], [-93.750128, 45.150829], [-93.750224, 45.151006], [-93.750576, 45.151536], [-93.750612, 45.15189], [-93.750804, 45.152244], [-93.750996, 45.152531], [-93.751314, 45.152884], [-93.751481, 45.153615], [-93.751425, 45.154125], [-93.751336, 45.154525], [-93.751215, 45.154903], [-93.750939, 45.155304], [-93.750382, 45.155906], [-93.750106, 45.15633], [-93.749766, 45.156731], [-93.749237, 45.157023], [-93.74883, 45.157092], [-93.748484, 45.156961], [-93.748294, 45.156807], [-93.74807, 45.156498], [-93.747751, 45.156034], [-93.74737, 45.155682], [-93.746897, 45.155463]]]}}, {"type": "Feature", "properties": {"depth_ft": 20.0, "lake": "Lake Charlotte", "dow": "86001100"}, "geometry": {"type": "Polygon", "coordinates": [[[-93.746837, 45.158402], [-93.746538, 45.158125], [-93.746536, 45.158004], [-93.746559, 45.157847], [-93.746582, 45.157725], [-93.746704, 45.157689], [-93.746829, 45.157845], [-93.747004, 45.158035], [-93.747032, 45.158279], [-93.746984, 45.158401], [-93.746837, 45.158402]]]}}, {"type": "Feature", "properties": {"depth_ft": 15.0, "lake": "Lake Charlotte", "dow": "86001100"}, "geometry": {"type": "Polygon", "coordinates": [[[-93.747087, 45.158748], [-93.74684, 45.158645], [-93.746591, 45.158456], [-93.746341, 45.158127], [-93.746338, 45.1579], [-93.746359, 45.157587], [-93.746505, 45.157482], [-93.746678, 45.157533], [-93.746952, 45.157809], [-93.747152, 45.158052], [-93.747254, 45.158347], [-93.747258, 45.158643], [-93.747087, 45.158748]]]}}, {"type": "Feature", "properties": {"depth_ft": 15.0, "lake": "Lake Charlotte", "dow": "86001100"}, "geometry": {"type": "Polygon", "coordinates": [[[-93.746948, 45.155669], [-93.746554, 45.155602], [-93.746282, 45.155517], [-93.746084, 45.155414], [-93.745911, 45.155293], [-93.745835, 45.155172], [-93.745686, 45.155051], [-93.745363, 45.154792], [-93.745337, 45.154688], [-93.745039, 45.154481], [-93.744703, 45.154153], [-93.744553, 45.15398], [-93.744452, 45.153771], [-93.744447, 45.153406], [-93.744466, 45.152971], [-93.744631, 45.152413], [-93.7447, 45.152065], [-93.744911, 45.151228], [-93.745099, 45.150566], [-93.745193, 45.150199], [-93.745114, 45.149852], [-93.744937, 45.149453], [-93.744784, 45.149071], [-93.744731, 45.148723], [-93.744581, 45.148568], [-93.744235, 45.148413], [-93.743914, 45.148329], [-93.743468, 45.148088], [-93.743071, 45.147812], [-93.742625, 45.147519], [-93.742425, 45.147242], [-93.742447, 45.147103], [-93.742518, 45.146876], [-93.742736, 45.146579], [-93.743004, 45.146386], [-93.743197, 45.146123], [-93.743779, 45.145528], [-93.744168, 45.145143], [-93.744261, 45.144742], [-93.744332, 45.144532], [-93.744551, 45.144357], [-93.745186, 45.144074], [-93.745701, 45.143897], [-93.746289, 45.143789], [-93.746876, 45.143524], [-93.747242, 45.14333], [-93.747733, 45.143275], [-93.747955, 45.143308], [-93.748154, 45.143463], [-93.748427, 45.143688], [-93.748676, 45.143947], [-93.748854, 45.144364], [-93.748833, 45.144642], [-93.74874, 45.145078], [-93.748699, 45.145652], [-93.748608, 45.14621], [-93.748488, 45.146472], [-93.748393, 45.146751], [-93.74841, 45.147099], [-93.748413, 45.147325], [-93.748318, 45.147534], [-93.748197, 45.147709], [-93.748027, 45.147884], [-93.747833, 45.148112], [-93.747835, 45.148268], [-93.747887, 45.148459], [-93.748012, 45.148615], [-93.748236, 45.148788], [-93.748484, 45.148995], [-93.748709, 45.149237], [-93.748957, 45.149444], [-93.74923, 45.149651], [-93.749824, 45.149943], [-93.750171, 45.15008], [-93.750296, 45.15027], [-93.750251, 45.150584], [-93.750428, 45.150966], [-93.750704, 45.151347], [-93.750906, 45.151798], [-93.75111, 45.152336], [-93.751285, 45.152561], [-93.751536, 45.152959], [-93.751616, 45.153394], [-93.751672, 45.15395], [-93.751579, 45.154334], [-93.751437, 45.154787], [-93.75122, 45.155119], [-93.750857, 45.155557], [-93.750568, 45.155993], [-93.750399, 45.156256], [-93.750207, 45.156605], [-93.749889, 45.156764], [-93.749548, 45.157027], [-93.749206, 45.157133], [-93.748862, 45.157205], [-93.748418, 45.157069], [-93.74807, 45.15681], [-93.747821, 45.156551], [-93.747595, 45.156204], [-93.74732, 45.15591], [-93.746948, 45.155669]]]}}, {"type": "Feature", "properties": {"depth_ft": 10.0, "lake": "Lake Charlotte", "dow": "86001100"}, "geometry": {"type": "Polygon", "coordinates": [[[-93.74705, 45.155912], [-93.746384, 45.155795], [-93.746162, 45.155674], [-93.745864, 45.155485], [-93.745739, 45.155312], [-93.74554, 45.155139], [-93.74534, 45.154931], [-93.745165, 45.154706], [-93.744966, 45.154534], [-93.744481, 45.154119], [-93.74433, 45.153859], [-93.744253, 45.153599], [-93.744223, 45.153199], [-93.744342, 45.152867], [-93.744434, 45.152414], [-93.74455, 45.151839], [-93.744713, 45.151142], [-93.744951, 45.150566], [-93.744945, 45.150062], [-93.744916, 45.149714], [-93.744814, 45.149471], [-93.744663, 45.149228], [-93.744612, 45.149072], [-93.74456, 45.148829], [-93.744558, 45.148707], [-93.744286, 45.14857], [-93.74394, 45.14845], [-93.743471, 45.148279], [-93.742852, 45.147953], [-93.742279, 45.147365], [-93.7422, 45.147017], [-93.742369, 45.146738], [-93.742878, 45.146212], [-93.74346, 45.145582], [-93.743727, 45.145319], [-93.74404, 45.144778], [-93.744184, 45.144499], [-93.744475, 45.144218], [-93.744866, 45.144042], [-93.745331, 45.143865], [-93.746042, 45.143686], [-93.746409, 45.143527], [-93.746898, 45.143332], [-93.747486, 45.143189], [-93.747805, 45.143118], [-93.74815, 45.143202], [-93.74877, 45.143581], [-93.748969, 45.143771], [-93.74917, 45.144066], [-93.749298, 45.144517], [-93.749301, 45.144744], [-93.749255, 45.144918], [-93.749136, 45.145232], [-93.749039, 45.145354], [-93.748945, 45.145668], [-93.748998, 45.145981], [-93.74905, 45.146207], [-93.748979, 45.146381], [-93.748834, 45.146574], [-93.74869, 45.146853], [-93.748634, 45.147306], [-93.748587, 45.147463], [-93.748516, 45.147637], [-93.74837, 45.147795], [-93.7482, 45.147918], [-93.748006, 45.148128], [-93.748007, 45.148267], [-93.748034, 45.148441], [-93.748134, 45.148579], [-93.748481, 45.148734], [-93.748633, 45.149063], [-93.748832, 45.149253], [-93.749327, 45.149494], [-93.749872, 45.149786], [-93.750367, 45.150044], [-93.750518, 45.150339], [-93.750546, 45.150617], [-93.750698, 45.150946], [-93.750976, 45.151467], [-93.751103, 45.151796], [-93.75118, 45.15204], [-93.751305, 45.15223], [-93.751505, 45.152438], [-93.751729, 45.152662], [-93.75178, 45.152819], [-93.751711, 45.153132], [-93.751737, 45.153289], [-93.751769, 45.153793], [-93.751748, 45.154124], [-93.751729, 45.154489], [-93.751658, 45.154751], [-93.751586, 45.154908], [-93.751175, 45.15538], [-93.750909, 45.15573], [-93.750716, 45.15601], [-93.750475, 45.156429], [-93.750404, 45.156621], [-93.750038, 45.15685], [-93.749598, 45.157079], [-93.749207, 45.15722], [-93.748765, 45.157328], [-93.748445, 45.15726], [-93.748246, 45.15714], [-93.748048, 45.156984], [-93.747751, 45.156847], [-93.747625, 45.156604], [-93.747423, 45.156258], [-93.747248, 45.156033], [-93.74705, 45.155912]]]}}, {"type": "Feature", "properties": {"depth_ft": 10.0, "lake": "Lake Charlotte", "dow": "86001100"}, "geometry": {"type": "Polygon", "coordinates": [[[-93.747311, 45.158973], [-93.746867, 45.158871], [-93.746719, 45.158785], [-93.746269, 45.158284], [-93.746114, 45.157711], [-93.746184, 45.157414], [-93.746281, 45.157309], [-93.746627, 45.157411], [-93.7469, 45.157601], [-93.747251, 45.158103], [-93.747526, 45.158502], [-93.747532, 45.158885], [-93.747311, 45.158973]]]}}, {"type": "Feature", "properties": {"depth_ft": 0.0, "lake": "Lake Charlotte", "dow": "86001100"}, "geometry": {"type": "Polygon", "coordinates": [[[-93.746166, 45.159763], [-93.74545, 45.159577], [-93.74498, 45.159388], [-93.744733, 45.159303], [-93.744609, 45.159199], [-93.744583, 45.159078], [-93.744358, 45.158818], [-93.744185, 45.158767], [-93.743962, 45.158664], [-93.743787, 45.158404], [-93.743757, 45.157987], [-93.743878, 45.157847], [-93.744072, 45.157654], [-93.744266, 45.157392], [-93.744657, 45.157233], [-93.745025, 45.157178], [-93.745666, 45.157244], [-93.745813, 45.157243], [-93.745911, 45.157172], [-93.746006, 45.156963], [-93.746225, 45.15677], [-93.746397, 45.156752], [-93.746695, 45.156993], [-93.747041, 45.157113], [-93.74704, 45.157008], [-93.746963, 45.156783], [-93.746787, 45.156523], [-93.746464, 45.156247], [-93.746066, 45.155919], [-93.745543, 45.155417], [-93.744387, 45.154468], [-93.744212, 45.154208], [-93.74421, 45.154051], [-93.744229, 45.153668], [-93.74408, 45.153495], [-93.743929, 45.153288], [-93.743923, 45.152818], [-93.744255, 45.151824], [-93.744539, 45.151004], [-93.744655, 45.150429], [-93.744624, 45.149994], [-93.744518, 45.149386], [-93.744441, 45.149143], [-93.744242, 45.148953], [-93.744044, 45.148867], [-93.743452, 45.148749], [-93.743107, 45.148647], [-93.74281, 45.148492], [-93.742413, 45.148251], [-93.741991, 45.147958], [-93.741816, 45.147716], [-93.741788, 45.147472], [-93.741833, 45.147159], [-93.742001, 45.146827], [-93.742242, 45.146443], [-93.742458, 45.146059], [-93.743212, 45.145392], [-93.743551, 45.14499], [-93.743694, 45.144606], [-93.743884, 45.144135], [-93.744202, 45.143994], [-93.744665, 45.143712], [-93.745301, 45.143465], [-93.746183, 45.143198], [-93.746697, 45.143021], [-93.747111, 45.14267], [-93.747206, 45.14246], [-93.747352, 45.142303], [-93.748085, 45.141967], [-93.748402, 45.141809], [-93.748747, 45.141807], [-93.748823, 45.142015], [-93.7489, 45.142275], [-93.749272, 45.142534], [-93.749792, 45.142757], [-93.750236, 45.142876], [-93.750457, 45.142892], [-93.750509, 45.1431], [-93.75061, 45.143308], [-93.750808, 45.143411], [-93.751056, 45.143514], [-93.75128, 45.143721], [-93.751332, 45.143999], [-93.751285, 45.144139], [-93.751238, 45.144313], [-93.751169, 45.144627], [-93.751047, 45.144767], [-93.750878, 45.144977], [-93.750686, 45.145361], [-93.750542, 45.145588], [-93.750373, 45.145798], [-93.750177, 45.145886], [-93.749907, 45.145958], [-93.749636, 45.145855], [-93.74939, 45.145874], [-93.749269, 45.145997], [-93.749249, 45.146345], [-93.749204, 45.146728], [-93.749036, 45.146973], [-93.748901, 45.147026], [-93.748756, 45.147235], [-93.748832, 45.147374], [-93.748957, 45.147547], [-93.748886, 45.147791], [-93.748815, 45.147931], [-93.748497, 45.148125], [-93.74845, 45.148247], [-93.74855, 45.14842], [-93.748651, 45.148576], [-93.748851, 45.148853], [-93.749149, 45.149077], [-93.749471, 45.149267], [-93.749966, 45.149507], [-93.750363, 45.149765], [-93.751107, 45.15023], [-93.751405, 45.150437], [-93.75158, 45.150697], [-93.751606, 45.150784], [-93.751558, 45.150906], [-93.751681, 45.150905], [-93.751805, 45.150957], [-93.751831, 45.151061], [-93.751709, 45.151114], [-93.751611, 45.151184], [-93.751613, 45.151323], [-93.75181, 45.151322], [-93.751961, 45.151599], [-93.752236, 45.151963], [-93.752461, 45.152222], [-93.752538, 45.152448], [-93.752419, 45.15278], [-93.752301, 45.153146], [-93.752113, 45.153808], [-93.752019, 45.154122], [-93.751998, 45.154401], [-93.751956, 45.15494], [-93.751933, 45.155062], [-93.751521, 45.155552], [-93.751377, 45.155779], [-93.75111, 45.156112], [-93.750798, 45.156688], [-93.750531, 45.156933], [-93.750337, 45.157143], [-93.750117, 45.157232], [-93.749651, 45.157357], [-93.749087, 45.157482], [-93.748449, 45.157556], [-93.747835, 45.157664], [-93.747714, 45.157804], [-93.747814, 45.157908], [-93.747912, 45.157908], [-93.748183, 45.157923], [-93.748652, 45.158077], [-93.749194, 45.15816], [-93.749662, 45.158209], [-93.750128, 45.158119], [-93.750472, 45.15803], [-93.750716, 45.157907], [-93.750692, 45.157976], [-93.750645, 45.158133], [-93.750428, 45.158483], [-93.750208, 45.158554], [-93.749766, 45.158644], [-93.749325, 45.158751], [-93.748713, 45.158964], [-93.748519, 45.159174], [-93.748449, 45.159435], [-93.74855, 45.159678], [-93.748773, 45.159816], [-93.749069, 45.159884], [-93.749242, 45.159935], [-93.749244, 45.160074], [-93.749, 45.16018], [-93.748681, 45.160252], [-93.748288, 45.160324], [-93.747598, 45.160189], [-93.746907, 45.160054], [-93.746166, 45.159763]]]}}]}