{
  "type": "FeatureCollection",
  "features": [
    {
      "type": "Feature",
      "properties": {
        "lake": "Lake Charlotte",
        "depth_ft": 4.4,
        "color": "#a5d7f5",
        "weight": 1,
        "fill_opacity": 0.5,
        "line_opacity": 0.8
      },
      "geometry": {
        "type": "Polygon",
        "coordinates": [
          [
            [
              -93.931525,
              45.1975305
            ],
            [
              -93.9318755,
              45.1980082
            ],
            [
              -93.9322792,
              45.1984627
            ],
            [
              -93.9327323,
              45.1988896
            ],
            [
              -93.9332302,
              45.1992848
            ],
            [
              -93.9337684,
              45.1996445
            ],
            [
              -93.9343415,
              45.1999653
            ],
            [
              -93.9349441,
              45.200244
            ],
            [
              -93.9355703,
              45.2004781
            ],
            [
              -93.9362142,
              45.2006651
            ],
            [
              -93.9368695,
              45.2008034
            ],
            [
              -93.9375298,
              45.2008915
            ],
            [
              -93.938189,
              45.2009287
            ],
            [
              -93.9388405,
              45.2009146
            ],
            [
              -93.9394782,
              45.2008493
            ],
            [
              -93.9400958,
              45.2007334
            ],
            [
              -93.9406875,
              45.2005681
            ],
            [
              -93.9412475,
              45.2003549
            ],
            [
              -93.9417705,
              45.200096
            ],
            [
              -93.9422514,
              45.1997938
            ],
            [
              -93.9426855,
              45.1994511
            ],
            [
              -93.9430688,
              45.1990714
            ],
            [
              -93.9433974,
              45.1986583
            ],
            [
              -93.9436683,
              45.1982157
            ],
            [
              -93.9438789,
              45.1977479
            ],
            [
              -93.944027,
              45.1972594
            ],
            [
              -93.9441113,
              45.1967549
            ],
            [
              -93.944131,
              45.1962393
            ],
            [
              -93.9440859,
              45.1957176
            ],
            [
              -93.9439764,
              45.1951947
            ],
            [
              -93.9438035,
              45.1946758
            ],
            [
              -93.943569,
              45.1941657
            ],
            [
              -93.943275,
              45.1936695
            ],
            [
              -93.9429245,
              45.1931918
            ],
            [
              -93.9425208,
              45.1927373
            ],
            [
              -93.9420677,
              45.1923104
            ],
            [
              -93.9415698,
              45.1919152
            ],
            [
              -93.9410316,
              45.1915555
            ],
            [
              -93.9404585,
              45.1912347
            ],
            [
              -93.9398559,
              45.190956
            ],
            [
              -93.9392297,
              45.1907219
            ],
            [
              -93.9385858,
              45.1905349
            ],
            [
              -93.9379305,
              45.1903966
            ],
            [
              -93.9372702,
              45.1903085
            ],
            [
              -93.936611,
              45.1902713
            ],
            [
              -93.9359595,
              45.1902854
            ],
            [
              -93.9353218,
              45.1903507
            ],
            [
              -93.9347042,
              45.1904666
            ],
            [
              -93.9341125,
              45.1906319
            ],
            [
              -93.9335525,
              45.1908451
            ],
            [
              -93.9330295,
              45.191104
            ],
            [
              -93.9325486,
              45.1914062
            ],
            [
              -93.9321145,
              45.1917489
            ],
            [
              -93.9317312,
              45.1921286
            ],
            [
              -93.9314026,
              45.1925417
            ],
            [
              -93.9311317,
              45.1929843
            ],
            [
              -93.9309211,
              45.1934521
            ],
            [
              -93.930773,
              45.1939406
            ],
            [
              -93.9306887,
              45.1944451
            ],
            [
              -93.930669,
              45.1949607
            ],
            [
              -93.9307141,
              45.1954824
            ],
            [
              -93.9308236,
              45.1960053
            ],
            [
              -93.9309965,
              45.1965242
            ],
            [
              -93.931231,
              45.1970343
            ],
            [
              -93.931525,
              45.1975305
            ]
          ]
        ]
      }
    },
    {
      "type": "Feature",
      "properties": {
        "lake": "Lake Charlotte",
        "depth_ft": 8.8,
        "color": "#84c6f2",
        "weight": 1,
        "fill_opacity": 0.5,
        "line_opacity": 0.8
      },
      "geometry": {
        "type": "Polygon",
        "coordinates": [
          [
            [
              -93.9321708,
              45.1973183
            ],
            [
              -93.9324828,
              45.1977435
            ],
            [
              -93.9328421,
              45.198148
            ],
            [
              -93.9332454,
              45.198528
            ],
            [
              -93.9336886,
              45.1988797
            ],
            [
              -93.9341676,
              45.1991999
            ],
            [
              -93.9346777,
              45.1994855
            ],
            [
              -93.9352141,
              45.1997336
            ],
            [
              -93.9357715,
              45.1999418
            ],
            [
              -93.9363445,
              45.2001083
            ],
            [
              -93.9369278,
              45.2002314
            ],
            [
              -93.9375156,
              45.2003098
            ],
            [
              -93.9381022,
              45.2003429
            ],
            [
              -93.9386822,
              45.2003304
            ],
            [
              -93.9392497,
              45.2002722
            ],
            [
              -93.9397995,
              45.2001691
            ],
            [
              -93.9403261,
              45.200022
            ],
            [
              -93.9408246,
              45.1998322
            ],
            [
              -93.9412901,
              45.1996018
            ],
            [
              -93.9417181,
              45.1993328
            ],
            [
              -93.9421045,
              45.1990278
            ],
            [
              -93.9424456,
              45.1986898
            ],
            [
              -93.9427382,
              45.1983221
            ],
            [
              -93.9429793,
              45.1979281
            ],
            [
              -93.9431667,
              45.1975118
            ],
            [
              -93.9432985,
              45.197077
            ],
            [
              -93.9433736,
              45.196628
            ],
            [
              -93.9433911,
              45.1961691
            ],
            [
              -93.9433509,
              45.1957047
            ],
            [
              -93.9432535,
              45.1952393
            ],
            [
              -93.9430996,
              45.1947774
            ],
            [
              -93.9428908,
              45.1943234
            ],
            [
              -93.9426292,
              45.1938817
            ],
            [
              -93.9423172,
              45.1934565
            ],
            [
              -93.9419579,
              45.193052
            ],
            [
              -93.9415546,
              45.192672
            ],
            [
              -93.9411114,
              45.1923203
            ],
            [
              -93.9406324,
              45.1920001
            ],
            [
              -93.9401223,
              45.1917145
            ],
            [
              -93.9395859,
              45.1914664
            ],
            [
              -93.9390285,
              45.1912582
            ],
            [
              -93.9384555,
              45.1910917
            ],
            [
              -93.9378722,
              45.1909686
            ],
            [
              -93.9372844,
              45.1908902
            ],
            [
              -93.9366978,
              45.1908571
            ],
            [
              -93.9361178,
              45.1908696
            ],
            [
              -93.9355503,
              45.1909278
            ],
            [
              -93.9350005,
              45.1910309
            ],
            [
              -93.9344739,
              45.191178
            ],
            [
              -93.9339754,
              45.1913678
            ],
            [
              -93.9335099,
              45.1915982
            ],
            [
              -93.9330819,
              45.1918672
            ],
            [
              -93.9326955,
              45.1921722
            ],
            [
              -93.9323544,
              45.1925102
            ],
            [
              -93.9320618,
              45.1928779
            ],
            [
              -93.9318207,
              45.1932719
            ],
            [
              -93.9316333,
              45.1936882
            ],
            [
              -93.9315015,
              45.194123
            ],
            [
              -93.9314264,
              45.194572
            ],
            [
              -93.9314089,
              45.1950309
            ],
            [
              -93.9314491,
              45.1954953
            ],
            [
              -93.9315465,
              45.1959607
            ],
            [
              -93.9317004,
              45.1964226
            ],
            [
              -93.9319092,
              45.1968766
            ],
            [
              -93.9321708,
              45.1973183
            ]
          ]
        ]
      }
    },
    {
      "type": "Feature",
      "properties": {
        "lake": "Lake Charlotte",
        "depth_ft": 13.1,
        "color": "#68b6ed",
        "weight": 1,
        "fill_opacity": 0.5,
        "line_opacity": 0.8
      },
      "geometry": {
        "type": "Polygon",
        "coordinates": [
          [
            [
              -93.9327589,
              45.1971251
            ],
            [
              -93.9330358,
              45.1975024
            ],
            [
              -93.9333547,
              45.1978614
            ],
            [
              -93.9337126,
              45.1981987
            ],
            [
              -93.934106,
              45.1985109
            ],
            [
              -93.9345311,
              45.1987951
            ],
            [
              -93.9349839,
              45.1990485
            ],
            [
              -93.9354599,
              45.1992687
            ],
            [
              -93.9359546,
              45.1994535
            ],
            [
              -93.9364632,
              45.1996013
            ],
            [
              -93.9369809,
              45.1997105
            ],
            [
              -93.9375026,
              45.1997801
            ],
            [
              -93.9380233,
              45.1998095
            ],
            [
              -93.9385379,
              45.1997983
            ],
            [
              -93.9390417,
              45.1997467
            ],
            [
              -93.9395296,
              45.1996552
            ],
            [
              -93.939997,
              45.1995246
            ],
            [
              -93.9404394,
              45.1993562
            ],
            [
              -93.9408525,
              45.1991517
            ],
            [
              -93.9412324,
              45.1989129
            ],
            [
              -93.9415754,
              45.1986423
            ],
            [
              -93.9418782,
              45.1983423
            ],
            [
              -93.9421378,
              45.1980159
            ],
            [
              -93.9423518,
              45.1976663
            ],
            [
              -93.9425181,
              45.1972967
            ],
            [
              -93.9426351,
              45.1969109
            ],
            [
              -93.9427017,
              45.1965124
            ],
            [
              -93.9427173,
              45.1961051
            ],
            [
              -93.9426816,
              45.1956929
            ],
            [
              -93.9425951,
              45.1952799
            ],
            [
              -93.9424586,
              45.1948699
            ],
            [
              -93.9422733,
              45.194467
            ],
            [
              -93.9420411,
              45.1940749
            ],
            [
              -93.9417642,
              45.1936976
            ],
            [
              -93.9414453,
              45.1933386
            ],
            [
              -93.9410874,
              45.1930013
            ],
            [
              -93.940694,
              45.1926891
            ],
            [
              -93.9402689,
              45.1924049
            ],
            [
              -93.9398161,
              45.1921515
            ],
            [
              -93.9393401,
              45.1919313
            ],
            [
              -93.9388454,
              45.1917465
            ],
            [
              -93.9383368,
              45.1915987
            ],
            [
              -93.9378191,
              45.1914895
            ],
            [
              -93.9372974,
              45.1914199
            ],
            [
              -93.9367767,
              45.1913905
            ],
            [
              -93.9362621,
              45.1914017
            ],
            [
              -93.9357583,
              45.1914533
            ],
            [
              -93.9352704,
              45.1915448
            ],
            [
              -93.934803,
              45.1916754
            ],
            [
              -93.9343606,
              45.1918438
            ],
            [
              -93.9339475,
              45.1920483
            ],
            [
              -93.9335676,
              45.1922871
            ],
            [
              -93.9332246,
              45.1925577
            ],
            [
              -93.9329218,
              45.1928577
            ],
            [
              -93.9326622,
              45.1931841
            ],
            [
              -93.9324482,
              45.1935337
            ],
            [
              -93.9322819,
              45.1939033
            ],
            [
              -93.9321649,
              45.1942891
            ],
            [
              -93.9320983,
              45.1946876
            ],
            [
              -93.9320827,
              45.1950949
            ],
            [
              -93.9321184,
              45.1955071
            ],
            [
              -93.9322049,
              45.1959201
            ],
            [
              -93.9323414,
              45.1963301
            ],
            [
              -93.9325267,
              45.196733
            ],
            [
              -93.9327589,
              45.1971251
            ]
          ]
        ]
      }
    },
    {
      "type": "Feature",
      "properties": {
        "lake": "Lake Charlotte",
        "depth_ft": 17.5,
        "color": "#52a6e7",
        "weight": 1,
        "fill_opacity": 0.5,
        "line_opacity": 0.8
      },
      "geometry": {
        "type": "Polygon",
        "coordinates": [
          [
            [
              -93.933341,
              45.1969338
            ],
            [
              -93.9335832,
              45.1972638
            ],
            [
              -93.9338621,
              45.1975778
            ],
            [
              -93.9341751,
              45.1978727
            ],
            [
              -93.9345192,
              45.1981458
            ],
            [
              -93.934891,
              45.1983943
            ],
            [
              -93.9352869,
              45.1986159
            ],
            [
              -93.9357033,
              45.1988085
            ],
            [
              -93.9361359,
              45.1989702
            ],
            [
              -93.9365807,
              45.1990994
            ],
            [
              -93.9370335,
              45.1991949
            ],
            [
              -93.9374897,
              45.1992558
            ],
            [
              -93.9379451,
              45.1992815
            ],
            [
              -93.9383952,
              45.1992717
            ],
            [
              -93.9388358,
              45.1992266
            ],
            [
              -93.9392625,
              45.1991466
            ],
            [
              -93.9396713,
              45.1990324
            ],
            [
              -93.9400582,
              45.1988851
            ],
            [
              -93.9404195,
              45.1987062
            ],
            [
              -93.9407517,
              45.1984974
            ],
            [
              -93.9410517,
              45.1982607
            ],
            [
              -93.9413165,
              45.1979983
            ],
            [
              -93.9415435,
              45.1977129
            ],
            [
              -93.9417307,
              45.1974071
            ],
            [
              -93.9418762,
              45.1970839
            ],
            [
              -93.9419785,
              45.1967464
            ],
            [
              -93.9420368,
              45.1963979
            ],
            [
              -93.9420504,
              45.1960417
            ],
            [
              -93.9420192,
              45.1956813
            ],
            [
              -93.9419435,
              45.19532
            ],
            [
              -93.9418241,
              45.1949615
            ],
            [
              -93.941662,
              45.1946091
            ],
            [
              -93.941459,
              45.1942662
            ],
            [
              -93.9412168,
              45.1939362
            ],
            [
              -93.9409379,
              45.1936222
            ],
            [
              -93.9406249,
              45.1933273
            ],
            [
              -93.9402808,
              45.1930542
            ],
            [
              -93.939909,
              45.1928057
            ],
            [
              -93.9395131,
              45.1925841
            ],
            [
              -93.9390967,
              45.1923915
            ],
            [
              -93.9386641,
              45.1922298
            ],
            [
              -93.9382193,
              45.1921006
            ],
            [
              -93.9377665,
              45.1920051
            ],
            [
              -93.9373103,
              45.1919442
            ],
            [
              -93.9368549,
              45.1919185
            ],
            [
              -93.9364048,
              45.1919283
            ],
            [
              -93.9359642,
              45.1919734
            ],
            [
              -93.9355375,
              45.1920534
            ],
            [
              -93.9351287,
              45.1921676
            ],
            [
              -93.9347418,
              45.1923149
            ],
            [
              -93.9343805,
              45.1924938
            ],
            [
              -93.9340483,
              45.1927026
            ],
            [
              -93.9337483,
              45.1929393
            ],
            [
              -93.9334835,
              45.1932017
            ],
            [
              -93.9332565,
              45.1934871
            ],
            [
              -93.9330693,
              45.1937929
            ],
            [
              -93.9329238,
              45.1941161
            ],
            [
              -93.9328215,
              45.1944536
            ],
            [
              -93.9327632,
              45.1948021
            ],
            [
              -93.9327496,
              45.1951583
            ],
            [
              -93.9327808,
              45.1955187
            ],
            [
              -93.9328565,
              45.19588
            ],
            [
              -93.9329759,
              45.1962385
            ],
            [
              -93.933138,
              45.1965909
            ],
            [
              -93.933341,
              45.1969338
            ]
          ]
        ]
      }
    },
    {
      "type": "Feature",
      "properties": {
        "lake": "Lake Charlotte",
        "depth_ft": 21.9,
        "color": "#3f93da",
        "weight": 1,
        "fill_opacity": 0.5,
        "line_opacity": 0.8
      },
      "geometry": {
        "type": "Polygon",
        "coordinates": [
          [
            [
              -93.9339506,
              45.1967335
            ],
            [
              -93.9341564,
              45.1970139
            ],
            [
              -93.9343934,
              45.1972808
            ],
            [
              -93.9346594,
              45.1975314
            ],
            [
              -93.9349518,
              45.1977635
            ],
            [
              -93.9352678,
              45.1979747
            ],
            [
              -93.9356043,
              45.198163
            ],
            [
              -93.9359581,
              45.1983267
            ],
            [
              -93.9363257,
              45.1984641
            ],
            [
              -93.9367038,
              45.1985739
            ],
            [
              -93.9370885,
              45.1986551
            ],
            [
              -93.9374762,
              45.1987068
            ],
            [
              -93.9378632,
              45.1987286
            ],
            [
              -93.9382458,
              45.1987204
            ],
            [
              -93.9386202,
              45.198682
            ],
            [
              -93.9389828,
              45.198614
            ],
            [
              -93.9393302,
              45.1985169
            ],
            [
              -93.939659,
              45.1983918
            ],
            [
              -93.939966,
              45.1982397
            ],
            [
              -93.9402484,
              45.1980623
            ],
            [
              -93.9405033,
              45.1978611
            ],
            [
              -93.9407283,
              45.1976382
            ],
            [
              -93.9409213,
              45.1973956
            ],
            [
              -93.9410803,
              45.1971357
            ],
            [
              -93.941204,
              45.1968611
            ],
            [
              -93.9412909,
              45.1965743
            ],
            [
              -93.9413404,
              45.1962781
            ],
            [
              -93.941352,
              45.1959754
            ],
            [
              -93.9413255,
              45.1956691
            ],
            [
              -93.9412612,
              45.1953621
            ],
            [
              -93.9411597,
              45.1950574
            ],
            [
              -93.941022,
              45.1947579
            ],
            [
              -93.9408494,
              45.1944665
            ],
            [
              -93.9406436,
              45.1941861
            ],
            [
              -93.9404066,
              45.1939192
            ],
            [
              -93.9401406,
              45.1936686
            ],
            [
              -93.9398482,
              45.1934365
            ],
            [
              -93.9395322,
              45.1932253
            ],
            [
              -93.9391957,
              45.193037
            ],
            [
              -93.9388419,
              45.1928733
            ],
            [
              -93.9384743,
              45.1927359
            ],
            [
              -93.9380962,
              45.1926261
            ],
            [
              -93.9377115,
              45.1925449
            ],
            [
              -93.9373238,
              45.1924932
            ],
            [
              -93.9369368,
              45.1924714
            ],
            [
              -93.9365542,
              45.1924796
            ],
            [
              -93.9361798,
              45.192518
            ],
            [
              -93.9358172,
              45.192586
            ],
            [
              -93.9354698,
              45.1926831
            ],
            [
              -93.935141,
              45.1928082
            ],
            [
              -93.934834,
              45.1929603
            ],
            [
              -93.9345516,
              45.1931377
            ],
            [
              -93.9342967,
              45.1933389
            ],
            [
              -93.9340717,
              45.1935618
            ],
            [
              -93.9338787,
              45.1938044
            ],
            [
              -93.9337197,
              45.1940643
            ],
            [
              -93.933596,
              45.1943389
            ],
            [
              -93.9335091,
              45.1946257
            ],
            [
              -93.9334596,
              45.1949219
            ],
            [
              -93.933448,
              45.1952246
            ],
            [
              -93.9334745,
              45.1955309
            ],
            [
              -93.9335388,
              45.1958379
            ],
            [
              -93.9336403,
              45.1961426
            ],
            [
              -93.933778,
              45.1964421
            ],
            [
              -93.9339506,
              45.1967335
            ]
          ]
        ]
      }
    },
    {
      "type": "Feature",
      "properties": {
        "lake": "Lake Charlotte",
        "depth_ft": 26.2,
        "color": "#3077bc",
        "weight": 1,
        "fill_opacity": 0.5,
        "line_opacity": 0.8
      },
      "geometry": {
        "type": "Polygon",
        "coordinates": [
          [
            [
              -93.9346294,
              45.1965104
            ],
            [
              -93.9347947,
              45.1967357
            ],
            [
              -93.9349851,
              45.19695
            ],
            [
              -93.9351987,
              45.1971513
            ],
            [
              -93.9354336,
              45.1973377
            ],
            [
              -93.9356874,
              45.1975074
            ],
            [
              -93.9359576,
              45.1976587
            ],
            [
              -93.9362418,
              45.1977901
            ],
            [
              -93.9365371,
              45.1979005
            ],
            [
              -93.9368408,
              45.1979887
            ],
            [
              -93.9371498,
              45.1980539
            ],
            [
              -93.9374612,
              45.1980954
            ],
            [
              -93.9377721,
              45.198113
            ],
            [
              -93.9380793,
              45.1981063
            ],
            [
              -93.93838,
              45.1980755
            ],
            [
              -93.9386713,
              45.1980209
            ],
            [
              -93.9389504,
              45.1979429
            ],
            [
              -93.9392145,
              45.1978424
            ],
            [
              -93.9394611,
              45.1977203
            ],
            [
              -93.9396879,
              45.1975778
            ],
            [
              -93.9398926,
              45.1974162
            ],
            [
              -93.9400734,
              45.1972371
            ],
            [
              -93.9402284,
              45.1970423
            ],
            [
              -93.9403561,
              45.1968335
            ],
            [
              -93.9404554,
              45.1966129
            ],
            [
              -93.9405253,
              45.1963826
            ],
            [
              -93.940565,
              45.1961447
            ],
            [
              -93.9405743,
              45.1959015
            ],
            [
              -93.940553,
              45.1956555
            ],
            [
              -93.9405014,
              45.1954089
            ],
            [
              -93.9404199,
              45.1951641
            ],
            [
              -93.9403093,
              45.1949236
            ],
            [
              -93.9401706,
              45.1946896
            ],
            [
              -93.9400053,
              45.1944643
            ],
            [
              -93.9398149,
              45.19425
            ],
            [
              -93.9396013,
              45.1940487
            ],
            [
              -93.9393664,
              45.1938623
            ],
            [
              -93.9391126,
              45.1936926
            ],
            [
              -93.9388424,
              45.1935413
            ],
            [
              -93.9385582,
              45.1934099
            ],
            [
              -93.9382629,
              45.1932995
            ],
            [
              -93.9379592,
              45.1932113
            ],
            [
              -93.9376502,
              45.1931461
            ],
            [
              -93.9373388,
              45.1931046
            ],
            [
              -93.9370279,
              45.193087
            ],
            [
              -93.9367207,
              45.1930937
            ],
            [
              -93.93642,
              45.1931245
            ],
            [
              -93.9361287,
              45.1931791
            ],
            [
              -93.9358496,
              45.1932571
            ],
            [
              -93.9355855,
              45.1933576
            ],
            [
              -93.9353389,
              45.1934797
            ],
            [
              -93.9351121,
              45.1936222
            ],
            [
              -93.9349074,
              45.1937838
            ],
            [
              -93.9347266,
              45.1939629
            ],
            [
              -93.9345716,
              45.1941577
            ],
            [
              -93.9344439,
              45.1943665
            ],
            [
              -93.9343446,
              45.1945871
            ],
            [
              -93.9342747,
              45.1948174
            ],
            [
              -93.934235,
              45.1950553
            ],
            [
              -93.9342257,
              45.1952985
            ],
            [
              -93.934247,
              45.1955445
            ],
            [
              -93.9342986,
              45.1957911
            ],
            [
              -93.9343801,
              45.1960359
            ],
            [
              -93.9344907,
              45.1962764
            ],
            [
              -93.9346294,
              45.1965104
            ]
          ]
        ]
      }
    },
    {
      "type": "Feature",
      "properties": {
        "lake": "Lake Charlotte",
        "depth_ft": 30.6,
        "color": "#245790",
        "weight": 1,
        "fill_opacity": 0.5,
        "line_opacity": 0.8
      },
      "geometry": {
        "type": "Polygon",
        "coordinates": [
          [
            [
              -93.9354692,
              45.1962345
            ],
            [
              -93.9355844,
              45.1963915
            ],
            [
              -93.935717,
              45.1965408
            ],
            [
              -93.9358659,
              45.1966811
            ],
            [
              -93.9360296,
              45.196811
            ],
            [
              -93.9362065,
              45.1969292
            ],
            [
              -93.9363948,
              45.1970347
            ],
            [
              -93.9365929,
              45.1971263
            ],
            [
              -93.9367987,
              45.1972032
            ],
            [
              -93.9370103,
              45.1972647
            ],
            [
              -93.9372256,
              45.1973101
            ],
            [
              -93.9374427,
              45.1973391
            ],
            [
              -93.9376593,
              45.1973513
            ],
            [
              -93.9378734,
              45.1973466
            ],
            [
              -93.938083,
              45.1973252
            ],
            [
              -93.938286,
              45.1972871
            ],
            [
              -93.9384804,
              45.1972328
            ],
            [
              -93.9386645,
              45.1971627
            ],
            [
              -93.9388364,
              45.1970776
            ],
            [
              -93.9389944,
              45.1969783
            ],
            [
              -93.9391371,
              45.1968657
            ],
            [
              -93.939263,
              45.1967409
            ],
            [
              -93.9393711,
              45.1966051
            ],
            [
              -93.9394601,
              45.1964596
            ],
            [
              -93.9395293,
              45.1963059
            ],
            [
              -93.939578,
              45.1961454
            ],
            [
              -93.9396057,
              45.1959796
            ],
            [
              -93.9396122,
              45.1958101
            ],
            [
              -93.9395973,
              45.1956387
            ],
            [
              -93.9395613,
              45.1954668
            ],
            [
              -93.9395045,
              45.1952963
            ],
            [
              -93.9394274,
              45.1951286
            ],
            [
              -93.9393308,
              45.1949655
            ],
            [
              -93.9392156,
              45.1948085
            ],
            [
              -93.939083,
              45.1946592
            ],
            [
              -93.9389341,
              45.1945189
            ],
            [
              -93.9387704,
              45.194389
            ],
            [
              -93.9385935,
              45.1942708
            ],
            [
              -93.9384052,
              45.1941653
            ],
            [
              -93.9382071,
              45.1940737
            ],
            [
              -93.9380013,
              45.1939968
            ],
            [
              -93.9377897,
              45.1939353
            ],
            [
              -93.9375744,
              45.1938899
            ],
            [
              -93.9373573,
              45.1938609
            ],
            [
              -93.9371407,
              45.1938487
            ],
            [
              -93.9369266,
              45.1938534
            ],
            [
              -93.936717,
              45.1938748
            ],
            [
              -93.936514,
              45.1939129
            ],
            [
              -93.9363196,
              45.1939672
            ],
            [
              -93.9361355,
              45.1940373
            ],
            [
              -93.9359636,
              45.1941224
            ],
            [
              -93.9358056,
              45.1942217
            ],
            [
              -93.9356629,
              45.1943343
            ],
            [
              -93.935537,
              45.1944591
            ],
            [
              -93.9354289,
              45.1945949
            ],
            [
              -93.9353399,
              45.1947404
            ],
            [
              -93.9352707,
              45.1948941
            ],
            [
              -93.935222,
              45.1950546
            ],
            [
              -93.9351943,
              45.1952204
            ],
            [
              -93.9351878,
              45.1953899
            ],
            [
              -93.9352027,
              45.1955613
            ],
            [
              -93.9352387,
              45.1957332
            ],
            [
              -93.9352955,
              45.1959037
            ],
            [
              -93.9353726,
              45.1960714
            ],
            [
              -93.9354692,
              45.1962345
            ]
          ]
        ]
      }
    }
  ]
}