{
  "type": "FeatureCollection",
  "features": [
    {
      "type": "Feature",
      "properties": {
        "lake": "Maple Lake",
        "depth_ft": 3.5,
        "color": "#a5d7f5",
        "weight": 1,
        "fill_opacity": 0.5,
        "line_opacity": 0.8
      },
      "geometry": {
        "type": "Polygon",
        "coordinates": [
          [
            [
              -94.0023728,
              45.2289689
            ],
            [
              -94.003171,
              45.2292635
            ],
            [
              -94.0039982,
              45.2295103
            ],
            [
              -94.0048467,
              45.2297069
            ],
            [
              -94.0057083,
              45.2298514
            ],
            [
              -94.0065745,
              45.2299424
            ],
            [
              -94.0074372,
              45.2299792
            ],
            [
              -94.0082879,
              45.2299612
            ],
            [
              -94.0091185,
              45.2298887
            ],
            [
              -94.0099211,
              45.2297624
            ],
            [
              -94.0106878,
              45.2295835
            ],
            [
              -94.0114112,
              45.2293537
            ],
            [
              -94.0120845,
              45.2290752
            ],
            [
              -94.0127011,
              45.2287507
            ],
            [
              -94.0132551,
              45.2283834
            ],
            [
              -94.0137412,
              45.2279768
            ],
            [
              -94.0141546,
              45.2275347
            ],
            [
              -94.0144914,
              45.2270615
            ],
            [
              -94.0147484,
              45.2265617
            ],
            [
              -94.0149231,
              45.2260401
            ],
            [
              -94.0150137,
              45.2255018
            ],
            [
              -94.0150194,
              45.2249519
            ],
            [
              -94.0149403,
              45.2243957
            ],
            [
              -94.0147769,
              45.2238385
            ],
            [
              -94.014531,
              45.2232859
            ],
            [
              -94.0142048,
              45.222743
            ],
            [
              -94.0138015,
              45.2222151
            ],
            [
              -94.013325,
              45.2217072
            ],
            [
              -94.0127799,
              45.2212244
            ],
            [
              -94.0121715,
              45.2207711
            ],
            [
              -94.0115055,
              45.2203519
            ],
            [
              -94.0107884,
              45.2199706
            ],
            [
              -94.0100272,
              45.2196311
            ],
            [
              -94.009229,
              45.2193365
            ],
            [
              -94.0084018,
              45.2190897
            ],
            [
              -94.0075533,
              45.2188931
            ],
            [
              -94.0066917,
              45.2187486
            ],
            [
              -94.0058255,
              45.2186576
            ],
            [
              -94.0049628,
              45.2186208
            ],
            [
              -94.0041121,
              45.2186388
            ],
            [
              -94.0032815,
              45.2187113
            ],
            [
              -94.0024789,
              45.2188376
            ],
            [
              -94.0017122,
              45.2190165
            ],
            [
              -94.0009888,
              45.2192463
            ],
            [
              -94.0003155,
              45.2195248
            ],
            [
              -93.9996989,
              45.2198493
            ],
            [
              -93.9991449,
              45.2202166
            ],
            [
              -93.9986588,
              45.2206232
            ],
            [
              -93.9982454,
              45.2210653
            ],
            [
              -93.9979086,
              45.2215385
            ],
            [
              -93.9976516,
              45.2220383
            ],
            [
              -93.9974769,
              45.2225599
            ],
            [
              -93.9973863,
              45.2230982
            ],
            [
              -93.9973806,
              45.2236481
            ],
            [
              -93.9974597,
              45.2242043
            ],
            [
              -93.9976231,
              45.2247615
            ],
            [
              -93.997869,
              45.2253141
            ],
            [
              -93.9981952,
              45.225857
            ],
            [
              -93.9985985,
              45.2263849
            ],
            [
              -93.999075,
              45.2268928
            ],
            [
              -93.9996201,
              45.2273756
            ],
            [
              -94.0002285,
              45.2278289
            ],
            [
              -94.0008945,
              45.2282481
            ],
            [
              -94.0016116,
              45.2286294
            ],
            [
              -94.0023728,
              45.2289689
            ]
          ]
        ]
      }
    },
    {
      "type": "Feature",
      "properties": {
        "lake": "Maple Lake",
        "depth_ft": 7.0,
        "color": "#84c6f2",
        "weight": 1,
        "fill_opacity": 0.5,
        "line_opacity": 0.8
      },
      "geometry": {
        "type": "Polygon",
        "coordinates": [
          [
            [
              -94.0027935,
              45.2284557
            ],
            [
              -94.0035039,
              45.2287179
            ],
            [
              -94.0042403,
              45.2289375
            ],
            [
              -94.0049955,
              45.2291125
            ],
            [
              -94.0057623,
              45.2292412
            ],
            [
              -94.0065334,
              45.2293222
            ],
            [
              -94.0073012,
              45.2293549
            ],
            [
              -94.0080584,
              45.2293389
            ],
            [
              -94.0087977,
              45.2292744
            ],
            [
              -94.009512,
              45.2291619
            ],
            [
              -94.0101944,
              45.2290027
            ],
            [
              -94.0108384,
              45.2287982
            ],
            [
              -94.0114377,
              45.2285503
            ],
            [
              -94.0119865,
              45.2282615
            ],
            [
              -94.0124796,
              45.2279346
            ],
            [
              -94.0129122,
              45.2275726
            ],
            [
              -94.0132802,
              45.2271791
            ],
            [
              -94.01358,
              45.226758
            ],
            [
              -94.0138087,
              45.2263131
            ],
            [
              -94.0139642,
              45.2258488
            ],
            [
              -94.0140448,
              45.2253697
            ],
            [
              -94.01405,
              45.2248802
            ],
            [
              -94.0139795,
              45.2243851
            ],
            [
              -94.0138341,
              45.2238893
            ],
            [
              -94.0136152,
              45.2233973
            ],
            [
              -94.0133249,
              45.2229141
            ],
            [
              -94.0129659,
              45.2224442
            ],
            [
              -94.0125418,
              45.2219922
            ],
            [
              -94.0120566,
              45.2215624
            ],
            [
              -94.0115151,
              45.221159
            ],
            [
              -94.0109223,
              45.2207859
            ],
            [
              -94.010284,
              45.2204465
            ],
            [
              -94.0096065,
              45.2201443
            ],
            [
              -94.0088961,
              45.2198821
            ],
            [
              -94.0081597,
              45.2196625
            ],
            [
              -94.0074045,
              45.2194875
            ],
            [
              -94.0066377,
              45.2193588
            ],
            [
              -94.0058666,
              45.2192778
            ],
            [
              -94.0050988,
              45.2192451
            ],
            [
              -94.0043416,
              45.2192611
            ],
            [
              -94.0036023,
              45.2193256
            ],
            [
              -94.002888,
              45.2194381
            ],
            [
              -94.0022056,
              45.2195973
            ],
            [
              -94.0015616,
              45.2198018
            ],
            [
              -94.0009623,
              45.2200497
            ],
            [
              -94.0004135,
              45.2203385
            ],
            [
              -93.9999204,
              45.2206654
            ],
            [
              -93.9994878,
              45.2210274
            ],
            [
              -93.9991198,
              45.2214209
            ],
            [
              -93.99882,
              45.221842
            ],
            [
              -93.9985913,
              45.2222869
            ],
            [
              -93.9984358,
              45.2227512
            ],
            [
              -93.9983552,
              45.2232303
            ],
            [
              -93.99835,
              45.2237198
            ],
            [
              -93.9984205,
              45.2242149
            ],
            [
              -93.9985659,
              45.2247107
            ],
            [
              -93.9987848,
              45.2252027
            ],
            [
              -93.9990751,
              45.2256859
            ],
            [
              -93.9994341,
              45.2261558
            ],
            [
              -93.9998582,
              45.2266078
            ],
            [
              -94.0003434,
              45.2270376
            ],
            [
              -94.0008849,
              45.227441
            ],
            [
              -94.0014777,
              45.2278141
            ],
            [
              -94.002116,
              45.2281535
            ],
            [
              -94.0027935,
              45.2284557
            ]
          ]
        ]
      }
    },
    {
      "type": "Feature",
      "properties": {
        "lake": "Maple Lake",
        "depth_ft": 10.5,
        "color": "#68b6ed",
        "weight": 1,
        "fill_opacity": 0.5,
        "line_opacity": 0.8
      },
      "geometry": {
        "type": "Polygon",
        "coordinates": [
          [
            [
              -94.0031767,
              45.2279883
            ],
            [
              -94.0038071,
              45.228221
            ],
            [
              -94.0044607,
              45.2284159
            ],
            [
              -94.005131,
              45.2285713
            ],
            [
              -94.0058115,
              45.2286854
            ],
            [
              -94.0064959,
              45.2287574
            ],
            [
              -94.0071773,
              45.2287864
            ],
            [
              -94.0078494,
              45.2287722
            ],
            [
              -94.0085056,
              45.2287149
            ],
            [
              -94.0091395,
              45.2286151
            ],
            [
              -94.0097452,
              45.2284738
            ],
            [
              -94.0103167,
              45.2282922
            ],
            [
              -94.0108486,
              45.2280723
            ],
            [
              -94.0113357,
              45.2278159
            ],
            [
              -94.0117733,
              45.2275258
            ],
            [
              -94.0121573,
              45.2272045
            ],
            [
              -94.0124839,
              45.2268553
            ],
            [
              -94.01275,
              45.2264815
            ],
            [
              -94.012953,
              45.2260867
            ],
            [
              -94.0130909,
              45.2256746
            ],
            [
              -94.0131625,
              45.2252494
            ],
            [
              -94.0131671,
              45.2248149
            ],
            [
              -94.0131045,
              45.2243756
            ],
            [
              -94.0129755,
              45.2239355
            ],
            [
              -94.0127812,
              45.2234989
            ],
            [
              -94.0125235,
              45.22307
            ],
            [
              -94.012205,
              45.222653
            ],
            [
              -94.0118286,
              45.2222518
            ],
            [
              -94.0113979,
              45.2218703
            ],
            [
              -94.0109173,
              45.2215123
            ],
            [
              -94.0103912,
              45.2211811
            ],
            [
              -94.0098247,
              45.2208799
            ],
            [
              -94.0092233,
              45.2206117
            ],
            [
              -94.0085929,
              45.220379
            ],
            [
              -94.0079393,
              45.2201841
            ],
            [
              -94.007269,
              45.2200287
            ],
            [
              -94.0065885,
              45.2199146
            ],
            [
              -94.0059041,
              45.2198426
            ],
            [
              -94.0052227,
              45.2198136
            ],
            [
              -94.0045506,
              45.2198278
            ],
            [
              -94.0038944,
              45.2198851
            ],
            [
              -94.0032605,
              45.2199849
            ],
            [
              -94.0026548,
              45.2201262
            ],
            [
              -94.0020833,
              45.2203078
            ],
            [
              -94.0015514,
              45.2205277
            ],
            [
              -94.0010643,
              45.2207841
            ],
            [
              -94.0006267,
              45.2210742
            ],
            [
              -94.0002427,
              45.2213955
            ],
            [
              -93.9999161,
              45.2217447
            ],
            [
              -93.99965,
              45.2221185
            ],
            [
              -93.999447,
              45.2225133
            ],
            [
              -93.9993091,
              45.2229254
            ],
            [
              -93.9992375,
              45.2233506
            ],
            [
              -93.9992329,
              45.2237851
            ],
            [
              -93.9992955,
              45.2242244
            ],
            [
              -93.9994245,
              45.2246645
            ],
            [
              -93.9996188,
              45.2251011
            ],
            [
              -93.9998765,
              45.22553
            ],
            [
              -94.000195,
              45.225947
            ],
            [
              -94.0005714,
              45.2263482
            ],
            [
              -94.0010021,
              45.2267297
            ],
            [
              -94.0014827,
              45.2270877
            ],
            [
              -94.0020088,
              45.2274189
            ],
            [
              -94.0025753,
              45.2277201
            ],
            [
              -94.0031767,
              45.2279883
            ]
          ]
        ]
      }
    },
    {
      "type": "Feature",
      "properties": {
        "lake": "Maple Lake",
        "depth_ft": 14.0,
        "color": "#52a6e7",
        "weight": 1,
        "fill_opacity": 0.5,
        "line_opacity": 0.8
      },
      "geometry": {
        "type": "Polygon",
        "coordinates": [
          [
            [
              -94.0035559,
              45.2275257
            ],
            [
              -94.0041073,
              45.2277292
            ],
            [
              -94.0046788,
              45.2278997
            ],
            [
              -94.0052651,
              45.2280355
            ],
            [
              -94.0058603,
              45.2281354
            ],
            [
              -94.0064587,
              45.2281983
            ],
            [
              -94.0070547,
              45.2282236
            ],
            [
              -94.0076425,
              45.2282112
            ],
            [
              -94.0082164,
              45.2281611
            ],
            [
              -94.0087708,
              45.2280739
            ],
            [
              -94.0093005,
              45.2279503
            ],
            [
              -94.0098004,
              45.2277915
            ],
            [
              -94.0102655,
              45.2275991
            ],
            [
              -94.0106915,
              45.2273749
            ],
            [
              -94.0110743,
              45.2271212
            ],
            [
              -94.0114101,
              45.2268402
            ],
            [
              -94.0116957,
              45.2265348
            ],
            [
              -94.0119284,
              45.2262079
            ],
            [
              -94.012106,
              45.2258626
            ],
            [
              -94.0122266,
              45.2255022
            ],
            [
              -94.0122892,
              45.2251303
            ],
            [
              -94.0122932,
              45.2247504
            ],
            [
              -94.0122385,
              45.2243661
            ],
            [
              -94.0121257,
              45.2239812
            ],
            [
              -94.0119557,
              45.2235994
            ],
            [
              -94.0117304,
              45.2232243
            ],
            [
              -94.0114518,
              45.2228595
            ],
            [
              -94.0111226,
              45.2225087
            ],
            [
              -94.010746,
              45.2221751
            ],
            [
              -94.0103256,
              45.221862
            ],
            [
              -94.0098655,
              45.2215723
            ],
            [
              -94.0093701,
              45.2213089
            ],
            [
              -94.0088441,
              45.2210743
            ],
            [
              -94.0082927,
              45.2208708
            ],
            [
              -94.0077212,
              45.2207003
            ],
            [
              -94.0071349,
              45.2205645
            ],
            [
              -94.0065397,
              45.2204646
            ],
            [
              -94.0059413,
              45.2204017
            ],
            [
              -94.0053453,
              45.2203764
            ],
            [
              -94.0047575,
              45.2203888
            ],
            [
              -94.0041836,
              45.2204389
            ],
            [
              -94.0036292,
              45.2205261
            ],
            [
              -94.0030995,
              45.2206497
            ],
            [
              -94.0025996,
              45.2208085
            ],
            [
              -94.0021345,
              45.2210009
            ],
            [
              -94.0017085,
              45.2212251
            ],
            [
              -94.0013257,
              45.2214788
            ],
            [
              -94.0009899,
              45.2217598
            ],
            [
              -94.0007043,
              45.2220652
            ],
            [
              -94.0004716,
              45.2223921
            ],
            [
              -94.000294,
              45.2227374
            ],
            [
              -94.0001734,
              45.2230978
            ],
            [
              -94.0001108,
              45.2234697
            ],
            [
              -94.0001068,
              45.2238496
            ],
            [
              -94.0001615,
              45.2242339
            ],
            [
              -94.0002743,
              45.2246188
            ],
            [
              -94.0004443,
              45.2250006
            ],
            [
              -94.0006696,
              45.2253757
            ],
            [
              -94.0009482,
              45.2257405
            ],
            [
              -94.0012774,
              45.2260913
            ],
            [
              -94.001654,
              45.2264249
            ],
            [
              -94.0020744,
              45.226738
            ],
            [
              -94.0025345,
              45.2270277
            ],
            [
              -94.0030299,
              45.2272911
            ],
            [
              -94.0035559,
              45.2275257
            ]
          ]
        ]
      }
    },
    {
      "type": "Feature",
      "properties": {
        "lake": "Maple Lake",
        "depth_ft": 17.5,
        "color": "#3f93da",
        "weight": 1,
        "fill_opacity": 0.5,
        "line_opacity": 0.8
      },
      "geometry": {
        "type": "Polygon",
        "coordinates": [
          [
            [
              -94.003953,
              45.2270413
            ],
            [
              -94.0044216,
              45.2272142
            ],
            [
              -94.0049073,
              45.2273591
            ],
            [
              -94.0054055,
              45.2274745
            ],
            [
              -94.0059113,
              45.2275594
            ],
            [
              -94.0064199,
              45.2276129
            ],
            [
              -94.0069264,
              45.2276344
            ],
            [
              -94.0074259,
              45.2276239
            ],
            [
              -94.0079136,
              45.2275813
            ],
            [
              -94.0083848,
              45.2275071
            ],
            [
              -94.0088349,
              45.2274021
            ],
            [
              -94.0092597,
              45.2272672
            ],
            [
              -94.009655,
              45.2271037
            ],
            [
              -94.010017,
              45.2269132
            ],
            [
              -94.0103423,
              45.2266975
            ],
            [
              -94.0106277,
              45.2264588
            ],
            [
              -94.0108704,
              45.2261992
            ],
            [
              -94.0110682,
              45.2259214
            ],
            [
              -94.011219,
              45.2256279
            ],
            [
              -94.0113216,
              45.2253217
            ],
            [
              -94.0113748,
              45.2250056
            ],
            [
              -94.0113782,
              45.2246827
            ],
            [
              -94.0113317,
              45.2243562
            ],
            [
              -94.0112358,
              45.2240291
            ],
            [
              -94.0110914,
              45.2237046
            ],
            [
              -94.0108999,
              45.2233858
            ],
            [
              -94.0106631,
              45.2230759
            ],
            [
              -94.0103833,
              45.2227777
            ],
            [
              -94.0100633,
              45.2224942
            ],
            [
              -94.009706,
              45.2222281
            ],
            [
              -94.009315,
              45.2219819
            ],
            [
              -94.008894,
              45.2217581
            ],
            [
              -94.008447,
              45.2215587
            ],
            [
              -94.0079784,
              45.2213858
            ],
            [
              -94.0074927,
              45.2212409
            ],
            [
              -94.0069945,
              45.2211255
            ],
            [
              -94.0064887,
              45.2210406
            ],
            [
              -94.0059801,
              45.2209871
            ],
            [
              -94.0054736,
              45.2209656
            ],
            [
              -94.0049741,
              45.2209761
            ],
            [
              -94.0044864,
              45.2210187
            ],
            [
              -94.0040152,
              45.2210929
            ],
            [
              -94.0035651,
              45.2211979
            ],
            [
              -94.0031403,
              45.2213328
            ],
            [
              -94.002745,
              45.2214963
            ],
            [
              -94.002383,
              45.2216868
            ],
            [
              -94.0020577,
              45.2219025
            ],
            [
              -94.0017723,
              45.2221412
            ],
            [
              -94.0015296,
              45.2224008
            ],
            [
              -94.0013318,
              45.2226786
            ],
            [
              -94.001181,
              45.2229721
            ],
            [
              -94.0010784,
              45.2232783
            ],
            [
              -94.0010252,
              45.2235944
            ],
            [
              -94.0010218,
              45.2239173
            ],
            [
              -94.0010683,
              45.2242438
            ],
            [
              -94.0011642,
              45.2245709
            ],
            [
              -94.0013086,
              45.2248954
            ],
            [
              -94.0015001,
              45.2252142
            ],
            [
              -94.0017369,
              45.2255241
            ],
            [
              -94.0020167,
              45.2258223
            ],
            [
              -94.0023367,
              45.2261058
            ],
            [
              -94.002694,
              45.2263719
            ],
            [
              -94.003085,
              45.2266181
            ],
            [
              -94.003506,
              45.2268419
            ],
            [
              -94.003953,
              45.2270413
            ]
          ]
        ]
      }
    },
    {
      "type": "Feature",
      "properties": {
        "lake": "Maple Lake",
        "depth_ft": 21.0,
        "color": "#3077bc",
        "weight": 1,
        "fill_opacity": 0.5,
        "line_opacity": 0.8
      },
      "geometry": {
        "type": "Polygon",
        "coordinates": [
          [
            [
              -94.0043951,
              45.2265018
            ],
            [
              -94.0047715,
              45.2266408
            ],
            [
              -94.0051617,
              45.2267571
            ],
            [
              -94.0055618,
              45.2268498
            ],
            [
              -94.0059681,
              45.226918
            ],
            [
              -94.0063766,
              45.2269609
            ],
            [
              -94.0067834,
              45.2269783
            ],
            [
              -94.0071846,
              45.2269698
            ],
            [
              -94.0075764,
              45.2269356
            ],
            [
              -94.0079548,
              45.226876
            ],
            [
              -94.0083164,
              45.2267917
            ],
            [
              -94.0086576,
              45.2266833
            ],
            [
              -94.0089751,
              45.226552
            ],
            [
              -94.0092659,
              45.2263989
            ],
            [
              -94.0095272,
              45.2262257
            ],
            [
              -94.0097564,
              45.2260339
            ],
            [
              -94.0099514,
              45.2258255
            ],
            [
              -94.0101102,
              45.2256023
            ],
            [
              -94.0102314,
              45.2253666
            ],
            [
              -94.0103137,
              45.2251206
            ],
            [
              -94.0103565,
              45.2248668
            ],
            [
              -94.0103592,
              45.2246074
            ],
            [
              -94.0103219,
              45.2243451
            ],
            [
              -94.0102448,
              45.2240824
            ],
            [
              -94.0101288,
              45.2238217
            ],
            [
              -94.009975,
              45.2235657
            ],
            [
              -94.0097848,
              45.2233168
            ],
            [
              -94.0095601,
              45.2230773
            ],
            [
              -94.0093031,
              45.2228495
            ],
            [
              -94.0090161,
              45.2226358
            ],
            [
              -94.008702,
              45.2224381
            ],
            [
              -94.0083639,
              45.2222583
            ],
            [
              -94.0080049,
              45.2220982
            ],
            [
              -94.0076285,
              45.2219592
            ],
            [
              -94.0072383,
              45.2218429
            ],
            [
              -94.0068382,
              45.2217502
            ],
            [
              -94.0064319,
              45.221682
            ],
            [
              -94.0060234,
              45.2216391
            ],
            [
              -94.0056166,
              45.2216217
            ],
            [
              -94.0052154,
              45.2216302
            ],
            [
              -94.0048236,
              45.2216644
            ],
            [
              -94.0044452,
              45.221724
            ],
            [
              -94.0040836,
              45.2218083
            ],
            [
              -94.0037424,
              45.2219167
            ],
            [
              -94.0034249,
              45.222048
            ],
            [
              -94.0031341,
              45.2222011
            ],
            [
              -94.0028728,
              45.2223743
            ],
            [
              -94.0026436,
              45.2225661
            ],
            [
              -94.0024486,
              45.2227745
            ],
            [
              -94.0022898,
              45.2229977
            ],
            [
              -94.0021686,
              45.2232334
            ],
            [
              -94.0020863,
              45.2234794
            ],
            [
              -94.0020435,
              45.2237332
            ],
            [
              -94.0020408,
              45.2239926
            ],
            [
              -94.0020781,
              45.2242549
            ],
            [
              -94.0021552,
              45.2245176
            ],
            [
              -94.0022712,
              45.2247783
            ],
            [
              -94.002425,
              45.2250343
            ],
            [
              -94.0026152,
              45.2252832
            ],
            [
              -94.0028399,
              45.2255227
            ],
            [
              -94.0030969,
              45.2257505
            ],
            [
              -94.0033839,
              45.2259642
            ],
            [
              -94.003698,
              45.2261619
            ],
            [
              -94.0040361,
              45.2263417
            ],
            [
              -94.0043951,
              45.2265018
            ]
          ]
        ]
      }
    },
    {
      "type": "Feature",
      "properties": {
        "lake": "Maple Lake",
        "depth_ft": 24.5,
        "color": "#245790",
        "weight": 1,
        "fill_opacity": 0.5,
        "line_opacity": 0.8
      },
      "geometry": {
        "type": "Polygon",
        "coordinates": [
          [
            [
              -94.0049422,
              45.2258344
            ],
            [
              -94.0052045,
              45.2259313
            ],
            [
              -94.0054764,
              45.2260124
            ],
            [
              -94.0057552,
              45.226077
            ],
            [
              -94.0060384,
              45.2261245
            ],
            [
              -94.0063231,
              45.2261544
            ],
            [
              -94.0066066,
              45.2261665
            ],
            [
              -94.0068862,
              45.2261606
            ],
            [
              -94.0071592,
              45.2261367
            ],
            [
              -94.0074229,
              45.2260952
            ],
            [
              -94.0076749,
              45.2260364
            ],
            [
              -94.0079127,
              45.2259609
            ],
            [
              -94.0081339,
              45.2258694
            ],
            [
              -94.0083366,
              45.2257627
            ],
            [
              -94.0085187,
              45.225642
            ],
            [
              -94.0086784,
              45.2255084
            ],
            [
              -94.0088143,
              45.2253631
            ],
            [
              -94.008925,
              45.2252076
            ],
            [
              -94.0090094,
              45.2250433
            ],
            [
              -94.0090668,
              45.2248719
            ],
            [
              -94.0090966,
              45.224695
            ],
            [
              -94.0090985,
              45.2245142
            ],
            [
              -94.0090725,
              45.2243314
            ],
            [
              -94.0090188,
              45.2241483
            ],
            [
              -94.008938,
              45.2239667
            ],
            [
              -94.0088308,
              45.2237883
            ],
            [
              -94.0086982,
              45.2236148
            ],
            [
              -94.0085416,
              45.2234479
            ],
            [
              -94.0083625,
              45.2232892
            ],
            [
              -94.0081625,
              45.2231402
            ],
            [
              -94.0079437,
              45.2230024
            ],
            [
              -94.007708,
              45.2228771
            ],
            [
              -94.0074578,
              45.2227656
            ],
            [
              -94.0071955,
              45.2226687
            ],
            [
              -94.0069236,
              45.2225876
            ],
            [
              -94.0066448,
              45.222523
            ],
            [
              -94.0063616,
              45.2224755
            ],
            [
              -94.0060769,
              45.2224456
            ],
            [
              -94.0057934,
              45.2224335
            ],
            [
              -94.0055138,
              45.2224394
            ],
            [
              -94.0052408,
              45.2224633
            ],
            [
              -94.0049771,
              45.2225048
            ],
            [
              -94.0047251,
              45.2225636
            ],
            [
              -94.0044873,
              45.2226391
            ],
            [
              -94.0042661,
              45.2227306
            ],
            [
              -94.0040634,
              45.2228373
            ],
            [
              -94.0038813,
              45.222958
            ],
            [
              -94.0037216,
              45.2230916
            ],
            [
              -94.0035857,
              45.2232369
            ],
            [
              -94.003475,
              45.2233924
            ],
            [
              -94.0033906,
              45.2235567
            ],
            [
              -94.0033332,
              45.2237281
            ],
            [
              -94.0033034,
              45.223905
            ],
            [
              -94.0033015,
              45.2240858
            ],
            [
              -94.0033275,
              45.2242686
            ],
            [
              -94.0033812,
              45.2244517
            ],
            [
              -94.003462,
              45.2246333
            ],
            [
              -94.0035692,
              45.2248117
            ],
            [
              -94.0037018,
              45.2249852
            ],
            [
              -94.0038584,
              45.2251521
            ],
            [
              -94.0040375,
              45.2253108
            ],
            [
              -94.0042375,
              45.2254598
            ],
            [
              -94.0044563,
              45.2255976
            ],
            [
              -94.004692,
              45.2257229
            ],
            [
              -94.0049422,
              45.2258344
            ]
          ]
        ]
      }
    }
  ]
}