{"type": "FeatureCollection", "features": [{"type": "Feature", "properties": {"depth_ft": 5.0, "lake": "Maple Lake", "dow": "86056300"}, "geometry": {"type": "Polygon", "coordinates": [[[-93.987675, 45.2243], [-93.98776420293841, 45.223042930175275], [-93.98803095268053, 45.221797966620144], [-93.98847268028055, 45.220577099014214], [-93.98908513166023, 45.21939208497992], [-93.98986240857795, 45.21825433685021], [-93.99079702543209, 45.217174811761524], [-93.99187998135145, 45.2161639061306], [-93.99310084687853, 45.21523135553128], [-93.99444786441087, 45.21438614093562], [-93.99590806143331, 45.21363640222222], [-93.99746737545031, 45.212989359784736], [-93.99911078941544, 45.21245124499554], [-94.00082247635386, 45.21202724019424], [-94.00258595178465, 45.21172142877882], [-94.0043842324754, 45.21153675588043], [-94.0062, 45.211475], [-94.0080157675246, 45.21153675588043], [-94.00981404821535, 45.21172142877882], [-94.01157752364614, 45.21202724019424], [-94.01328921058456, 45.21245124499554], [-94.0149326245497, 45.212989359784736], [-94.01649193856669, 45.21363640222222], [-94.01795213558913, 45.21438614093562], [-94.01929915312148, 45.21523135553128], [-94.02052001864855, 45.2161639061306], [-94.02160297456791, 45.217174811761524], [-94.02253759142206, 45.21825433685021], [-94.02331486833977, 45.21939208497992], [-94.02392731971945, 45.220577099014214], [-94.02436904731947, 45.221797966620144], [-94.0246357970616, 45.223042930175275], [-94.024725, 45.2243], [-94.0246357970616, 45.225557069824724], [-94.02436904731947, 45.226802033379855], [-94.02392731971945, 45.22802290098579], [-94.02331486833977, 45.22920791502008], [-94.02253759142206, 45.23034566314979], [-94.02160297456791, 45.231425188238475], [-94.02052001864855, 45.232436093869396], [-94.01929915312148, 45.23336864446872], [-94.01795213558913, 45.234213859064376], [-94.01649193856669, 45.23496359777778], [-94.0149326245497, 45.23561064021526], [-94.01328921058456, 45.23614875500446], [-94.01157752364614, 45.23657275980577], [-94.00981404821535, 45.236878571221176], [-94.0080157675246, 45.23706324411957], [-94.0062, 45.237125], [-94.0043842324754, 45.23706324411957], [-94.00258595178465, 45.236878571221176], [-94.00082247635386, 45.23657275980577], [-93.99911078941544, 45.23614875500446], [-93.99746737545031, 45.23561064021526], [-93.99590806143331, 45.23496359777778], [-93.99444786441087, 45.234213859064376], [-93.99310084687853, 45.23336864446872], [-93.99187998135145, 45.232436093869396], [-93.99079702543209, 45.231425188238475], [-93.98986240857795, 45.23034566314979], [-93.98908513166023, 45.22920791502008], [-93.98847268028055, 45.22802290098579], [-93.98803095268053, 45.226802033379855], [-93.98776420293841, 45.225557069824724], [-93.987675, 45.2243]]]}}, {"type": "Feature", "properties": {"depth_ft": 10.0, "lake": "Maple Lake", "dow": "86056300"}, "geometry": {"type": "Polygon", "coordinates": [[[-93.98865, 45.2243], [-93.9887345080469, 45.223109091744995], [-93.98898721832892, 45.221929652587505], [-93.9894056971079, 45.22077304117136], [-93.98998591420442, 45.21965039629677], [-93.99072228181069, 45.21857252964757], [-93.99160770830409, 45.21754982166881], [-93.99263366654348, 45.216592121597415], [-93.99379027599018, 45.21570865260858], [-93.99506639786293, 45.21490792299164], [-93.9964497424105, 45.21419764421052], [-93.9979269872687, 45.21358465663817], [-93.999483905762, 45.21307486367999], [-94.00110550391418, 45.21267317492085], [-94.00277616484863, 45.2123834588431], [-94.00447979918721, 45.212208505570935], [-94.0062, 45.21215], [-94.00792020081279, 45.212208505570935], [-94.00962383515139, 45.2123834588431], [-94.01129449608582, 45.21267317492085], [-94.01291609423801, 45.21307486367999], [-94.0144730127313, 45.21358465663817], [-94.0159502575895, 45.21419764421052], [-94.01733360213707, 45.21490792299164], [-94.01860972400983, 45.21570865260858], [-94.01976633345652, 45.216592121597415], [-94.02079229169591, 45.21754982166881], [-94.02167771818932, 45.21857252964757], [-94.02241408579559, 45.21965039629677], [-94.0229943028921, 45.22077304117136], [-94.02341278167108, 45.221929652587505], [-94.02366549195311, 45.223109091744995], [-94.02374999999999, 45.2243], [-94.02366549195311, 45.225490908255004], [-94.02341278167108, 45.226670347412494], [-94.0229943028921, 45.22782695882864], [-94.02241408579559, 45.228949603703235], [-94.02167771818932, 45.23002747035243], [-94.02079229169591, 45.23105017833119], [-94.01976633345652, 45.23200787840259], [-94.01860972400983, 45.232891347391416], [-94.01733360213707, 45.23369207700836], [-94.0159502575895, 45.23440235578948], [-94.0144730127313, 45.23501534336184], [-94.01291609423801, 45.235525136320014], [-94.01129449608582, 45.23592682507915], [-94.00962383515139, 45.2362165411569], [-94.00792020081279, 45.236391494429064], [-94.0062, 45.23645], [-94.00447979918721, 45.236391494429064], [-94.00277616484863, 45.2362165411569], [-94.00110550391418, 45.23592682507915], [-93.999483905762, 45.235525136320014], [-93.9979269872687, 45.23501534336184], [-93.9964497424105, 45.23440235578948], [-93.99506639786293, 45.23369207700836], [-93.99379027599018, 45.232891347391416], [-93.99263366654348, 45.23200787840259], [-93.99160770830409, 45.23105017833119], [-93.99072228181069, 45.23002747035243], [-93.98998591420442, 45.228949603703235], [-93.9894056971079, 45.22782695882864], [-93.98898721832892, 45.226670347412494], [-93.9887345080469, 45.225490908255004], [-93.98865, 45.2243]]]}}, {"type": "Feature", "properties": {"depth_ft": 15.0, "lake": "Maple Lake", "dow": "86056300"}, "geometry": {"type": "Polygon", "coordinates": [[[-93.989625, 45.2243], [-93.98970481315541, 45.22317525331472], [-93.98994348397733, 45.222061338554866], [-93.99033871393524, 45.220968983328504], [-93.99088669674863, 45.21990870761361], [-93.99158215504343, 45.218890722444925], [-93.99241839117609, 45.2179248315761], [-93.9933873517355, 45.21702033706423], [-93.99447970510184, 45.21618594968589], [-93.995684931315, 45.21542970504766], [-93.9969914233877, 45.21475888619883], [-93.9983865990871, 45.2141799534916], [-93.99985702210856, 45.213698482364435], [-94.00138853147452, 45.21331910964747], [-94.00296637791259, 45.21304548890737], [-94.00457536589904, 45.21288025526144], [-94.0062, 45.212825], [-94.00782463410096, 45.21288025526144], [-94.00943362208741, 45.21304548890737], [-94.0110114685255, 45.21331910964747], [-94.01254297789144, 45.213698482364435], [-94.0140134009129, 45.2141799534916], [-94.0154085766123, 45.21475888619883], [-94.01671506868502, 45.21542970504766], [-94.01792029489818, 45.21618594968589], [-94.01901264826449, 45.21702033706423], [-94.01998160882391, 45.2179248315761], [-94.02081784495657, 45.218890722444925], [-94.02151330325138, 45.21990870761361], [-94.02206128606477, 45.220968983328504], [-94.02245651602267, 45.222061338554866], [-94.02269518684459, 45.22317525331472], [-94.022775, 45.2243], [-94.02269518684459, 45.22542474668528], [-94.02245651602267, 45.22653866144513], [-94.02206128606477, 45.227631016671495], [-94.02151330325138, 45.228691292386394], [-94.02081784495657, 45.229709277555074], [-94.01998160882391, 45.2306751684239], [-94.01901264826449, 45.23157966293578], [-94.01792029489818, 45.23241405031412], [-94.01671506868502, 45.23317029495234], [-94.0154085766123, 45.23384111380117], [-94.0140134009129, 45.2344200465084], [-94.01254297789144, 45.23490151763557], [-94.0110114685255, 45.23528089035253], [-94.00943362208741, 45.23555451109263], [-94.00782463410096, 45.23571974473856], [-94.0062, 45.235775], [-94.00457536589904, 45.23571974473856], [-94.00296637791259, 45.23555451109263], [-94.00138853147452, 45.23528089035253], [-93.99985702210856, 45.23490151763557], [-93.9983865990871, 45.2344200465084], [-93.9969914233877, 45.23384111380117], [-93.995684931315, 45.23317029495234], [-93.99447970510184, 45.23241405031412], [-93.9933873517355, 45.23157966293578], [-93.99241839117609, 45.2306751684239], [-93.99158215504343, 45.229709277555074], [-93.99088669674863, 45.228691292386394], [-93.99033871393524, 45.227631016671495], [-93.98994348397733, 45.22653866144513], [-93.98970481315541, 45.22542474668528], [-93.989625, 45.2243]]]}}, {"type": "Feature", "properties": {"depth_ft": 20.0, "lake": "Maple Lake", "dow": "86056300"}, "geometry": {"type": "Polygon", "coordinates": [[[-93.9906, 45.2243], [-93.99067511826391, 45.22324141488444], [-93.99089974962571, 45.22219302452223], [-93.99127173076258, 45.22116492548565], [-93.99178747929282, 45.22016701893046], [-93.99244202827617, 45.219208915242284], [-93.99322907404809, 45.218299841483386], [-93.99414103692754, 45.21744855253103], [-93.9951691342135, 45.21666324676318], [-93.99630346476705, 45.21595148710369], [-93.99753310436489, 45.21532012818713], [-93.99884621090551, 45.214775250345035], [-94.0002301384551, 45.21432210104888], [-94.00167155903483, 45.21396504437409], [-94.00315659097654, 45.213707518971646], [-94.00467093261085, 45.21355200495194], [-94.0062, 45.2135], [-94.00772906738915, 45.21355200495194], [-94.00924340902345, 45.213707518971646], [-94.01072844096517, 45.21396504437409], [-94.0121698615449, 45.21432210104888], [-94.01355378909449, 45.214775250345035], [-94.01486689563511, 45.21532012818713], [-94.01609653523295, 45.21595148710369], [-94.0172308657865, 45.21666324676318], [-94.01825896307246, 45.21744855253103], [-94.01917092595191, 45.218299841483386], [-94.01995797172383, 45.219208915242284], [-94.02061252070718, 45.22016701893046], [-94.02112826923742, 45.22116492548565], [-94.02150025037429, 45.22219302452223], [-94.02172488173609, 45.22324141488444], [-94.0218, 45.2243], [-94.02172488173609, 45.22535858511556], [-94.02150025037429, 45.22640697547778], [-94.02112826923742, 45.22743507451435], [-94.02061252070718, 45.228432981069545], [-94.01995797172383, 45.229391084757715], [-94.01917092595191, 45.23030015851661], [-94.01825896307246, 45.23115144746897], [-94.0172308657865, 45.231936753236816], [-94.01609653523295, 45.23264851289632], [-94.01486689563511, 45.23327987181287], [-94.01355378909449, 45.233824749654964], [-94.0121698615449, 45.23427789895112], [-94.01072844096517, 45.23463495562591], [-94.00924340902345, 45.23489248102835], [-94.00772906738915, 45.235047995048056], [-94.0062, 45.2351], [-94.00467093261085, 45.235047995048056], [-94.00315659097654, 45.23489248102835], [-94.00167155903483, 45.23463495562591], [-94.0002301384551, 45.23427789895112], [-93.99884621090551, 45.233824749654964], [-93.99753310436489, 45.23327987181287], [-93.99630346476705, 45.23264851289632], [-93.9951691342135, 45.231936753236816], [-93.99414103692754, 45.23115144746897], [-93.99322907404809, 45.23030015851661], [-93.99244202827617, 45.229391084757715], [-93.99178747929282, 45.228432981069545], [-93.99127173076258, 45.22743507451435], [-93.99089974962571, 45.22640697547778], [-93.99067511826391, 45.22535858511556], [-93.9906, 45.2243]]]}}, {"type": "Feature", "properties": {"depth_ft": 25.0, "lake": "Maple Lake", "dow": "86056300"}, "geometry": {"type": "Polygon", "coordinates": [[[-93.991575, 45.2243], [-93.99164542337242, 45.22330757645416], [-93.9918560152741, 45.22232471048959], [-93.99220474758992, 45.2213608676428], [-93.99268826183703, 45.22042533024731], [-93.99330190150891, 45.219527108039635], [-93.99403975692007, 45.21867485139067], [-93.99489472211957, 45.21787676799784], [-93.99585856332514, 45.217140543840486], [-93.99692199821911, 45.21647326915971], [-93.99807478534208, 45.21588137017544], [-93.99930582272391, 45.215370547198475], [-94.00060325480166, 45.21494571973332], [-94.00195458659515, 45.21461097910071], [-94.00334680404052, 45.214369549035915], [-94.00476649932268, 45.21422375464245], [-94.0062, 45.214175000000004], [-94.00763350067733, 45.21422375464245], [-94.0090531959595, 45.214369549035915], [-94.01044541340485, 45.21461097910071], [-94.01179674519835, 45.21494571973332], [-94.01309417727609, 45.215370547198475], [-94.01432521465792, 45.21588137017544], [-94.01547800178089, 45.21647326915971], [-94.01654143667486, 45.217140543840486], [-94.01750527788045, 45.21787676799784], [-94.01836024307993, 45.21867485139067], [-94.01909809849109, 45.219527108039635], [-94.01971173816297, 45.22042533024731], [-94.02019525241008, 45.2213608676428], [-94.0205439847259, 45.22232471048959], [-94.02075457662758, 45.22330757645416], [-94.020825, 45.2243], [-94.02075457662758, 45.22529242354584], [-94.0205439847259, 45.22627528951042], [-94.02019525241008, 45.2272391323572], [-94.01971173816297, 45.2281746697527], [-94.01909809849109, 45.229072891960364], [-94.01836024307993, 45.229925148609325], [-94.01750527788045, 45.230723232002155], [-94.01654143667486, 45.23145945615951], [-94.01547800178089, 45.2321267308403], [-94.01432521465792, 45.23271862982456], [-94.01309417727609, 45.23322945280153], [-94.01179674519835, 45.23365428026668], [-94.01044541340485, 45.233989020899294], [-94.0090531959595, 45.234230450964084], [-94.00763350067733, 45.23437624535756], [-94.0062, 45.234424999999995], [-94.00476649932268, 45.23437624535756], [-94.00334680404052, 45.234230450964084], [-94.00195458659515, 45.233989020899294], [-94.00060325480166, 45.23365428026668], [-93.99930582272391, 45.23322945280153], [-93.99807478534208, 45.23271862982456], [-93.99692199821911, 45.2321267308403], [-93.99585856332514, 45.23145945615951], [-93.99489472211957, 45.230723232002155], [-93.99403975692007, 45.229925148609325], [-93.99330190150891, 45.229072891960364], [-93.99268826183703, 45.2281746697527], [-93.99220474758992, 45.2272391323572], [-93.9918560152741, 45.22627528951042], [-93.99164542337242, 45.22529242354584], [-93.991575, 45.2243]]]}}, {"type": "Feature", "properties": {"depth_ft": 30.0, "lake": "Maple Lake", "dow": "86056300"}, "geometry": {"type": "Polygon", "coordinates": [[[-93.99255000000001, 45.2243], [-93.99261572848091, 45.22337373802389], [-93.9928122809225, 45.22245639645695], [-93.99313776441727, 45.22155680979994], [-93.99358904438122, 45.22068364156415], [-93.99416177474164, 45.219845300836994], [-93.99485043979207, 45.21904986129796], [-93.9956484073116, 45.218304983464655], [-93.9965479924368, 45.21761784091779], [-93.99754053167116, 45.216995051215726], [-93.99861646631928, 45.21644261216374], [-93.99976543454233, 45.21596584405191], [-94.00097637114821, 45.215569338417765], [-94.00223761415549, 45.21525691382733], [-94.00353701710448, 45.21503157910019], [-94.0048620660345, 45.21489550433295], [-94.0062, 45.21485], [-94.0075379339655, 45.21489550433295], [-94.00886298289552, 45.21503157910019], [-94.01016238584452, 45.21525691382733], [-94.01142362885179, 45.215569338417765], [-94.01263456545767, 45.21596584405191], [-94.01378353368072, 45.21644261216374], [-94.01485946832884, 45.216995051215726], [-94.0158520075632, 45.21761784091779], [-94.01675159268841, 45.218304983464655], [-94.01754956020793, 45.21904986129796], [-94.01823822525836, 45.219845300836994], [-94.01881095561879, 45.22068364156415], [-94.01926223558274, 45.22155680979994], [-94.0195877190775, 45.22245639645695], [-94.01978427151909, 45.22337373802389], [-94.01984999999999, 45.2243], [-94.01978427151909, 45.22522626197611], [-94.0195877190775, 45.22614360354305], [-94.01926223558274, 45.22704319020006], [-94.01881095561879, 45.227916358435856], [-94.01823822525836, 45.228754699163005], [-94.01754956020793, 45.22955013870204], [-94.01675159268841, 45.230295016535344], [-94.0158520075632, 45.23098215908222], [-94.01485946832884, 45.23160494878428], [-94.01378353368072, 45.23215738783626], [-94.01263456545767, 45.23263415594809], [-94.01142362885179, 45.233030661582234], [-94.01016238584452, 45.23334308617267], [-94.00886298289552, 45.23356842089981], [-94.0075379339655, 45.233704495667055], [-94.0062, 45.23375], [-94.0048620660345, 45.233704495667055], [-94.00353701710448, 45.23356842089981], [-94.00223761415549, 45.23334308617267], [-94.00097637114821, 45.233030661582234], [-93.99976543454233, 45.23263415594809], [-93.99861646631928, 45.23215738783626], [-93.99754053167116, 45.23160494878428], [-93.9965479924368, 45.23098215908222], [-93.9956484073116, 45.230295016535344], [-93.99485043979207, 45.22955013870204], [-93.99416177474164, 45.228754699163005], [-93.99358904438122, 45.227916358435856], [-93.99313776441727, 45.22704319020006], [-93.9928122809225, 45.22614360354305], [-93.99261572848091, 45.22522626197611], [-93.99255000000001, 45.2243]]]}}, {"type": "Feature", "properties": {"depth_ft": 35.0, "lake": "Maple Lake", "dow": "86056300"}, "geometry": {"type": "Polygon", "coordinates": [[[-93.993525, 45.2243], [-93.99358603358944, 45.22343989959361], [-93.99376854657089, 45.22258808242431], [-93.99407078124459, 45.22175275195709], [-93.99448982692542, 45.220941952881], [-93.99502164797438, 45.22016349363435], [-93.99566112266407, 45.21942487120525], [-93.99640209250362, 45.21873319893147], [-93.99723742154846, 45.21809513799509], [-93.99815906512323, 45.217516833271745], [-93.99915814729647, 45.21700385415204], [-94.00022504636073, 45.21656114090534], [-94.00134948749478, 45.216192957102216], [-94.0025206417158, 45.21590284855395], [-94.00372723016844, 45.21569360916446], [-94.00495763274631, 45.215567254023455], [-94.0062, 45.21552500000001], [-94.00744236725369, 45.215567254023455], [-94.00867276983156, 45.21569360916446], [-94.0098793582842, 45.21590284855395], [-94.01105051250524, 45.216192957102216], [-94.01217495363927, 45.21656114090534], [-94.01324185270353, 45.21700385415204], [-94.01424093487678, 45.217516833271745], [-94.01516257845154, 45.21809513799509], [-94.01599790749638, 45.21873319893147], [-94.01673887733592, 45.21942487120525], [-94.01737835202562, 45.22016349363435], [-94.01791017307458, 45.220941952881], [-94.01832921875541, 45.22175275195709], [-94.01863145342912, 45.22258808242431], [-94.01881396641058, 45.22343989959361], [-94.018875, 45.2243], [-94.01881396641058, 45.22516010040639], [-94.01863145342912, 45.22601191757569], [-94.01832921875541, 45.22684724804291], [-94.01791017307458, 45.22765804711901], [-94.01737835202562, 45.22843650636565], [-94.01673887733592, 45.22917512879475], [-94.01599790749638, 45.22986680106854], [-94.01516257845154, 45.23050486200491], [-94.01424093487678, 45.231083166728254], [-94.01324185270353, 45.23159614584796], [-94.01217495363927, 45.23203885909466], [-94.01105051250524, 45.23240704289778], [-94.0098793582842, 45.23269715144605], [-94.00867276983156, 45.23290639083554], [-94.00744236725369, 45.23303274597655], [-94.0062, 45.233075], [-94.00495763274631, 45.23303274597655], [-94.00372723016844, 45.23290639083554], [-94.0025206417158, 45.23269715144605], [-94.00134948749478, 45.23240704289778], [-94.00022504636073, 45.23203885909466], [-93.99915814729647, 45.23159614584796], [-93.99815906512323, 45.231083166728254], [-93.99723742154846, 45.23050486200491], [-93.99640209250362, 45.22986680106854], [-93.99566112266407, 45.22917512879475], [-93.99502164797438, 45.22843650636565], [-93.99448982692542, 45.22765804711901], [-93.99407078124459, 45.22684724804291], [-93.99376854657089, 45.22601191757569], [-93.99358603358944, 45.22516010040639], [-93.993525, 45.2243]]]}}, {"type": "Feature", "properties": {"depth_ft": 40.0, "lake": "Maple Lake", "dow": "86056300"}, "geometry": {"type": "Polygon", "coordinates": [[[-93.9945, 45.2243], [-93.99455633869795, 45.22350606116333], [-93.99472481221929, 45.22271976839167], [-93.99500379807193, 45.22194869411424], [-93.99539060946962, 45.22120026419785], [-93.99588152120712, 45.22048168643171], [-93.99647180553606, 45.21979988111254], [-93.99715577769565, 45.21916141439828], [-93.99792685066012, 45.21857243507239], [-93.99877759857529, 45.218038615327764], [-93.99969982827366, 45.21756509614035], [-94.00068465817914, 45.21715643775878], [-94.00172260384133, 45.21681657578666], [-94.00280366927612, 45.216548783280565], [-94.00391744323242, 45.21635563922874], [-94.00505319945815, 45.21623900371395], [-94.0062, 45.2162], [-94.00734680054185, 45.21623900371395], [-94.00848255676759, 45.21635563922874], [-94.00959633072388, 45.216548783280565], [-94.01067739615867, 45.21681657578666], [-94.01171534182086, 45.21715643775878], [-94.01270017172634, 45.21756509614035], [-94.01362240142471, 45.218038615327764], [-94.01447314933988, 45.21857243507239], [-94.01524422230435, 45.21916141439828], [-94.01592819446395, 45.21979988111254], [-94.01651847879288, 45.22048168643171], [-94.01700939053038, 45.22120026419785], [-94.01739620192807, 45.22194869411424], [-94.01767518778071, 45.22271976839167], [-94.01784366130205, 45.22350606116333], [-94.0179, 45.2243], [-94.01784366130205, 45.22509393883667], [-94.01767518778071, 45.22588023160833], [-94.01739620192807, 45.22665130588576], [-94.01700939053038, 45.22739973580216], [-94.01651847879288, 45.22811831356829], [-94.01592819446395, 45.228800118887456], [-94.01524422230435, 45.22943858560173], [-94.01447314933988, 45.23002756492761], [-94.01362240142471, 45.230561384672235], [-94.01270017172634, 45.23103490385965], [-94.01171534182086, 45.231443562241225], [-94.01067739615867, 45.23178342421334], [-94.00959633072388, 45.232051216719434], [-94.00848255676759, 45.23224436077126], [-94.00734680054185, 45.23236099628605], [-94.0062, 45.2324], [-94.00505319945815, 45.23236099628605], [-94.00391744323242, 45.23224436077126], [-94.00280366927612, 45.232051216719434], [-94.00172260384133, 45.23178342421334], [-94.00068465817914, 45.231443562241225], [-93.99969982827366, 45.23103490385965], [-93.99877759857529, 45.230561384672235], [-93.99792685066012, 45.23002756492761], [-93.99715577769565, 45.22943858560173], [-93.99647180553606, 45.228800118887456], [-93.99588152120712, 45.22811831356829], [-93.99539060946962, 45.22739973580216], [-93.99500379807193, 45.22665130588576], [-93.99472481221929, 45.22588023160833], [-93.99455633869795, 45.22509393883667], [-93.9945, 45.2243]]]}}, {"type": "Feature", "properties": {"depth_ft": 50.0, "lake": "Maple Lake", "dow": "86056300"}, "geometry": {"type": "Polygon", "coordinates": [[[-93.99645000000001, 45.2243], [-93.99649694891495, 45.223638384302774], [-93.99663734351607, 45.22298314032639], [-93.99686983172661, 45.222340578428536], [-93.99719217455802, 45.22171688683154], [-93.99760126767261, 45.22111807202643], [-93.99809317128006, 45.22054990092712], [-93.99866314807971, 45.220017845331896], [-93.99930570888344, 45.219527029226995], [-94.00001466547941, 45.2190821794398], [-94.00078319022805, 45.21868758011696], [-94.00160388181595, 45.21834703146565], [-94.00246883653445, 45.21806381315555], [-94.00336972439678, 45.21784065273381], [-94.00429786936034, 45.21767969935728], [-94.00524433288179, 45.21758250309496], [-94.0062, 45.21755], [-94.00715566711823, 45.21758250309496], [-94.00810213063966, 45.21767969935728], [-94.00903027560324, 45.21784065273381], [-94.00993116346555, 45.21806381315555], [-94.01079611818405, 45.21834703146565], [-94.01161680977195, 45.21868758011696], [-94.0123853345206, 45.2190821794398], [-94.01309429111657, 45.219527029226995], [-94.01373685192029, 45.220017845331896], [-94.01430682871995, 45.22054990092712], [-94.01479873232739, 45.22111807202643], [-94.01520782544199, 45.22171688683154], [-94.01553016827339, 45.222340578428536], [-94.01576265648393, 45.22298314032639], [-94.01590305108505, 45.223638384302774], [-94.01594999999999, 45.2243], [-94.01590305108505, 45.224961615697225], [-94.01576265648393, 45.22561685967361], [-94.01553016827339, 45.22625942157147], [-94.01520782544199, 45.22688311316846], [-94.01479873232739, 45.22748192797357], [-94.01430682871995, 45.22805009907288], [-94.01373685192029, 45.2285821546681], [-94.01309429111657, 45.22907297077301], [-94.0123853345206, 45.2295178205602], [-94.01161680977195, 45.22991241988304], [-94.01079611818405, 45.23025296853435], [-94.00993116346555, 45.23053618684445], [-94.00903027560324, 45.23075934726619], [-94.00810213063966, 45.23092030064272], [-94.00715566711823, 45.23101749690504], [-94.0062, 45.23105], [-94.00524433288179, 45.23101749690504], [-94.00429786936034, 45.23092030064272], [-94.00336972439678, 45.23075934726619], [-94.00246883653445, 45.23053618684445], [-94.00160388181595, 45.23025296853435], [-94.00078319022805, 45.22991241988304], [-94.00001466547941, 45.2295178205602], [-93.99930570888344, 45.22907297077301], [-93.99866314807971, 45.2285821546681], [-93.99809317128006, 45.22805009907288], [-93.99760126767261, 45.22748192797357], [-93.99719217455802, 45.22688311316846], [-93.99686983172661, 45.22625942157147], [-93.99663734351607, 45.22561685967361], [-93.99649694891495, 45.224961615697225], [-93.99645000000001, 45.2243]]]}}, {"type": "Feature", "properties": {"depth_ft": 60.0, "lake": "Maple Lake", "dow": "86056300"}, "geometry": {"type": "Polygon", "coordinates": [[[-93.9984, 45.2243], [-93.99843755913196, 45.22377070744222], [-93.99854987481287, 45.22324651226111], [-93.99873586538128, 45.222732462742826], [-93.99899373964641, 45.22223350946523], [-93.99932101413808, 45.22175445762114], [-93.99971453702403, 45.22129992074169], [-94.00017051846378, 45.22087427626552], [-94.00068456710675, 45.220481623381595], [-94.00125173238352, 45.22012574355184], [-94.00186655218246, 45.21981006409357], [-94.00252310545277, 45.21953762517252], [-94.00321506922755, 45.21931105052444], [-94.00393577951742, 45.219132522187046], [-94.00467829548828, 45.21900375948582], [-94.00543546630544, 45.21892600247597], [-94.0062, 45.2189], [-94.00696453369457, 45.21892600247597], [-94.00772170451172, 45.21900375948582], [-94.00846422048258, 45.219132522187046], [-94.00918493077245, 45.21931105052444], [-94.00987689454723, 45.21953762517252], [-94.01053344781755, 45.21981006409357], [-94.01114826761648, 45.22012574355184], [-94.01171543289327, 45.220481623381595], [-94.01222948153622, 45.22087427626552], [-94.01268546297597, 45.22129992074169], [-94.01307898586192, 45.22175445762114], [-94.01340626035359, 45.22223350946523], [-94.01366413461872, 45.222732462742826], [-94.01385012518713, 45.22324651226111], [-94.01396244086804, 45.22377070744222], [-94.014, 45.2243], [-94.01396244086804, 45.224829292557786], [-94.01385012518713, 45.225353487738886], [-94.01366413461872, 45.22586753725717], [-94.01340626035359, 45.22636649053477], [-94.01307898586192, 45.22684554237886], [-94.01268546297597, 45.227300079258306], [-94.01222948153622, 45.22772572373449], [-94.01171543289327, 45.228118376618404], [-94.01114826761648, 45.22847425644816], [-94.01053344781755, 45.228789935906434], [-94.00987689454723, 45.22906237482748], [-94.00918493077245, 45.22928894947556], [-94.00846422048258, 45.22946747781295], [-94.00772170451172, 45.22959624051418], [-94.00696453369457, 45.22967399752403], [-94.0062, 45.2297], [-94.00543546630544, 45.22967399752403], [-94.00467829548828, 45.22959624051418], [-94.00393577951742, 45.22946747781295], [-94.00321506922755, 45.22928894947556], [-94.00252310545277, 45.22906237482748], [-94.00186655218246, 45.228789935906434], [-94.00125173238352, 45.22847425644816], [-94.00068456710675, 45.228118376618404], [-94.00017051846378, 45.22772572373449], [-93.99971453702403, 45.227300079258306], [-93.99932101413808, 45.22684554237886], [-93.99899373964641, 45.22636649053477], [-93.99873586538128, 45.22586753725717], [-93.99854987481287, 45.225353487738886], [-93.99843755913196, 45.224829292557786], [-93.9984, 45.2243]]]}}, {"type": "Feature", "properties": {"depth_ft": 70.0, "lake": "Maple Lake", "dow": "86056300"}, "geometry": {"type": "Polygon", "coordinates": [[[-94.00035000000001, 45.2243], [-94.00037816934898, 45.22390303058167], [-94.00046240610963, 45.223509884195835], [-94.00060189903597, 45.223124347057116], [-94.00079530473481, 45.22275013209892], [-94.00104076060356, 45.222390843215855], [-94.00133590276803, 45.22204994055627], [-94.00167788884784, 45.221730707199136], [-94.00206342533006, 45.2214362175362], [-94.00248879928765, 45.221169307663885], [-94.00294991413685, 45.220932548070174], [-94.00344232908957, 45.22072821887939], [-94.00396130192067, 45.22055828789333], [-94.00450183463806, 45.220424391640286], [-94.00505872161621, 45.22032781961437], [-94.00562659972907, 45.22026950185698], [-94.0062, 45.22025], [-94.00677340027093, 45.22026950185698], [-94.0073412783838, 45.22032781961437], [-94.00789816536194, 45.220424391640286], [-94.00843869807933, 45.22055828789333], [-94.00895767091045, 45.22072821887939], [-94.00945008586316, 45.220932548070174], [-94.00991120071235, 45.221169307663885], [-94.01033657466994, 45.2214362175362], [-94.01072211115218, 45.221730707199136], [-94.01106409723197, 45.22204994055627], [-94.01135923939644, 45.222390843215855], [-94.01160469526519, 45.22275013209892], [-94.01179810096404, 45.223124347057116], [-94.01193759389037, 45.223509884195835], [-94.01202183065104, 45.22390303058167], [-94.01204999999999, 45.2243], [-94.01202183065104, 45.22469696941834], [-94.01193759389037, 45.225090115804164], [-94.01179810096404, 45.22547565294288], [-94.01160469526519, 45.225849867901076], [-94.01135923939644, 45.226209156784144], [-94.01106409723197, 45.22655005944373], [-94.01072211115218, 45.22686929280086], [-94.01033657466994, 45.227163782463805], [-94.00991120071235, 45.22743069233612], [-94.00945008586316, 45.227667451929825], [-94.00895767091045, 45.22787178112061], [-94.00843869807933, 45.228041712106666], [-94.00789816536194, 45.22817560835972], [-94.0073412783838, 45.22827218038563], [-94.00677340027093, 45.22833049814302], [-94.0062, 45.22835], [-94.00562659972907, 45.22833049814302], [-94.00505872161621, 45.22827218038563], [-94.00450183463806, 45.22817560835972], [-94.00396130192067, 45.228041712106666], [-94.00344232908957, 45.22787178112061], [-94.00294991413685, 45.227667451929825], [-94.00248879928765, 45.22743069233612], [-94.00206342533006, 45.227163782463805], [-94.00167788884784, 45.22686929280086], [-94.00133590276803, 45.22655005944373], [-94.00104076060356, 45.226209156784144], [-94.00079530473481, 45.225849867901076], [-94.00060189903597, 45.22547565294288], [-94.00046240610963, 45.225090115804164], [-94.00037816934898, 45.22469696941834], [-94.00035000000001, 45.2243]]]}}, {"type": "Feature", "properties": {"depth_ft": 80.0, "lake": "Maple Lake", "dow": "86056300"}, "geometry": {"type": "Polygon", "coordinates": [[[-94.0023, 45.2243], [-94.00231877956598, 45.22403535372111], [-94.00237493740643, 45.223773256130556], [-94.00246793269065, 45.22351623137142], [-94.00259686982321, 45.22326675473261], [-94.00276050706906, 45.22302722881057], [-94.00295726851202, 45.22279996037085], [-94.00318525923188, 45.22258713813276], [-94.00344228355337, 45.222390811690794], [-94.00372586619176, 45.22221287177592], [-94.00403327609123, 45.22205503204678], [-94.00436155272638, 45.22191881258626], [-94.00470753461379, 45.22180552526222], [-94.00506788975872, 45.22171626109352], [-94.00543914774414, 45.221651879742915], [-94.00581773315271, 45.22161300123799], [-94.0062, 45.2216], [-94.00658226684729, 45.22161300123799], [-94.00696085225586, 45.221651879742915], [-94.0073321102413, 45.22171626109352], [-94.00769246538621, 45.22180552526222], [-94.00803844727363, 45.22191881258626], [-94.00836672390878, 45.22205503204678], [-94.00867413380824, 45.22221287177592], [-94.00895771644663, 45.222390811690794], [-94.00921474076812, 45.22258713813276], [-94.00944273148798, 45.22279996037085], [-94.00963949293096, 45.22302722881057], [-94.0098031301768, 45.22326675473261], [-94.00993206730935, 45.22351623137142], [-94.01002506259358, 45.223773256130556], [-94.01008122043402, 45.22403535372111], [-94.01010000000001, 45.2243], [-94.01008122043402, 45.224564646278886], [-94.01002506259358, 45.22482674386944], [-94.00993206730935, 45.225083768628586], [-94.0098031301768, 45.225333245267386], [-94.00963949293096, 45.22557277118943], [-94.00944273148798, 45.22580003962915], [-94.00921474076812, 45.22601286186724], [-94.00895771644663, 45.226209188309205], [-94.00867413380824, 45.22638712822408], [-94.00836672390878, 45.22654496795322], [-94.00803844727363, 45.226681187413746], [-94.00769246538621, 45.22679447473779], [-94.0073321102413, 45.22688373890648], [-94.00696085225586, 45.226948120257084], [-94.00658226684729, 45.226986998762015], [-94.0062, 45.227000000000004], [-94.00581773315271, 45.226986998762015], [-94.00543914774414, 45.226948120257084], [-94.00506788975872, 45.22688373890648], [-94.00470753461379, 45.22679447473779], [-94.00436155272638, 45.226681187413746], [-94.00403327609123, 45.22654496795322], [-94.00372586619176, 45.22638712822408], [-94.00344228355337, 45.226209188309205], [-94.00318525923188, 45.22601286186724], [-94.00295726851202, 45.22580003962915], [-94.00276050706906, 45.22557277118943], [-94.00259686982321, 45.225333245267386], [-94.00246793269065, 45.225083768628586], [-94.00237493740643, 45.22482674386944], [-94.00231877956598, 45.224564646278886], [-94.0023, 45.2243]]]}}]}