{
  "type": "FeatureCollection",
  "features": [
    {
      "type": "Feature",
      "properties": {
        "lake": "Pelican Lake",
        "depth_ft": 4.8,
        "color": "#a5d7f5",
        "weight": 1,
        "fill_opacity": 0.5,
        "line_opacity": 0.8
      },
      "geometry": {
        "type": "Polygon",
        "coordinates": [
          [
            [
              -93.8992705,
              45.3216621
            ],
            [
              -93.8998089,
              45.3226049
            ],
            [
              -93.9004309,
              45.3235158
            ],
            [
              -93.9011306,
              45.3243862
            ],
            [
              -93.9019014,
              45.3252076
            ],
            [
              -93.9027356,
              45.325972
            ],
            [
              -93.9036254,
              45.3266723
            ],
            [
              -93.9045621,
              45.3273015
            ],
            [
              -93.9055368,
              45.3278537
            ],
            [
              -93.90654,
              45.3283235
            ],
            [
              -93.9075621,
              45.3287064
            ],
            [
              -93.9085932,
              45.3289987
            ],
            [
              -93.9096234,
              45.3291976
            ],
            [
              -93.9106427,
              45.3293011
            ],
            [
              -93.9116415,
              45.3293084
            ],
            [
              -93.91261,
              45.3292193
            ],
            [
              -93.9135389,
              45.3290346
            ],
            [
              -93.9144193,
              45.3287562
            ],
            [
              -93.9152426,
              45.3283868
            ],
            [
              -93.9160011,
              45.3279298
            ],
            [
              -93.9166873,
              45.3273897
            ],
            [
              -93.9172946,
              45.3267717
            ],
            [
              -93.9178173,
              45.3260818
            ],
            [
              -93.9182502,
              45.3253265
            ],
            [
              -93.9185893,
              45.3245132
            ],
            [
              -93.9188311,
              45.3236497
            ],
            [
              -93.9189735,
              45.3227443
            ],
            [
              -93.919015,
              45.3218057
            ],
            [
              -93.9189552,
              45.320843
            ],
            [
              -93.9187948,
              45.3198654
            ],
            [
              -93.9185352,
              45.3188824
            ],
            [
              -93.9181789,
              45.3179035
            ],
            [
              -93.9177295,
              45.3169379
            ],
            [
              -93.9171911,
              45.3159951
            ],
            [
              -93.9165691,
              45.3150842
            ],
            [
              -93.9158694,
              45.3142138
            ],
            [
              -93.9150986,
              45.3133924
            ],
            [
              -93.9142644,
              45.312628
            ],
            [
              -93.9133746,
              45.3119277
            ],
            [
              -93.9124379,
              45.3112985
            ],
            [
              -93.9114632,
              45.3107463
            ],
            [
              -93.91046,
              45.3102765
            ],
            [
              -93.9094379,
              45.3098936
            ],
            [
              -93.9084068,
              45.3096013
            ],
            [
              -93.9073766,
              45.3094024
            ],
            [
              -93.9063573,
              45.3092989
            ],
            [
              -93.9053585,
              45.3092916
            ],
            [
              -93.90439,
              45.3093807
            ],
            [
              -93.9034611,
              45.3095654
            ],
            [
              -93.9025807,
              45.3098438
            ],
            [
              -93.9017574,
              45.3102132
            ],
            [
              -93.9009989,
              45.3106702
            ],
            [
              -93.9003127,
              45.3112103
            ],
            [
              -93.8997054,
              45.3118283
            ],
            [
              -93.8991827,
              45.3125182
            ],
            [
              -93.8987498,
              45.3132735
            ],
            [
              -93.8984107,
              45.3140868
            ],
            [
              -93.8981689,
              45.3149503
            ],
            [
              -93.8980265,
              45.3158557
            ],
            [
              -93.897985,
              45.3167943
            ],
            [
              -93.8980448,
              45.317757
            ],
            [
              -93.8982052,
              45.3187346
            ],
            [
              -93.8984648,
              45.3197176
            ],
            [
              -93.8988211,
              45.3206965
            ],
            [
              -93.8992705,
              45.3216621
            ]
          ]
        ]
      }
    },
    {
      "type": "Feature",
      "properties": {
        "lake": "Pelican Lake",
        "depth_ft": 9.5,
        "color": "#84c6f2",
        "weight": 1,
        "fill_opacity": 0.5,
        "line_opacity": 0.8
      },
      "geometry": {
        "type": "Polygon",
        "coordinates": [
          [
            [
              -93.9002851,
              45.3214024
            ],
            [
              -93.9007642,
              45.3222416
            ],
            [
              -93.9013179,
              45.3230524
            ],
            [
              -93.9019407,
              45.3238271
            ],
            [
              -93.9026267,
              45.3245582
            ],
            [
              -93.9033693,
              45.3252386
            ],
            [
              -93.9041613,
              45.3258619
            ],
            [
              -93.904995,
              45.3264219
            ],
            [
              -93.9058625,
              45.3269134
            ],
            [
              -93.9067554,
              45.3273316
            ],
            [
              -93.9076652,
              45.3276724
            ],
            [
              -93.9085829,
              45.3279325
            ],
            [
              -93.9094999,
              45.3281096
            ],
            [
              -93.9104072,
              45.3282018
            ],
            [
              -93.9112962,
              45.3282082
            ],
            [
              -93.9121582,
              45.3281289
            ],
            [
              -93.912985,
              45.3279646
            ],
            [
              -93.9137686,
              45.3277168
            ],
            [
              -93.9145015,
              45.3273879
            ],
            [
              -93.9151765,
              45.3269812
            ],
            [
              -93.9157873,
              45.3265004
            ],
            [
              -93.9163279,
              45.3259504
            ],
            [
              -93.9167931,
              45.3253363
            ],
            [
              -93.9171784,
              45.324664
            ],
            [
              -93.9174802,
              45.3239401
            ],
            [
              -93.9176955,
              45.3231715
            ],
            [
              -93.9178222,
              45.3223657
            ],
            [
              -93.9178591,
              45.3215303
            ],
            [
              -93.9178059,
              45.3206734
            ],
            [
              -93.9176631,
              45.3198033
            ],
            [
              -93.9174321,
              45.3189283
            ],
            [
              -93.917115,
              45.318057
            ],
            [
              -93.9167149,
              45.3171976
            ],
            [
              -93.9162358,
              45.3163584
            ],
            [
              -93.9156821,
              45.3155476
            ],
            [
              -93.9150593,
              45.3147729
            ],
            [
              -93.9143733,
              45.3140418
            ],
            [
              -93.9136307,
              45.3133614
            ],
            [
              -93.9128387,
              45.3127381
            ],
            [
              -93.912005,
              45.3121781
            ],
            [
              -93.9111375,
              45.3116866
            ],
            [
              -93.9102446,
              45.3112684
            ],
            [
              -93.9093348,
              45.3109276
            ],
            [
              -93.9084171,
              45.3106675
            ],
            [
              -93.9075001,
              45.3104904
            ],
            [
              -93.9065928,
              45.3103982
            ],
            [
              -93.9057038,
              45.3103918
            ],
            [
              -93.9048418,
              45.3104711
            ],
            [
              -93.904015,
              45.3106354
            ],
            [
              -93.9032314,
              45.3108832
            ],
            [
              -93.9024985,
              45.3112121
            ],
            [
              -93.9018235,
              45.3116188
            ],
            [
              -93.9012127,
              45.3120996
            ],
            [
              -93.9006721,
              45.3126496
            ],
            [
              -93.9002069,
              45.3132637
            ],
            [
              -93.8998216,
              45.313936
            ],
            [
              -93.8995198,
              45.3146599
            ],
            [
              -93.8993045,
              45.3154285
            ],
            [
              -93.8991778,
              45.3162343
            ],
            [
              -93.8991409,
              45.3170697
            ],
            [
              -93.8991941,
              45.3179266
            ],
            [
              -93.8993369,
              45.3187967
            ],
            [
              -93.8995679,
              45.3196717
            ],
            [
              -93.899885,
              45.320543
            ],
            [
              -93.9002851,
              45.3214024
            ]
          ]
        ]
      }
    },
    {
      "type": "Feature",
      "properties": {
        "lake": "Pelican Lake",
        "depth_ft": 14.2,
        "color": "#68b6ed",
        "weight": 1,
        "fill_opacity": 0.5,
        "line_opacity": 0.8
      },
      "geometry": {
        "type": "Polygon",
        "coordinates": [
          [
            [
              -93.901209,
              45.321166
            ],
            [
              -93.9016343,
              45.3219107
            ],
            [
              -93.9021257,
              45.3226304
            ],
            [
              -93.9026784,
              45.3233179
            ],
            [
              -93.9032873,
              45.3239668
            ],
            [
              -93.9039463,
              45.3245707
            ],
            [
              -93.9046492,
              45.3251239
            ],
            [
              -93.9053892,
              45.3256209
            ],
            [
              -93.9061592,
              45.3260571
            ],
            [
              -93.9069517,
              45.3264283
            ],
            [
              -93.9077591,
              45.3267307
            ],
            [
              -93.9085736,
              45.3269616
            ],
            [
              -93.9093874,
              45.3271188
            ],
            [
              -93.9101927,
              45.3272006
            ],
            [
              -93.9109817,
              45.3272063
            ],
            [
              -93.9117468,
              45.3271359
            ],
            [
              -93.9124806,
              45.3269901
            ],
            [
              -93.913176,
              45.3267701
            ],
            [
              -93.9138265,
              45.3264783
            ],
            [
              -93.9144256,
              45.3261173
            ],
            [
              -93.9149677,
              45.3256906
            ],
            [
              -93.9154475,
              45.3252024
            ],
            [
              -93.9158604,
              45.3246574
            ],
            [
              -93.9162024,
              45.3240607
            ],
            [
              -93.9164702,
              45.3234183
            ],
            [
              -93.9166613,
              45.3227361
            ],
            [
              -93.9167737,
              45.3220209
            ],
            [
              -93.9168065,
              45.3212794
            ],
            [
              -93.9167593,
              45.3205189
            ],
            [
              -93.9166326,
              45.3197467
            ],
            [
              -93.9164275,
              45.3189701
            ],
            [
              -93.9161461,
              45.3181968
            ],
            [
              -93.915791,
              45.317434
            ],
            [
              -93.9153657,
              45.3166893
            ],
            [
              -93.9148743,
              45.3159696
            ],
            [
              -93.9143216,
              45.3152821
            ],
            [
              -93.9137127,
              45.3146332
            ],
            [
              -93.9130537,
              45.3140293
            ],
            [
              -93.9123508,
              45.3134761
            ],
            [
              -93.9116108,
              45.3129791
            ],
            [
              -93.9108408,
              45.3125429
            ],
            [
              -93.9100483,
              45.3121717
            ],
            [
              -93.9092409,
              45.3118693
            ],
            [
              -93.9084264,
              45.3116384
            ],
            [
              -93.9076126,
              45.3114812
            ],
            [
              -93.9068073,
              45.3113994
            ],
            [
              -93.9060183,
              45.3113937
            ],
            [
              -93.9052532,
              45.3114641
            ],
            [
              -93.9045194,
              45.3116099
            ],
            [
              -93.903824,
              45.3118299
            ],
            [
              -93.9031735,
              45.3121217
            ],
            [
              -93.9025744,
              45.3124827
            ],
            [
              -93.9020323,
              45.3129094
            ],
            [
              -93.9015525,
              45.3133976
            ],
            [
              -93.9011396,
              45.3139426
            ],
            [
              -93.9007976,
              45.3145393
            ],
            [
              -93.9005298,
              45.3151817
            ],
            [
              -93.9003387,
              45.3158639
            ],
            [
              -93.9002263,
              45.3165791
            ],
            [
              -93.9001935,
              45.3173206
            ],
            [
              -93.9002407,
              45.3180811
            ],
            [
              -93.9003674,
              45.3188533
            ],
            [
              -93.9005725,
              45.3196299
            ],
            [
              -93.9008539,
              45.3204032
            ],
            [
              -93.901209,
              45.321166
            ]
          ]
        ]
      }
    },
    {
      "type": "Feature",
      "properties": {
        "lake": "Pelican Lake",
        "depth_ft": 19.0,
        "color": "#52a6e7",
        "weight": 1,
        "fill_opacity": 0.5,
        "line_opacity": 0.8
      },
      "geometry": {
        "type": "Polygon",
        "coordinates": [
          [
            [
              -93.9021235,
              45.3209319
            ],
            [
              -93.9024954,
              45.3215833
            ],
            [
              -93.9029252,
              45.3222126
            ],
            [
              -93.9034086,
              45.322814
            ],
            [
              -93.9039411,
              45.3233814
            ],
            [
              -93.9045175,
              45.3239096
            ],
            [
              -93.9051322,
              45.3243934
            ],
            [
              -93.9057794,
              45.3248281
            ],
            [
              -93.9064528,
              45.3252096
            ],
            [
              -93.9071459,
              45.3255342
            ],
            [
              -93.907852,
              45.3257987
            ],
            [
              -93.9085644,
              45.3260006
            ],
            [
              -93.9092761,
              45.3261381
            ],
            [
              -93.9099804,
              45.3262096
            ],
            [
              -93.9106704,
              45.3262146
            ],
            [
              -93.9113395,
              45.3261531
            ],
            [
              -93.9119813,
              45.3260255
            ],
            [
              -93.9125895,
              45.3258332
            ],
            [
              -93.9131584,
              45.3255779
            ],
            [
              -93.9136824,
              45.3252622
            ],
            [
              -93.9141565,
              45.324889
            ],
            [
              -93.9145761,
              45.3244621
            ],
            [
              -93.9149372,
              45.3239854
            ],
            [
              -93.9152363,
              45.3234636
            ],
            [
              -93.9154705,
              45.3229017
            ],
            [
              -93.9156376,
              45.3223051
            ],
            [
              -93.915736,
              45.3216796
            ],
            [
              -93.9157646,
              45.3210312
            ],
            [
              -93.9157233,
              45.320366
            ],
            [
              -93.9156125,
              45.3196907
            ],
            [
              -93.9154331,
              45.3190115
            ],
            [
              -93.915187,
              45.3183352
            ],
            [
              -93.9148765,
              45.3176681
            ],
            [
              -93.9145046,
              45.3170167
            ],
            [
              -93.9140748,
              45.3163874
            ],
            [
              -93.9135914,
              45.315786
            ],
            [
              -93.9130589,
              45.3152186
            ],
            [
              -93.9124825,
              45.3146904
            ],
            [
              -93.9118678,
              45.3142066
            ],
            [
              -93.9112206,
              45.3137719
            ],
            [
              -93.9105472,
              45.3133904
            ],
            [
              -93.9098541,
              45.3130658
            ],
            [
              -93.909148,
              45.3128013
            ],
            [
              -93.9084356,
              45.3125994
            ],
            [
              -93.9077239,
              45.3124619
            ],
            [
              -93.9070196,
              45.3123904
            ],
            [
              -93.9063296,
              45.3123854
            ],
            [
              -93.9056605,
              45.3124469
            ],
            [
              -93.9050187,
              45.3125745
            ],
            [
              -93.9044105,
              45.3127668
            ],
            [
              -93.9038416,
              45.3130221
            ],
            [
              -93.9033176,
              45.3133378
            ],
            [
              -93.9028435,
              45.313711
            ],
            [
              -93.9024239,
              45.3141379
            ],
            [
              -93.9020628,
              45.3146146
            ],
            [
              -93.9017637,
              45.3151364
            ],
            [
              -93.9015295,
              45.3156983
            ],
            [
              -93.9013624,
              45.3162949
            ],
            [
              -93.901264,
              45.3169204
            ],
            [
              -93.9012354,
              45.3175688
            ],
            [
              -93.9012767,
              45.318234
            ],
            [
              -93.9013875,
              45.3189093
            ],
            [
              -93.9015669,
              45.3195885
            ],
            [
              -93.901813,
              45.3202648
            ],
            [
              -93.9021235,
              45.3209319
            ]
          ]
        ]
      }
    },
    {
      "type": "Feature",
      "properties": {
        "lake": "Pelican Lake",
        "depth_ft": 23.8,
        "color": "#3f93da",
        "weight": 1,
        "fill_opacity": 0.5,
        "line_opacity": 0.8
      },
      "geometry": {
        "type": "Polygon",
        "coordinates": [
          [
            [
              -93.9030811,
              45.3206869
            ],
            [
              -93.9033972,
              45.3212404
            ],
            [
              -93.9037624,
              45.3217752
            ],
            [
              -93.9041732,
              45.3222863
            ],
            [
              -93.9046257,
              45.3227685
            ],
            [
              -93.9051156,
              45.3232174
            ],
            [
              -93.905638,
              45.3236285
            ],
            [
              -93.906188,
              45.3239979
            ],
            [
              -93.9067602,
              45.3243221
            ],
            [
              -93.9073492,
              45.324598
            ],
            [
              -93.9079493,
              45.3248228
            ],
            [
              -93.9085547,
              45.3249944
            ],
            [
              -93.9091596,
              45.3251112
            ],
            [
              -93.9097581,
              45.325172
            ],
            [
              -93.9103445,
              45.3251763
            ],
            [
              -93.9109131,
              45.3251239
            ],
            [
              -93.9114585,
              45.3250155
            ],
            [
              -93.9119754,
              45.3248521
            ],
            [
              -93.9124588,
              45.3246351
            ],
            [
              -93.9129041,
              45.3243668
            ],
            [
              -93.913307,
              45.3240497
            ],
            [
              -93.9136636,
              45.3236869
            ],
            [
              -93.9139705,
              45.3232818
            ],
            [
              -93.9142247,
              45.3228383
            ],
            [
              -93.9144237,
              45.3223608
            ],
            [
              -93.9145657,
              45.3218538
            ],
            [
              -93.9146493,
              45.3213222
            ],
            [
              -93.9146737,
              45.3207712
            ],
            [
              -93.9146386,
              45.3202059
            ],
            [
              -93.9145444,
              45.319632
            ],
            [
              -93.914392,
              45.3190548
            ],
            [
              -93.9141828,
              45.31848
            ],
            [
              -93.9139189,
              45.3179131
            ],
            [
              -93.9136028,
              45.3173596
            ],
            [
              -93.9132376,
              45.3168248
            ],
            [
              -93.9128268,
              45.3163137
            ],
            [
              -93.9123743,
              45.3158315
            ],
            [
              -93.9118844,
              45.3153826
            ],
            [
              -93.911362,
              45.3149715
            ],
            [
              -93.910812,
              45.3146021
            ],
            [
              -93.9102398,
              45.3142779
            ],
            [
              -93.9096508,
              45.314002
            ],
            [
              -93.9090507,
              45.3137772
            ],
            [
              -93.9084453,
              45.3136056
            ],
            [
              -93.9078404,
              45.3134888
            ],
            [
              -93.9072419,
              45.313428
            ],
            [
              -93.9066555,
              45.3134237
            ],
            [
              -93.9060869,
              45.3134761
            ],
            [
              -93.9055415,
              45.3135845
            ],
            [
              -93.9050246,
              45.3137479
            ],
            [
              -93.9045412,
              45.3139649
            ],
            [
              -93.9040959,
              45.3142332
            ],
            [
              -93.903693,
              45.3145503
            ],
            [
              -93.9033364,
              45.3149131
            ],
            [
              -93.9030295,
              45.3153182
            ],
            [
              -93.9027753,
              45.3157617
            ],
            [
              -93.9025763,
              45.3162392
            ],
            [
              -93.9024343,
              45.3167462
            ],
            [
              -93.9023507,
              45.3172778
            ],
            [
              -93.9023263,
              45.3178288
            ],
            [
              -93.9023614,
              45.3183941
            ],
            [
              -93.9024556,
              45.318968
            ],
            [
              -93.902608,
              45.3195452
            ],
            [
              -93.9028172,
              45.32012
            ],
            [
              -93.9030811,
              45.3206869
            ]
          ]
        ]
      }
    },
    {
      "type": "Feature",
      "properties": {
        "lake": "Pelican Lake",
        "depth_ft": 28.5,
        "color": "#3077bc",
        "weight": 1,
        "fill_opacity": 0.5,
        "line_opacity": 0.8
      },
      "geometry": {
        "type": "Polygon",
        "coordinates": [
          [
            [
              -93.9041474,
              45.3204139
            ],
            [
              -93.9044013,
              45.3208586
            ],
            [
              -93.9046947,
              45.3212882
            ],
            [
              -93.9050247,
              45.3216986
            ],
            [
              -93.9053881,
              45.322086
            ],
            [
              -93.9057816,
              45.3224465
            ],
            [
              -93.9062012,
              45.3227767
            ],
            [
              -93.9066429,
              45.3230735
            ],
            [
              -93.9071026,
              45.3233339
            ],
            [
              -93.9075757,
              45.3235554
            ],
            [
              -93.9080577,
              45.323736
            ],
            [
              -93.9085439,
              45.3238738
            ],
            [
              -93.9090298,
              45.3239676
            ],
            [
              -93.9095105,
              45.3240165
            ],
            [
              -93.9099815,
              45.3240199
            ],
            [
              -93.9104382,
              45.3239779
            ],
            [
              -93.9108763,
              45.3238908
            ],
            [
              -93.9112915,
              45.3237595
            ],
            [
              -93.9116798,
              45.3235853
            ],
            [
              -93.9120375,
              45.3233698
            ],
            [
              -93.9123611,
              45.3231151
            ],
            [
              -93.9126475,
              45.3228236
            ],
            [
              -93.912894,
              45.3224982
            ],
            [
              -93.9130982,
              45.3221421
            ],
            [
              -93.913258,
              45.3217585
            ],
            [
              -93.9133721,
              45.3213513
            ],
            [
              -93.9134392,
              45.3209243
            ],
            [
              -93.9134588,
              45.3204817
            ],
            [
              -93.9134306,
              45.3200277
            ],
            [
              -93.913355,
              45.3195667
            ],
            [
              -93.9132325,
              45.3191031
            ],
            [
              -93.9130645,
              45.3186414
            ],
            [
              -93.9128526,
              45.3181861
            ],
            [
              -93.9125987,
              45.3177414
            ],
            [
              -93.9123053,
              45.3173118
            ],
            [
              -93.9119753,
              45.3169014
            ],
            [
              -93.9116119,
              45.316514
            ],
            [
              -93.9112184,
              45.3161535
            ],
            [
              -93.9107988,
              45.3158233
            ],
            [
              -93.9103571,
              45.3155265
            ],
            [
              -93.9098974,
              45.3152661
            ],
            [
              -93.9094243,
              45.3150446
            ],
            [
              -93.9089423,
              45.314864
            ],
            [
              -93.9084561,
              45.3147262
            ],
            [
              -93.9079702,
              45.3146324
            ],
            [
              -93.9074895,
              45.3145835
            ],
            [
              -93.9070185,
              45.3145801
            ],
            [
              -93.9065618,
              45.3146221
            ],
            [
              -93.9061237,
              45.3147092
            ],
            [
              -93.9057085,
              45.3148405
            ],
            [
              -93.9053202,
              45.3150147
            ],
            [
              -93.9049625,
              45.3152302
            ],
            [
              -93.9046389,
              45.3154849
            ],
            [
              -93.9043525,
              45.3157764
            ],
            [
              -93.904106,
              45.3161018
            ],
            [
              -93.9039018,
              45.3164579
            ],
            [
              -93.903742,
              45.3168415
            ],
            [
              -93.9036279,
              45.3172487
            ],
            [
              -93.9035608,
              45.3176757
            ],
            [
              -93.9035412,
              45.3181183
            ],
            [
              -93.9035694,
              45.3185723
            ],
            [
              -93.903645,
              45.3190333
            ],
            [
              -93.9037675,
              45.3194969
            ],
            [
              -93.9039355,
              45.3199586
            ],
            [
              -93.9041474,
              45.3204139
            ]
          ]
        ]
      }
    },
    {
      "type": "Feature",
      "properties": {
        "lake": "Pelican Lake",
        "depth_ft": 33.2,
        "color": "#245790",
        "weight": 1,
        "fill_opacity": 0.5,
        "line_opacity": 0.8
      },
      "geometry": {
        "type": "Polygon",
        "coordinates": [
          [
            [
              -93.9054667,
              45.3200763
            ],
            [
              -93.9056436,
              45.3203861
            ],
            [
              -93.9058481,
              45.3206855
            ],
            [
              -93.9060781,
              45.3209716
            ],
            [
              -93.9063314,
              45.3212415
            ],
            [
              -93.9066055,
              45.3214928
            ],
            [
              -93.906898,
              45.3217229
            ],
            [
              -93.9072058,
              45.3219297
            ],
            [
              -93.9075261,
              45.3221112
            ],
            [
              -93.9078558,
              45.3222656
            ],
            [
              -93.9081917,
              45.3223914
            ],
            [
              -93.9085306,
              45.3224875
            ],
            [
              -93.9088692,
              45.3225528
            ],
            [
              -93.9092042,
              45.3225869
            ],
            [
              -93.9095325,
              45.3225893
            ],
            [
              -93.9098507,
              45.32256
            ],
            [
              -93.910156,
              45.3224993
            ],
            [
              -93.9104454,
              45.3224078
            ],
            [
              -93.910716,
              45.3222864
            ],
            [
              -93.9109652,
              45.3221362
            ],
            [
              -93.9111908,
              45.3219587
            ],
            [
              -93.9113904,
              45.3217556
            ],
            [
              -93.9115621,
              45.3215288
            ],
            [
              -93.9117044,
              45.3212806
            ],
            [
              -93.9118158,
              45.3210133
            ],
            [
              -93.9118953,
              45.3207295
            ],
            [
              -93.9119421,
              45.320432
            ],
            [
              -93.9119558,
              45.3201235
            ],
            [
              -93.9119361,
              45.3198071
            ],
            [
              -93.9118834,
              45.3194858
            ],
            [
              -93.9117981,
              45.3191628
            ],
            [
              -93.911681,
              45.318841
            ],
            [
              -93.9115333,
              45.3185237
            ],
            [
              -93.9113564,
              45.3182139
            ],
            [
              -93.9111519,
              45.3179145
            ],
            [
              -93.9109219,
              45.3176284
            ],
            [
              -93.9106686,
              45.3173585
            ],
            [
              -93.9103945,
              45.3171072
            ],
            [
              -93.910102,
              45.3168771
            ],
            [
              -93.9097942,
              45.3166703
            ],
            [
              -93.9094739,
              45.3164888
            ],
            [
              -93.9091442,
              45.3163344
            ],
            [
              -93.9088083,
              45.3162086
            ],
            [
              -93.9084694,
              45.3161125
            ],
            [
              -93.9081308,
              45.3160472
            ],
            [
              -93.9077958,
              45.3160131
            ],
            [
              -93.9074675,
              45.3160107
            ],
            [
              -93.9071493,
              45.31604
            ],
            [
              -93.906844,
              45.3161007
            ],
            [
              -93.9065546,
              45.3161922
            ],
            [
              -93.906284,
              45.3163136
            ],
            [
              -93.9060348,
              45.3164638
            ],
            [
              -93.9058092,
              45.3166413
            ],
            [
              -93.9056096,
              45.3168444
            ],
            [
              -93.9054379,
              45.3170712
            ],
            [
              -93.9052956,
              45.3173194
            ],
            [
              -93.9051842,
              45.3175867
            ],
            [
              -93.9051047,
              45.3178705
            ],
            [
              -93.9050579,
              45.318168
            ],
            [
              -93.9050442,
              45.3184765
            ],
            [
              -93.9050639,
              45.3187929
            ],
            [
              -93.9051166,
              45.3191142
            ],
            [
              -93.9052019,
              45.3194372
            ],
            [
              -93.905319,
              45.319759
            ],
            [
              -93.9054667,
              45.3200763
            ]
          ]
        ]
      }
    }
  ]
}