{"type": "FeatureCollection", "features": [{"type": "Feature", "properties": {"depth_ft": 5.0, "lake": "Pelican Lake", "dow": "86099600"}, "geometry": {"type": "Polygon", "coordinates": [[[-93.889975, 45.3193], [-93.8900642029384, 45.31804293017527], [-93.89033095268054, 45.31679796662014], [-93.89077268028056, 45.315577099014206], [-93.89138513166024, 45.314392084979914], [-93.89216240857795, 45.3132543368502], [-93.8930970254321, 45.31217481176152], [-93.89417998135146, 45.311163906130595], [-93.89540084687853, 45.31023135553128], [-93.89674786441088, 45.30938614093562], [-93.89820806143332, 45.30863640222221], [-93.89976737545031, 45.30798935978473], [-93.90141078941545, 45.307451244995534], [-93.90312247635387, 45.30702724019423], [-93.90488595178466, 45.30672142877882], [-93.90668423247541, 45.30653675588043], [-93.9085, 45.306475], [-93.91031576752461, 45.30653675588043], [-93.91211404821536, 45.30672142877882], [-93.91387752364615, 45.30702724019423], [-93.91558921058457, 45.307451244995534], [-93.9172326245497, 45.30798935978473], [-93.9187919385667, 45.30863640222221], [-93.92025213558914, 45.30938614093562], [-93.92159915312148, 45.31023135553128], [-93.92282001864857, 45.311163906130595], [-93.92390297456792, 45.31217481176152], [-93.92483759142206, 45.3132543368502], [-93.92561486833978, 45.314392084979914], [-93.92622731971946, 45.315577099014206], [-93.92666904731948, 45.31679796662014], [-93.9269357970616, 45.31804293017527], [-93.92702500000001, 45.3193], [-93.9269357970616, 45.32055706982472], [-93.92666904731948, 45.321802033379846], [-93.92622731971946, 45.323022900985784], [-93.92561486833978, 45.324207915020075], [-93.92483759142206, 45.32534566314979], [-93.92390297456792, 45.32642518823847], [-93.92282001864857, 45.327436093869395], [-93.92159915312148, 45.32836864446871], [-93.92025213558914, 45.32921385906437], [-93.9187919385667, 45.32996359777778], [-93.9172326245497, 45.33061064021526], [-93.91558921058457, 45.331148755004456], [-93.91387752364615, 45.33157275980576], [-93.91211404821536, 45.33187857122117], [-93.91031576752461, 45.33206324411957], [-93.9085, 45.33212499999999], [-93.90668423247541, 45.33206324411957], [-93.90488595178466, 45.33187857122117], [-93.90312247635387, 45.33157275980576], [-93.90141078941545, 45.331148755004456], [-93.89976737545031, 45.33061064021526], [-93.89820806143332, 45.32996359777778], [-93.89674786441088, 45.32921385906437], [-93.89540084687853, 45.32836864446871], [-93.89417998135146, 45.327436093869395], [-93.8930970254321, 45.32642518823847], [-93.89216240857795, 45.32534566314979], [-93.89138513166024, 45.324207915020075], [-93.89077268028056, 45.323022900985784], [-93.89033095268054, 45.321802033379846], [-93.8900642029384, 45.32055706982472], [-93.889975, 45.3193]]]}}, {"type": "Feature", "properties": {"depth_ft": 10.0, "lake": "Pelican Lake", "dow": "86099600"}, "geometry": {"type": "Polygon", "coordinates": [[[-93.89095000000002, 45.3193], [-93.8910345080469, 45.31810909174499], [-93.89128721832893, 45.316929652587504], [-93.89170569710791, 45.315773041171354], [-93.89228591420442, 45.31465039629676], [-93.89302228181069, 45.31357252964756], [-93.8939077083041, 45.31254982166881], [-93.8949336665435, 45.31159212159741], [-93.89609027599018, 45.31070865260858], [-93.89736639786294, 45.30990792299164], [-93.89874974241052, 45.30919764421052], [-93.90022698726871, 45.30858465663816], [-93.901783905762, 45.308074863679984], [-93.90340550391419, 45.30767317492084], [-93.90507616484862, 45.30738345884309], [-93.90677979918722, 45.30720850557093], [-93.9085, 45.30714999999999], [-93.91022020081279, 45.30720850557093], [-93.91192383515138, 45.30738345884309], [-93.91359449608584, 45.30767317492084], [-93.915216094238, 45.308074863679984], [-93.91677301273131, 45.30858465663816], [-93.9182502575895, 45.30919764421052], [-93.91963360213708, 45.30990792299164], [-93.92090972400983, 45.31070865260858], [-93.92206633345653, 45.31159212159741], [-93.92309229169592, 45.31254982166881], [-93.92397771818932, 45.31357252964756], [-93.92471408579559, 45.31465039629676], [-93.92529430289211, 45.315773041171354], [-93.92571278167108, 45.316929652587504], [-93.92596549195311, 45.31810909174499], [-93.92605, 45.3193], [-93.92596549195311, 45.320490908255], [-93.92571278167108, 45.32167034741249], [-93.92529430289211, 45.322826958828635], [-93.92471408579559, 45.32394960370323], [-93.92397771818932, 45.32502747035243], [-93.92309229169592, 45.32605017833118], [-93.92206633345653, 45.32700787840258], [-93.92090972400983, 45.32789134739141], [-93.91963360213708, 45.32869207700835], [-93.9182502575895, 45.329402355789476], [-93.91677301273131, 45.33001534336183], [-93.915216094238, 45.330525136320006], [-93.91359449608584, 45.330926825079146], [-93.91192383515138, 45.3312165411569], [-93.91022020081279, 45.33139149442906], [-93.9085, 45.33145], [-93.90677979918722, 45.33139149442906], [-93.90507616484862, 45.3312165411569], [-93.90340550391419, 45.330926825079146], [-93.901783905762, 45.330525136320006], [-93.90022698726871, 45.33001534336183], [-93.89874974241052, 45.329402355789476], [-93.89736639786294, 45.32869207700835], [-93.89609027599018, 45.32789134739141], [-93.8949336665435, 45.32700787840258], [-93.8939077083041, 45.32605017833118], [-93.89302228181069, 45.32502747035243], [-93.89228591420442, 45.32394960370323], [-93.89170569710791, 45.322826958828635], [-93.89128721832893, 45.32167034741249], [-93.8910345080469, 45.320490908255], [-93.89095000000002, 45.3193]]]}}, {"type": "Feature", "properties": {"depth_ft": 15.0, "lake": "Pelican Lake", "dow": "86099600"}, "geometry": {"type": "Polygon", "coordinates": [[[-93.89192500000001, 45.3193], [-93.89200481315542, 45.31817525331471], [-93.89224348397732, 45.31706133855486], [-93.89263871393524, 45.315968983328496], [-93.89318669674863, 45.314908707613604], [-93.89388215504343, 45.31389072244492], [-93.8947183911761, 45.3129248315761], [-93.89568735173552, 45.31202033706422], [-93.89677970510184, 45.31118594968588], [-93.897984931315, 45.31042970504766], [-93.89929142338771, 45.30975888619883], [-93.90068659908711, 45.3091799534916], [-93.90215702210857, 45.30869848236443], [-93.90368853147451, 45.30831910964747], [-93.9052663779126, 45.30804548890737], [-93.90687536589905, 45.30788025526143], [-93.9085, 45.307825], [-93.91012463410097, 45.30788025526143], [-93.91173362208743, 45.30804548890737], [-93.91331146852549, 45.30831910964747], [-93.91484297789145, 45.30869848236443], [-93.9163134009129, 45.3091799534916], [-93.91770857661231, 45.30975888619883], [-93.91901506868501, 45.31042970504766], [-93.92022029489817, 45.31118594968588], [-93.9213126482645, 45.31202033706422], [-93.92228160882392, 45.3129248315761], [-93.92311784495658, 45.31389072244492], [-93.92381330325138, 45.314908707613604], [-93.92436128606477, 45.315968983328496], [-93.92475651602268, 45.31706133855486], [-93.9249951868446, 45.31817525331471], [-93.925075, 45.3193], [-93.9249951868446, 45.320424746685276], [-93.92475651602268, 45.32153866144513], [-93.92436128606477, 45.322631016671494], [-93.92381330325138, 45.323691292386385], [-93.92311784495658, 45.32470927755507], [-93.92228160882392, 45.32567516842389], [-93.9213126482645, 45.32657966293577], [-93.92022029489817, 45.32741405031411], [-93.91901506868501, 45.32817029495233], [-93.91770857661231, 45.32884111380117], [-93.9163134009129, 45.32942004650839], [-93.91484297789145, 45.32990151763556], [-93.91331146852549, 45.330280890352526], [-93.91173362208743, 45.33055451109262], [-93.91012463410097, 45.33071974473856], [-93.9085, 45.330774999999996], [-93.90687536589905, 45.33071974473856], [-93.9052663779126, 45.33055451109262], [-93.90368853147451, 45.330280890352526], [-93.90215702210857, 45.32990151763556], [-93.90068659908711, 45.32942004650839], [-93.89929142338771, 45.32884111380117], [-93.897984931315, 45.32817029495233], [-93.89677970510184, 45.32741405031411], [-93.89568735173552, 45.32657966293577], [-93.8947183911761, 45.32567516842389], [-93.89388215504343, 45.32470927755507], [-93.89318669674863, 45.323691292386385], [-93.89263871393524, 45.322631016671494], [-93.89224348397732, 45.32153866144513], [-93.89200481315542, 45.320424746685276], [-93.89192500000001, 45.3193]]]}}, {"type": "Feature", "properties": {"depth_ft": 20.0, "lake": "Pelican Lake", "dow": "86099600"}, "geometry": {"type": "Polygon", "coordinates": [[[-93.89290000000001, 45.3193], [-93.89297511826392, 45.31824141488443], [-93.89319974962572, 45.31719302452222], [-93.89357173076259, 45.316164925485644], [-93.89408747929284, 45.31516701893045], [-93.89474202827618, 45.314208915242276], [-93.8955290740481, 45.313299841483385], [-93.89644103692756, 45.31244855253103], [-93.89746913421351, 45.311663246763175], [-93.89860346476705, 45.31095148710368], [-93.8998331043649, 45.31032012818713], [-93.90114621090552, 45.30977525034503], [-93.9025301384551, 45.30932210104888], [-93.90397155903484, 45.30896504437409], [-93.90545659097656, 45.30870751897164], [-93.90697093261086, 45.308552004951935], [-93.9085, 45.308499999999995], [-93.91002906738916, 45.308552004951935], [-93.91154340902347, 45.30870751897164], [-93.91302844096518, 45.30896504437409], [-93.91446986154492, 45.30932210104888], [-93.9158537890945, 45.30977525034503], [-93.91716689563512, 45.31032012818713], [-93.91839653523296, 45.31095148710368], [-93.91953086578651, 45.311663246763175], [-93.92055896307247, 45.31244855253103], [-93.92147092595192, 45.313299841483385], [-93.92225797172384, 45.314208915242276], [-93.92291252070719, 45.31516701893045], [-93.92342826923743, 45.316164925485644], [-93.9238002503743, 45.31719302452222], [-93.9240248817361, 45.31824141488443], [-93.92410000000001, 45.3193], [-93.9240248817361, 45.32035858511556], [-93.9238002503743, 45.32140697547777], [-93.92342826923743, 45.322435074514345], [-93.92291252070719, 45.32343298106954], [-93.92225797172384, 45.324391084757714], [-93.92147092595192, 45.325300158516605], [-93.92055896307247, 45.32615144746896], [-93.91953086578651, 45.326936753236815], [-93.91839653523296, 45.32764851289631], [-93.91716689563512, 45.32827987181286], [-93.9158537890945, 45.32882474965496], [-93.91446986154492, 45.32927789895111], [-93.91302844096518, 45.3296349556259], [-93.91154340902347, 45.32989248102835], [-93.91002906738916, 45.330047995048055], [-93.9085, 45.330099999999995], [-93.90697093261086, 45.330047995048055], [-93.90545659097656, 45.32989248102835], [-93.90397155903484, 45.3296349556259], [-93.9025301384551, 45.32927789895111], [-93.90114621090552, 45.32882474965496], [-93.8998331043649, 45.32827987181286], [-93.89860346476705, 45.32764851289631], [-93.89746913421351, 45.326936753236815], [-93.89644103692756, 45.32615144746896], [-93.8955290740481, 45.325300158516605], [-93.89474202827618, 45.324391084757714], [-93.89408747929284, 45.32343298106954], [-93.89357173076259, 45.322435074514345], [-93.89319974962572, 45.32140697547777], [-93.89297511826392, 45.32035858511556], [-93.89290000000001, 45.3193]]]}}, {"type": "Feature", "properties": {"depth_ft": 25.0, "lake": "Pelican Lake", "dow": "86099600"}, "geometry": {"type": "Polygon", "coordinates": [[[-93.89387500000001, 45.3193], [-93.89394542337243, 45.31830757645416], [-93.8941560152741, 45.31732471048958], [-93.89450474758993, 45.31636086764279], [-93.89498826183704, 45.3154253302473], [-93.89560190150893, 45.31452710803963], [-93.89633975692007, 45.31367485139067], [-93.89719472211956, 45.31287676799784], [-93.89815856332514, 45.312140543840485], [-93.89922199821912, 45.3114732691597], [-93.9003747853421, 45.31088137017544], [-93.90160582272392, 45.31037054719847], [-93.90290325480166, 45.30994571973332], [-93.90425458659516, 45.309610979100704], [-93.90564680404052, 45.309369549035914], [-93.90706649932268, 45.30922375464244], [-93.9085, 45.309174999999996], [-93.90993350067733, 45.30922375464244], [-93.91135319595949, 45.309369549035914], [-93.91274541340486, 45.309610979100704], [-93.91409674519835, 45.30994571973332], [-93.91539417727608, 45.31037054719847], [-93.91662521465793, 45.31088137017544], [-93.9177780017809, 45.3114732691597], [-93.91884143667487, 45.312140543840485], [-93.91980527788044, 45.31287676799784], [-93.92066024307994, 45.31367485139067], [-93.9213980984911, 45.31452710803963], [-93.92201173816298, 45.3154253302473], [-93.92249525241009, 45.31636086764279], [-93.92284398472592, 45.31732471048958], [-93.92305457662759, 45.31830757645416], [-93.92312500000001, 45.3193], [-93.92305457662759, 45.32029242354584], [-93.92284398472592, 45.32127528951041], [-93.92249525241009, 45.3222391323572], [-93.92201173816298, 45.32317466975269], [-93.9213980984911, 45.32407289196036], [-93.92066024307994, 45.32492514860932], [-93.91980527788044, 45.325723232002154], [-93.91884143667487, 45.326459456159505], [-93.9177780017809, 45.32712673084029], [-93.91662521465793, 45.32771862982455], [-93.91539417727608, 45.32822945280152], [-93.91409674519835, 45.32865428026667], [-93.91274541340486, 45.328989020899286], [-93.91135319595949, 45.329230450964076], [-93.90993350067733, 45.32937624535755], [-93.9085, 45.32942499999999], [-93.90706649932268, 45.32937624535755], [-93.90564680404052, 45.329230450964076], [-93.90425458659516, 45.328989020899286], [-93.90290325480166, 45.32865428026667], [-93.90160582272392, 45.32822945280152], [-93.9003747853421, 45.32771862982455], [-93.89922199821912, 45.32712673084029], [-93.89815856332514, 45.326459456159505], [-93.89719472211956, 45.325723232002154], [-93.89633975692007, 45.32492514860932], [-93.89560190150893, 45.32407289196036], [-93.89498826183704, 45.32317466975269], [-93.89450474758993, 45.3222391323572], [-93.8941560152741, 45.32127528951041], [-93.89394542337243, 45.32029242354584], [-93.89387500000001, 45.3193]]]}}, {"type": "Feature", "properties": {"depth_ft": 30.0, "lake": "Pelican Lake", "dow": "86099600"}, "geometry": {"type": "Polygon", "coordinates": [[[-93.89485000000002, 45.3193], [-93.89491572848092, 45.31837373802389], [-93.8951122809225, 45.31745639645695], [-93.89543776441727, 45.31655680979994], [-93.89588904438122, 45.31568364156414], [-93.89646177474164, 45.314845300836986], [-93.89715043979207, 45.31404986129796], [-93.8979484073116, 45.31330498346465], [-93.89884799243681, 45.31261784091778], [-93.89984053167117, 45.31199505121572], [-93.90091646631929, 45.31144261216374], [-93.90206543454234, 45.31096584405191], [-93.90327637114822, 45.310569338417764], [-93.90453761415549, 45.310256913827324], [-93.90583701710447, 45.31003157910018], [-93.90716206603452, 45.30989550433294], [-93.9085, 45.30985], [-93.9098379339655, 45.30989550433294], [-93.91116298289553, 45.31003157910018], [-93.91246238584452, 45.310256913827324], [-93.9137236288518, 45.310569338417764], [-93.91493456545768, 45.31096584405191], [-93.91608353368073, 45.31144261216374], [-93.91715946832883, 45.31199505121572], [-93.91815200756321, 45.31261784091778], [-93.9190515926884, 45.31330498346465], [-93.91984956020794, 45.31404986129796], [-93.92053822525837, 45.314845300836986], [-93.92111095561879, 45.31568364156414], [-93.92156223558274, 45.31655680979994], [-93.9218877190775, 45.31745639645695], [-93.9220842715191, 45.31837373802389], [-93.92215, 45.3193], [-93.9220842715191, 45.32022626197611], [-93.9218877190775, 45.32114360354304], [-93.92156223558274, 45.32204319020005], [-93.92111095561879, 45.32291635843585], [-93.92053822525837, 45.323754699163004], [-93.91984956020794, 45.32455013870203], [-93.9190515926884, 45.32529501653534], [-93.91815200756321, 45.32598215908221], [-93.91715946832883, 45.32660494878427], [-93.91608353368073, 45.32715738783625], [-93.91493456545768, 45.32763415594808], [-93.9137236288518, 45.32803066158223], [-93.91246238584452, 45.328343086172666], [-93.91116298289553, 45.328568420899806], [-93.9098379339655, 45.32870449566705], [-93.9085, 45.32874999999999], [-93.90716206603452, 45.32870449566705], [-93.90583701710447, 45.328568420899806], [-93.90453761415549, 45.328343086172666], [-93.90327637114822, 45.32803066158223], [-93.90206543454234, 45.32763415594808], [-93.90091646631929, 45.32715738783625], [-93.89984053167117, 45.32660494878427], [-93.89884799243681, 45.32598215908221], [-93.8979484073116, 45.32529501653534], [-93.89715043979207, 45.32455013870203], [-93.89646177474164, 45.323754699163004], [-93.89588904438122, 45.32291635843585], [-93.89543776441727, 45.32204319020005], [-93.8951122809225, 45.32114360354304], [-93.89491572848092, 45.32022626197611], [-93.89485000000002, 45.3193]]]}}, {"type": "Feature", "properties": {"depth_ft": 35.0, "lake": "Pelican Lake", "dow": "86099600"}, "geometry": {"type": "Polygon", "coordinates": [[[-93.89582500000002, 45.3193], [-93.89588603358943, 45.318439899593606], [-93.89606854657089, 45.3175880824243], [-93.8963707812446, 45.31675275195709], [-93.89678982692543, 45.31594195288099], [-93.8973216479744, 45.315163493634344], [-93.89796112266407, 45.31442487120525], [-93.89870209250363, 45.31373319893146], [-93.89953742154847, 45.313095137995084], [-93.90045906512323, 45.31251683327174], [-93.90145814729648, 45.31200385415204], [-93.90252504636074, 45.31156114090533], [-93.90364948749477, 45.31119295710221], [-93.9048206417158, 45.310902848553944], [-93.90602723016845, 45.31069360916446], [-93.90725763274632, 45.31056725402345], [-93.9085, 45.310525], [-93.9097423672537, 45.31056725402345], [-93.91097276983157, 45.31069360916446], [-93.9121793582842, 45.310902848553944], [-93.91335051250523, 45.31119295710221], [-93.91447495363927, 45.31156114090533], [-93.91554185270354, 45.31200385415204], [-93.91654093487678, 45.31251683327174], [-93.91746257845155, 45.313095137995084], [-93.91829790749638, 45.31373319893146], [-93.91903887733594, 45.31442487120525], [-93.91967835202563, 45.315163493634344], [-93.92021017307458, 45.31594195288099], [-93.92062921875542, 45.31675275195709], [-93.92093145342912, 45.3175880824243], [-93.92111396641057, 45.318439899593606], [-93.921175, 45.3193], [-93.92111396641057, 45.32016010040638], [-93.92093145342912, 45.32101191757569], [-93.92062921875542, 45.3218472480429], [-93.92021017307458, 45.322658047119], [-93.91967835202563, 45.323436506365645], [-93.91903887733594, 45.32417512879474], [-93.91829790749638, 45.32486680106853], [-93.91746257845155, 45.325504862004905], [-93.91654093487678, 45.32608316672825], [-93.91554185270354, 45.32659614584795], [-93.91447495363927, 45.32703885909466], [-93.91335051250523, 45.32740704289778], [-93.9121793582842, 45.327697151446046], [-93.91097276983157, 45.32790639083553], [-93.9097423672537, 45.32803274597654], [-93.9085, 45.32807499999999], [-93.90725763274632, 45.32803274597654], [-93.90602723016845, 45.32790639083553], [-93.9048206417158, 45.327697151446046], [-93.90364948749477, 45.32740704289778], [-93.90252504636074, 45.32703885909466], [-93.90145814729648, 45.32659614584795], [-93.90045906512323, 45.32608316672825], [-93.89953742154847, 45.325504862004905], [-93.89870209250363, 45.32486680106853], [-93.89796112266407, 45.32417512879474], [-93.8973216479744, 45.323436506365645], [-93.89678982692543, 45.322658047119], [-93.8963707812446, 45.3218472480429], [-93.89606854657089, 45.32101191757569], [-93.89588603358943, 45.32016010040638], [-93.89582500000002, 45.3193]]]}}, {"type": "Feature", "properties": {"depth_ft": 40.0, "lake": "Pelican Lake", "dow": "86099600"}, "geometry": {"type": "Polygon", "coordinates": [[[-93.89680000000001, 45.3193], [-93.89685633869794, 45.318506061163326], [-93.8970248122193, 45.31771976839166], [-93.89730379807193, 45.31694869411424], [-93.89769060946963, 45.31620026419784], [-93.89818152120714, 45.3154816864317], [-93.89877180553606, 45.31479988111254], [-93.89945577769566, 45.31416141439827], [-93.90022685066013, 45.31357243507238], [-93.9010775985753, 45.313038615327756], [-93.90199982827367, 45.31256509614035], [-93.90298465817915, 45.31215643775877], [-93.90402260384134, 45.31181657578665], [-93.90510366927613, 45.311548783280564], [-93.90621744323242, 45.31135563922873], [-93.90735319945814, 45.31123900371395], [-93.9085, 45.31119999999999], [-93.90964680054186, 45.31123900371395], [-93.91078255676759, 45.31135563922873], [-93.91189633072389, 45.311548783280564], [-93.91297739615868, 45.31181657578665], [-93.91401534182087, 45.31215643775877], [-93.91500017172635, 45.31256509614035], [-93.91592240142472, 45.313038615327756], [-93.91677314933987, 45.31357243507238], [-93.91754422230434, 45.31416141439827], [-93.91822819446395, 45.31479988111254], [-93.91881847879289, 45.3154816864317], [-93.91930939053039, 45.31620026419784], [-93.91969620192808, 45.31694869411424], [-93.91997518778072, 45.31771976839166], [-93.92014366130206, 45.318506061163326], [-93.92020000000001, 45.3193], [-93.92014366130206, 45.32009393883666], [-93.91997518778072, 45.32088023160833], [-93.91969620192808, 45.32165130588575], [-93.91930939053039, 45.32239973580215], [-93.91881847879289, 45.32311831356829], [-93.91822819446395, 45.32380011888745], [-93.91754422230434, 45.32443858560172], [-93.91677314933987, 45.32502756492761], [-93.91592240142472, 45.325561384672234], [-93.91500017172635, 45.32603490385964], [-93.91401534182087, 45.32644356224122], [-93.91297739615868, 45.32678342421334], [-93.91189633072389, 45.327051216719425], [-93.91078255676759, 45.32724436077126], [-93.90964680054186, 45.32736099628604], [-93.9085, 45.3274], [-93.90735319945814, 45.32736099628604], [-93.90621744323242, 45.32724436077126], [-93.90510366927613, 45.327051216719425], [-93.90402260384134, 45.32678342421334], [-93.90298465817915, 45.32644356224122], [-93.90199982827367, 45.32603490385964], [-93.9010775985753, 45.325561384672234], [-93.90022685066013, 45.32502756492761], [-93.89945577769566, 45.32443858560172], [-93.89877180553606, 45.32380011888745], [-93.89818152120714, 45.32311831356829], [-93.89769060946963, 45.32239973580215], [-93.89730379807193, 45.32165130588575], [-93.8970248122193, 45.32088023160833], [-93.89685633869794, 45.32009393883666], [-93.89680000000001, 45.3193]]]}}, {"type": "Feature", "properties": {"depth_ft": 50.0, "lake": "Pelican Lake", "dow": "86099600"}, "geometry": {"type": "Polygon", "coordinates": [[[-93.89875000000002, 45.3193], [-93.89879694891496, 45.31863838430277], [-93.89893734351608, 45.31798314032639], [-93.89916983172662, 45.31734057842853], [-93.89949217455802, 45.31671688683153], [-93.89990126767262, 45.31611807202642], [-93.90039317128006, 45.31554990092712], [-93.90096314807973, 45.315017845331894], [-93.90160570888344, 45.31452702922699], [-93.90231466547941, 45.3140821794398], [-93.90308319022806, 45.313687580116955], [-93.90390388181596, 45.31334703146564], [-93.90476883653446, 45.313063813155544], [-93.90566972439677, 45.312840652733804], [-93.90659786936035, 45.31267969935727], [-93.90754433288178, 45.31258250309496], [-93.9085, 45.312549999999995], [-93.90945566711822, 45.31258250309496], [-93.91040213063967, 45.31267969935727], [-93.91133027560323, 45.312840652733804], [-93.91223116346556, 45.313063813155544], [-93.91309611818406, 45.31334703146564], [-93.91391680977196, 45.313687580116955], [-93.9146853345206, 45.3140821794398], [-93.91539429111657, 45.31452702922699], [-93.9160368519203, 45.315017845331894], [-93.91660682871995, 45.31554990092712], [-93.9170987323274, 45.31611807202642], [-93.91750782544199, 45.31671688683153], [-93.9178301682734, 45.31734057842853], [-93.91806265648393, 45.31798314032639], [-93.91820305108506, 45.31863838430277], [-93.91825, 45.3193], [-93.91820305108506, 45.31996161569722], [-93.91806265648393, 45.3206168596736], [-93.9178301682734, 45.32125942157146], [-93.91750782544199, 45.32188311316846], [-93.9170987323274, 45.32248192797357], [-93.91660682871995, 45.32305009907287], [-93.9160368519203, 45.3235821546681], [-93.91539429111657, 45.324072970773], [-93.9146853345206, 45.324517820560196], [-93.91391680977196, 45.324912419883034], [-93.91309611818406, 45.32525296853435], [-93.91223116346556, 45.325536186844445], [-93.91133027560323, 45.325759347266185], [-93.91040213063967, 45.32592030064272], [-93.90945566711822, 45.32601749690503], [-93.9085, 45.326049999999995], [-93.90754433288178, 45.32601749690503], [-93.90659786936035, 45.32592030064272], [-93.90566972439677, 45.325759347266185], [-93.90476883653446, 45.325536186844445], [-93.90390388181596, 45.32525296853435], [-93.90308319022806, 45.324912419883034], [-93.90231466547941, 45.324517820560196], [-93.90160570888344, 45.324072970773], [-93.90096314807973, 45.3235821546681], [-93.90039317128006, 45.32305009907287], [-93.89990126767262, 45.32248192797357], [-93.89949217455802, 45.32188311316846], [-93.89916983172662, 45.32125942157146], [-93.89893734351608, 45.3206168596736], [-93.89879694891496, 45.31996161569722], [-93.89875000000002, 45.3193]]]}}, {"type": "Feature", "properties": {"depth_ft": 60.0, "lake": "Pelican Lake", "dow": "86099600"}, "geometry": {"type": "Polygon", "coordinates": [[[-93.9007, 45.3193], [-93.90073755913197, 45.31877070744221], [-93.90084987481288, 45.318246512261105], [-93.90103586538129, 45.31773246274282], [-93.9012937396464, 45.31723350946522], [-93.90162101413809, 45.31675445762113], [-93.90201453702404, 45.31629992074169], [-93.90247051846377, 45.31587427626551], [-93.90298456710674, 45.31548162338159], [-93.90355173238353, 45.31512574355184], [-93.90416655218246, 45.314810064093564], [-93.90482310545278, 45.31453762517251], [-93.90551506922756, 45.31431105052444], [-93.90623577951743, 45.314132522187045], [-93.90697829548829, 45.314003759485814], [-93.90773546630544, 45.31392600247596], [-93.9085, 45.3139], [-93.90926453369457, 45.31392600247596], [-93.91002170451173, 45.314003759485814], [-93.91076422048258, 45.314132522187045], [-93.91148493077246, 45.31431105052444], [-93.91217689454724, 45.31453762517251], [-93.91283344781755, 45.314810064093564], [-93.91344826761649, 45.31512574355184], [-93.91401543289327, 45.31548162338159], [-93.91452948153623, 45.31587427626551], [-93.91498546297598, 45.31629992074169], [-93.91537898586193, 45.31675445762113], [-93.9157062603536, 45.31723350946522], [-93.91596413461873, 45.31773246274282], [-93.91615012518714, 45.318246512261105], [-93.91626244086804, 45.31877070744221], [-93.9163, 45.3193], [-93.91626244086804, 45.31982929255778], [-93.91615012518714, 45.320353487738885], [-93.91596413461873, 45.32086753725717], [-93.9157062603536, 45.32136649053477], [-93.91537898586193, 45.32184554237886], [-93.91498546297598, 45.3223000792583], [-93.91452948153623, 45.32272572373448], [-93.91401543289327, 45.3231183766184], [-93.91344826761649, 45.32347425644815], [-93.91283344781755, 45.323789935906426], [-93.91217689454724, 45.32406237482748], [-93.91148493077246, 45.32428894947555], [-93.91076422048258, 45.324467477812945], [-93.91002170451173, 45.324596240514175], [-93.90926453369457, 45.32467399752403], [-93.9085, 45.32469999999999], [-93.90773546630544, 45.32467399752403], [-93.90697829548829, 45.324596240514175], [-93.90623577951743, 45.324467477812945], [-93.90551506922756, 45.32428894947555], [-93.90482310545278, 45.32406237482748], [-93.90416655218246, 45.323789935906426], [-93.90355173238353, 45.32347425644815], [-93.90298456710674, 45.3231183766184], [-93.90247051846377, 45.32272572373448], [-93.90201453702404, 45.3223000792583], [-93.90162101413809, 45.32184554237886], [-93.9012937396464, 45.32136649053477], [-93.90103586538129, 45.32086753725717], [-93.90084987481288, 45.320353487738885], [-93.90073755913197, 45.31982929255778], [-93.9007, 45.3193]]]}}, {"type": "Feature", "properties": {"depth_ft": 70.0, "lake": "Pelican Lake", "dow": "86099600"}, "geometry": {"type": "Polygon", "coordinates": [[[-93.90265000000002, 45.3193], [-93.90267816934897, 45.31890303058166], [-93.90276240610964, 45.318509884195834], [-93.90290189903597, 45.318124347057115], [-93.90309530473482, 45.317750132098915], [-93.90334076060357, 45.31739084321585], [-93.90363590276804, 45.31704994055627], [-93.90397788884783, 45.316730707199135], [-93.90436342533008, 45.31643621753619], [-93.90478879928764, 45.31616930766388], [-93.90524991413685, 45.315932548070165], [-93.90574232908956, 45.315728218879386], [-93.90626130192068, 45.315558287893325], [-93.90680183463806, 45.31542439164028], [-93.9073587216162, 45.31532781961436], [-93.90792659972908, 45.315269501856974], [-93.9085, 45.31524999999999], [-93.90907340027094, 45.315269501856974], [-93.9096412783838, 45.31532781961436], [-93.91019816536195, 45.31542439164028], [-93.91073869807934, 45.315558287893325], [-93.91125767091044, 45.315728218879386], [-93.91175008586316, 45.315932548070165], [-93.91221120071236, 45.31616930766388], [-93.91263657466995, 45.31643621753619], [-93.91302211115217, 45.316730707199135], [-93.91336409723198, 45.31704994055627], [-93.91365923939645, 45.31739084321585], [-93.91390469526519, 45.317750132098915], [-93.91409810096404, 45.318124347057115], [-93.91423759389038, 45.318509884195834], [-93.91432183065103, 45.31890303058166], [-93.91435, 45.3193], [-93.91432183065103, 45.31969696941833], [-93.91423759389038, 45.320090115804156], [-93.91409810096404, 45.320475652942875], [-93.91390469526519, 45.320849867901075], [-93.91365923939645, 45.32120915678414], [-93.91336409723198, 45.32155005944372], [-93.91302211115217, 45.321869292800855], [-93.91263657466995, 45.3221637824638], [-93.91221120071236, 45.32243069233611], [-93.91175008586316, 45.322667451929824], [-93.91125767091044, 45.322871781120604], [-93.91073869807934, 45.323041712106665], [-93.91019816536195, 45.32317560835971], [-93.9096412783838, 45.32327218038563], [-93.90907340027094, 45.323330498143015], [-93.9085, 45.32335], [-93.90792659972908, 45.323330498143015], [-93.9073587216162, 45.32327218038563], [-93.90680183463806, 45.32317560835971], [-93.90626130192068, 45.323041712106665], [-93.90574232908956, 45.322871781120604], [-93.90524991413685, 45.322667451929824], [-93.90478879928764, 45.32243069233611], [-93.90436342533008, 45.3221637824638], [-93.90397788884783, 45.321869292800855], [-93.90363590276804, 45.32155005944372], [-93.90334076060357, 45.32120915678414], [-93.90309530473482, 45.320849867901075], [-93.90290189903597, 45.320475652942875], [-93.90276240610964, 45.320090115804156], [-93.90267816934897, 45.31969696941833], [-93.90265000000002, 45.3193]]]}}, {"type": "Feature", "properties": {"depth_ft": 80.0, "lake": "Pelican Lake", "dow": "86099600"}, "geometry": {"type": "Polygon", "coordinates": [[[-93.9046, 45.3193], [-93.904618779566, 45.319035353721105], [-93.90467493740643, 45.31877325613055], [-93.90476793269066, 45.31851623137141], [-93.9048968698232, 45.318266754732605], [-93.90506050706905, 45.318027228810564], [-93.90525726851203, 45.31779996037085], [-93.9054852592319, 45.31758713813275], [-93.90574228355338, 45.31739081169079], [-93.90602586619177, 45.317212871775915], [-93.90633327609123, 45.317055032046774], [-93.90666155272638, 45.31691881258625], [-93.9070075346138, 45.31680552526221], [-93.90736788975872, 45.31671626109352], [-93.90773914774415, 45.316651879742906], [-93.90811773315272, 45.31661300123798], [-93.9085, 45.316599999999994], [-93.9088822668473, 45.31661300123798], [-93.90926085225585, 45.316651879742906], [-93.90963211024129, 45.31671626109352], [-93.90999246538622, 45.31680552526221], [-93.91033844727363, 45.31691881258625], [-93.91066672390878, 45.317055032046774], [-93.91097413380824, 45.317212871775915], [-93.91125771644664, 45.31739081169079], [-93.91151474076813, 45.31758713813275], [-93.91174273148799, 45.31779996037085], [-93.91193949293095, 45.318027228810564], [-93.9121031301768, 45.318266754732605], [-93.91223206730936, 45.31851623137141], [-93.91232506259358, 45.31877325613055], [-93.91238122043403, 45.319035353721105], [-93.9124, 45.3193], [-93.91238122043403, 45.319564646278884], [-93.91232506259358, 45.31982674386944], [-93.91223206730936, 45.32008376862858], [-93.9121031301768, 45.320333245267385], [-93.91193949293095, 45.320572771189426], [-93.91174273148799, 45.32080003962915], [-93.91151474076813, 45.32101286186724], [-93.91125771644664, 45.321209188309204], [-93.91097413380824, 45.321387128224075], [-93.91066672390878, 45.321544967953216], [-93.91033844727363, 45.32168118741374], [-93.90999246538622, 45.32179447473778], [-93.90963211024129, 45.32188373890647], [-93.90926085225585, 45.32194812025708], [-93.9088822668473, 45.32198699876201], [-93.9085, 45.321999999999996], [-93.90811773315272, 45.32198699876201], [-93.90773914774415, 45.32194812025708], [-93.90736788975872, 45.32188373890647], [-93.9070075346138, 45.32179447473778], [-93.90666155272638, 45.32168118741374], [-93.90633327609123, 45.321544967953216], [-93.90602586619177, 45.321387128224075], [-93.90574228355338, 45.321209188309204], [-93.9054852592319, 45.32101286186724], [-93.90525726851203, 45.32080003962915], [-93.90506050706905, 45.320572771189426], [-93.9048968698232, 45.320333245267385], [-93.90476793269066, 45.32008376862858], [-93.90467493740643, 45.31982674386944], [-93.904618779566, 45.319564646278884], [-93.9046, 45.3193]]]}}]}