{"type": "FeatureCollection", "features": [{"type": "Feature", "properties": {"depth_ft": 0.0, "lake": "Ramsey Lake", "dow": "86012000"}, "geometry": {"type": "Polygon", "coordinates": [[[-93.999433, 45.211238], [-93.999544, 45.211184], [-93.9989, 45.211437], [-93.998627, 45.211545], [-93.998383, 45.211865], [-93.998266, 45.212272], [-93.998247, 45.212642], [-93.998254, 45.213012], [-93.998281, 45.213153], [-93.998187, 45.213507], [-93.997748, 45.214058], [-93.997478, 45.214307], [-93.997208, 45.214591], [-93.997114, 45.214927], [-93.997018, 45.215158], [-93.996872, 45.215335], [-93.997025, 45.215563], [-93.99748, 45.215841], [-93.997708, 45.216069], [-93.997615, 45.216422], [-93.997371, 45.216795], [-93.99708, 45.217256], [-93.996936, 45.21761], [-93.996865, 45.217822], [-93.997044, 45.218068], [-93.997248, 45.218295], [-93.99735, 45.218436], [-93.997186, 45.219019], [-93.996972, 45.219638], [-93.996827, 45.219939], [-93.996482, 45.220189], [-93.99621, 45.220298], [-93.99581, 45.220248], [-93.995206, 45.219971], [-93.994729, 45.219852], [-93.994403, 45.219749], [-93.993871, 45.219277], [-93.993585, 45.218645], [-93.993402, 45.218135], [-93.99327, 45.217713], [-93.99336, 45.217183], [-93.993551, 45.216669], [-93.993819, 45.216314], [-93.993866, 45.21612], [-93.993836, 45.21582], [-93.993805, 45.215521], [-93.993923, 45.215132], [-93.994087, 45.214495], [-93.994232, 45.214247], [-93.994454, 45.214051], [-93.994527, 45.213945], [-93.994524, 45.213786], [-93.994589, 45.213238], [-93.994631, 45.212779], [-93.994749, 45.21239], [-93.994744, 45.212108], [-93.994567, 45.211951], [-93.994565, 45.211828], [-93.994259, 45.211477], [-93.994033, 45.211391], [-93.993685, 45.211447], [-93.993339, 45.211662], [-93.992792, 45.211772], [-93.992368, 45.211811], [-93.991843, 45.211728], [-93.991514, 45.211501], [-93.991208, 45.211098], [-93.990901, 45.21066], [-93.990317, 45.210101], [-93.989937, 45.209733], [-93.989504, 45.209279], [-93.989299, 45.208945], [-93.989211, 45.208205], [-93.989279, 45.207816], [-93.98937, 45.207304], [-93.989586, 45.206773], [-93.989948, 45.2061], [-93.990153, 45.205675], [-93.990963, 45.204909], [-93.991379, 45.204447], [-93.9916, 45.204233], [-93.991923, 45.204125], [-93.99222, 45.203999], [-93.992715, 45.203747], [-93.993208, 45.203443], [-93.993504, 45.203229], [-93.994022, 45.202872], [-93.994367, 45.202622], [-93.994685, 45.202266], [-93.995027, 45.201857], [-93.995298, 45.201661], [-93.995815, 45.201286], [-93.996064, 45.201213], [-93.996212, 45.201159], [-93.996384, 45.200981], [-93.996431, 45.200804], [-93.996479, 45.200698], [-93.997074, 45.200464], [-93.997222, 45.200374], [-93.997545, 45.200318], [-93.998219, 45.20033], [-93.998768, 45.200325], [-93.999393, 45.200408], [-93.999669, 45.200476], [-93.999845, 45.200581], [-94.000121, 45.200684], [-94.000273, 45.200789], [-94.000599, 45.200891], [-94.000848, 45.200889], [-94.000974, 45.200923], [-94.001126, 45.201063], [-94.00168, 45.201376], [-94.002134, 45.201654], [-94.002489, 45.201951], [-94.002569, 45.202268], [-94.002524, 45.202533], [-94.002403, 45.202763], [-94.002108, 45.202995], [-94.001836, 45.203121], [-94.001688, 45.20321], [-94.001616, 45.203405], [-94.001721, 45.203704], [-94.001952, 45.204037], [-94.002334, 45.204475], [-94.00264, 45.204895], [-94.002947, 45.205298], [-94.003354, 45.205736], [-94.003536, 45.206157], [-94.00352, 45.206669], [-94.003305, 45.207235], [-94.00311, 45.207467], [-94.002813, 45.207645], [-94.002515, 45.207701], [-94.002315, 45.207685], [-94.002363, 45.207561], [-94.002336, 45.207473], [-94.002163, 45.207528], [-94.001743, 45.207796], [-94.00157, 45.207886], [-94.001571, 45.207956], [-94.0016, 45.20815], [-94.001551, 45.208239], [-94.001629, 45.208414], [-94.00151, 45.208715], [-94.00129, 45.208982], [-94.001291, 45.209035], [-94.001067, 45.20909], [-94.000797, 45.209339], [-94.000649, 45.209464], [-94.000654, 45.209728], [-94.000711, 45.210133], [-94.000591, 45.210399], [-94.00042, 45.21063], [-94.000076, 45.210915], [-93.999879, 45.21104], [-93.999433, 45.211238]]]}}, {"type": "Feature", "properties": {"depth_ft": 70.0, "lake": "Ramsey Lake", "dow": "86012000"}, "geometry": {"type": "Polygon", "coordinates": [[[-93.994629, 45.207219], [-93.994577, 45.20694], [-93.994478, 45.206739], [-93.994475, 45.206587], [-93.994557, 45.206518], [-93.994676, 45.206492], [-93.994808, 45.206533], [-93.994955, 45.206717], [-93.995017, 45.206869], [-93.995057, 45.207097], [-93.995047, 45.207215], [-93.995002, 45.20735], [-93.994919, 45.207402], [-93.994729, 45.207429], [-93.99462, 45.207345], [-93.994629, 45.207219]]]}}, {"type": "Feature", "properties": {"depth_ft": 80.0, "lake": "Ramsey Lake", "dow": "86012000"}, "geometry": {"type": "Polygon", "coordinates": [[[-93.994838, 45.206828], [-93.994876, 45.206963], [-93.994913, 45.207073], [-93.994867, 45.207157], [-93.994772, 45.207192], [-93.994699, 45.2071], [-93.994661, 45.206956], [-93.994599, 45.206822], [-93.994584, 45.206704], [-93.994655, 45.206661], [-93.994763, 45.206685], [-93.994776, 45.206744], [-93.994838, 45.206828]]]}}, {"type": "Feature", "properties": {"depth_ft": 60.0, "lake": "Ramsey Lake", "dow": "86012000"}, "geometry": {"type": "Polygon", "coordinates": [[[-93.9944, 45.207753], [-93.994415, 45.207246], [-93.994397, 45.206925], [-93.994334, 45.206748], [-93.994211, 45.206538], [-93.993933, 45.206355], [-93.993873, 45.206305], [-93.993847, 45.206212], [-93.993953, 45.206118], [-93.994072, 45.206109], [-93.994371, 45.206123], [-93.994792, 45.206246], [-93.995045, 45.206379], [-93.995166, 45.206496], [-93.995252, 45.206647], [-93.995294, 45.206993], [-93.995266, 45.207433], [-93.995166, 45.207847], [-93.995027, 45.20811], [-93.994801, 45.208171], [-93.994598, 45.208148], [-93.994465, 45.208073], [-93.994403, 45.207955], [-93.9944, 45.207753]]]}}, {"type": "Feature", "properties": {"depth_ft": 5.0, "lake": "Ramsey Lake", "dow": "86012000"}, "geometry": {"type": "Polygon", "coordinates": [[[-93.989955, 45.207715], [-93.99002, 45.207339], [-93.99006, 45.206882], [-93.990126, 45.206527], [-93.990309, 45.206061], [-93.990906, 45.205402], [-93.991391, 45.205085], [-93.99228, 45.204714], [-93.99279, 45.20449], [-93.993038, 45.204319], [-93.994449, 45.203044], [-93.99545, 45.202242], [-93.996013, 45.201646], [-93.996743, 45.201031], [-93.997417, 45.200658], [-93.997894, 45.200578], [-93.998575, 45.200606], [-93.999367, 45.200793], [-94.000892, 45.201278], [-94.00147, 45.201518], [-94.001676, 45.201685], [-94.00209, 45.202154], [-94.002263, 45.202499], [-94.002196, 45.202723], [-94.002044, 45.202902], [-94.001902, 45.20303], [-94.001701, 45.203124], [-94.001584, 45.203244], [-94.001443, 45.203422], [-94.001389, 45.203693], [-94.001515, 45.204089], [-94.00241, 45.205394], [-94.00267, 45.205924], [-94.002761, 45.206337], [-94.002717, 45.206557], [-94.00266, 45.206709], [-94.002519, 45.206854], [-94.0022, 45.207059], [-94.001809, 45.207215], [-94.001478, 45.20742], [-94.001339, 45.207654], [-94.001308, 45.207967], [-94.001373, 45.208245], [-94.001365, 45.208464], [-94.001249, 45.208668], [-94.001095, 45.208771], [-94.000869, 45.208832], [-94.000645, 45.20896], [-94.000517, 45.209156], [-94.00015, 45.210058], [-93.999871, 45.210466], [-93.999564, 45.210688], [-93.999291, 45.210801], [-93.999053, 45.210853], [-93.998876, 45.210956], [-93.99864, 45.211152], [-93.998278, 45.211637], [-93.997909, 45.212396], [-93.997856, 45.212776], [-93.997626, 45.213294], [-93.996888, 45.214111], [-93.996549, 45.214519], [-93.996494, 45.214802], [-93.996661, 45.215451], [-93.996838, 45.216049], [-93.996822, 45.216514], [-93.996661, 45.216819], [-93.996324, 45.217396], [-93.996329, 45.217692], [-93.996422, 45.218189], [-93.996382, 45.218671], [-93.996234, 45.219086], [-93.996105, 45.219222], [-93.995962, 45.219266], [-93.995735, 45.219259], [-93.995507, 45.219202], [-93.995133, 45.218969], [-93.994707, 45.218508], [-93.994265, 45.217845], [-93.994187, 45.217491], [-93.994223, 45.216819], [-93.994448, 45.21599], [-93.994786, 45.214834], [-93.994868, 45.21404], [-93.99495, 45.213254], [-93.995034, 45.212607], [-93.995098, 45.212192], [-93.994911, 45.211721], [-93.994642, 45.211369], [-93.994412, 45.211177], [-93.994075, 45.21107], [-93.993764, 45.211056], [-93.993406, 45.211084], [-93.992942, 45.211164], [-93.992631, 45.211167], [-93.992114, 45.210943], [-93.991652, 45.210496], [-93.990707, 45.209744], [-93.990161, 45.209233], [-93.989891, 45.208847], [-93.989765, 45.208485], [-93.989773, 45.208223], [-93.989955, 45.207715]]]}}, {"type": "Feature", "properties": {"depth_ft": 10.0, "lake": "Ramsey Lake", "dow": "86012000"}, "geometry": {"type": "Polygon", "coordinates": [[[-93.993853, 45.204493], [-93.994197, 45.20436], [-93.994717, 45.204034], [-93.995305, 45.203484], [-93.995667, 45.202991], [-93.996108, 45.202287], [-93.99636, 45.201685], [-93.996606, 45.201366], [-93.9971, 45.200965], [-93.997527, 45.200775], [-93.997932, 45.200721], [-93.998302, 45.20071], [-93.999213, 45.20087], [-93.999933, 45.201092], [-94.000465, 45.201408], [-94.001217, 45.202069], [-94.001512, 45.202548], [-94.001517, 45.202856], [-94.001377, 45.203034], [-94.001046, 45.203248], [-94.000918, 45.203444], [-94.000961, 45.203823], [-94.001268, 45.204327], [-94.00193, 45.205305], [-94.002107, 45.205861], [-94.0021, 45.206106], [-94.001902, 45.206378], [-94.001382, 45.206704], [-94.000958, 45.207045], [-94.000689, 45.20741], [-94.000623, 45.207694], [-94.000655, 45.208183], [-94.000613, 45.208522], [-94.000556, 45.208683], [-94.000404, 45.208836], [-94.000144, 45.209032], [-93.999934, 45.209279], [-93.999554, 45.210123], [-93.99918, 45.210599], [-93.998908, 45.210745], [-93.998506, 45.211002], [-93.99793, 45.211513], [-93.997546, 45.212133], [-93.997423, 45.212578], [-93.997383, 45.213034], [-93.997234, 45.213373], [-93.997058, 45.213603], [-93.996799, 45.213799], [-93.996397, 45.214022], [-93.996245, 45.214209], [-93.996106, 45.214489], [-93.996138, 45.214924], [-93.996342, 45.215682], [-93.996421, 45.21612], [-93.996425, 45.216357], [-93.996382, 45.216619], [-93.996105, 45.21717], [-93.995932, 45.217518], [-93.995876, 45.21773], [-93.9957, 45.2179], [-93.995498, 45.217995], [-93.995235, 45.217988], [-93.994922, 45.217856], [-93.9947, 45.217444], [-93.994663, 45.216663], [-93.99477, 45.215987], [-93.994928, 45.21542], [-93.995129, 45.214654], [-93.995171, 45.214316], [-93.995184, 45.213657], [-93.99521, 45.213099], [-93.995313, 45.212879], [-93.995378, 45.212498], [-93.995348, 45.212131], [-93.995148, 45.211626], [-93.99484, 45.211072], [-93.994608, 45.210787], [-93.994342, 45.210603], [-93.993932, 45.210396], [-93.993164, 45.210195], [-93.992562, 45.20993], [-93.991716, 45.20938], [-93.991244, 45.208988], [-93.990914, 45.208568], [-93.990812, 45.20824], [-93.990936, 45.207804], [-93.991038, 45.207457], [-93.991186, 45.207025], [-93.991191, 45.206645], [-93.991126, 45.20635], [-93.991025, 45.206047], [-93.991058, 45.20586], [-93.991279, 45.205529], [-93.991728, 45.205255], [-93.992534, 45.204893], [-93.993604, 45.204563], [-93.993853, 45.204493]]]}}, {"type": "Feature", "properties": {"depth_ft": 15.0, "lake": "Ramsey Lake", "dow": "86012000"}, "geometry": {"type": "Polygon", "coordinates": [[[-93.996524, 45.202186], [-93.996835, 45.201525], [-93.997212, 45.201184], [-93.997756, 45.200875], [-93.998352, 45.200844], [-93.99894, 45.200966], [-93.999758, 45.20133], [-94.000849, 45.20219], [-94.001128, 45.202483], [-94.00118, 45.202703], [-94.001124, 45.202914], [-94.00097, 45.203008], [-94.000687, 45.203205], [-94.000558, 45.203354], [-94.000663, 45.203851], [-94.001107, 45.204658], [-94.00162, 45.205287], [-94.001817, 45.205623], [-94.001869, 45.20588], [-94.001872, 45.206032], [-94.001768, 45.206236], [-94.001283, 45.206544], [-94.000729, 45.206963], [-94.000331, 45.207422], [-94.000182, 45.207778], [-94.000153, 45.208163], [-94.000205, 45.208407], [-94.000162, 45.208678], [-94.000034, 45.208898], [-93.999622, 45.20924], [-93.999508, 45.209553], [-93.999288, 45.20996], [-93.999043, 45.210283], [-93.998536, 45.210655], [-93.997901, 45.21126], [-93.997469, 45.211813], [-93.997229, 45.212406], [-93.99712, 45.213007], [-93.997016, 45.213227], [-93.996345, 45.21379], [-93.996121, 45.213961], [-93.995883, 45.214014], [-93.995654, 45.21394], [-93.995545, 45.21384], [-93.995519, 45.213688], [-93.99557, 45.213214], [-93.995597, 45.212729], [-93.995564, 45.21218], [-93.995439, 45.211835], [-93.995191, 45.211322], [-93.994895, 45.210809], [-93.994507, 45.210471], [-93.992988, 45.209699], [-93.992263, 45.209207], [-93.991655, 45.208629], [-93.991446, 45.208238], [-93.991405, 45.207943], [-93.991548, 45.207266], [-93.99165, 45.206962], [-93.991694, 45.206708], [-93.991643, 45.206539], [-93.991533, 45.206388], [-93.991373, 45.206153], [-93.991323, 45.206002], [-93.991378, 45.205752], [-93.991662, 45.205555], [-93.992349, 45.205262], [-93.993277, 45.204993], [-93.994238, 45.204638], [-93.994925, 45.204303], [-93.995491, 45.203867], [-93.996052, 45.203195], [-93.996524, 45.202186]]]}}, {"type": "Feature", "properties": {"depth_ft": 20.0, "lake": "Ramsey Lake", "dow": "86012000"}, "geometry": {"type": "Polygon", "coordinates": [[[-93.996993, 45.201641], [-93.997215, 45.201369], [-93.997451, 45.201215], [-93.99782, 45.201119], [-93.998141, 45.201074], [-93.998538, 45.201189], [-93.99879, 45.201305], [-93.999106, 45.201568], [-93.999313, 45.201794], [-93.999414, 45.202097], [-93.999431, 45.202427], [-93.999318, 45.202774], [-93.999203, 45.203037], [-93.999244, 45.203323], [-93.999391, 45.20355], [-93.999682, 45.203792], [-94.000152, 45.204046], [-94.00048, 45.204313], [-94.00109, 45.205085], [-94.001337, 45.20553], [-94.001366, 45.205834], [-94.001346, 45.206028], [-94.001229, 45.206198], [-94.000779, 45.206413], [-94.000401, 45.206666], [-93.999958, 45.207252], [-93.999872, 45.207827], [-93.99986, 45.208494], [-93.999723, 45.208838], [-93.999357, 45.209128], [-93.998919, 45.210002], [-93.997977, 45.210804], [-93.997415, 45.211425], [-93.997102, 45.212027], [-93.997028, 45.212543], [-93.996916, 45.212975], [-93.996647, 45.213315], [-93.996327, 45.213436], [-93.995992, 45.213422], [-93.995823, 45.213356], [-93.995736, 45.213145], [-93.995761, 45.212503], [-93.995742, 45.212132], [-93.995651, 45.211702], [-93.99539, 45.211084], [-93.995157, 45.210773], [-93.994902, 45.210548], [-93.994479, 45.210256], [-93.994022, 45.210057], [-93.993541, 45.209867], [-93.993215, 45.209684], [-93.992985, 45.209517], [-93.992786, 45.209067], [-93.992676, 45.208908], [-93.992494, 45.208782], [-93.992194, 45.208658], [-93.991916, 45.208517], [-93.991758, 45.20835], [-93.991694, 45.208114], [-93.991744, 45.207539], [-93.991959, 45.206866], [-93.991955, 45.206638], [-93.991892, 45.206427], [-93.991697, 45.206201], [-93.991527, 45.206034], [-93.991547, 45.205848], [-93.991878, 45.205617], [-93.993611, 45.205011], [-93.994632, 45.20463], [-93.995155, 45.204482], [-93.9958, 45.204481], [-93.99618, 45.204351], [-93.996284, 45.204122], [-93.99628, 45.203945], [-93.996217, 45.203726], [-93.996273, 45.203497], [-93.996465, 45.20287], [-93.996822, 45.20215], [-93.996993, 45.201641]]]}}, {"type": "Feature", "properties": {"depth_ft": 10.0, "lake": "Ramsey Lake", "dow": "86012000"}, "geometry": {"type": "Polygon", "coordinates": [[[-94.000005, 45.203152], [-94.000138, 45.20321], [-94.000151, 45.203294], [-94.000044, 45.203329], [-93.999865, 45.203297], [-93.999827, 45.203221], [-93.999886, 45.203136], [-94.000005, 45.203152]]]}}, {"type": "Feature", "properties": {"depth_ft": 15.0, "lake": "Ramsey Lake", "dow": "86012000"}, "geometry": {"type": "Polygon", "coordinates": [[[-93.999904, 45.203508], [-93.999663, 45.2034], [-93.999577, 45.203266], [-93.999538, 45.203072], [-93.999498, 45.20281], [-93.99959, 45.202624], [-93.999732, 45.202538], [-93.999899, 45.202528], [-94.000078, 45.202543], [-94.000368, 45.202701], [-94.000431, 45.202895], [-94.000434, 45.203098], [-94.000437, 45.203224], [-94.000367, 45.203335], [-94.000261, 45.20342], [-94.000095, 45.203489], [-93.999904, 45.203508]]]}}, {"type": "Feature", "properties": {"depth_ft": 50.0, "lake": "Ramsey Lake", "dow": "86012000"}, "geometry": {"type": "Polygon", "coordinates": [[[-93.99807, 45.203127], [-93.997791, 45.203551], [-93.997571, 45.204001], [-93.997414, 45.204534], [-93.997345, 45.204704], [-93.997251, 45.204781], [-93.997143, 45.204773], [-93.997093, 45.204655], [-93.997158, 45.204258], [-93.997328, 45.20375], [-93.997595, 45.203317], [-93.997875, 45.202917], [-93.997931, 45.202723], [-93.998061, 45.202629], [-93.998206, 45.202703], [-93.998209, 45.202872], [-93.99807, 45.203127]]]}}, {"type": "Feature", "properties": {"depth_ft": 40.0, "lake": "Ramsey Lake", "dow": "86012000"}, "geometry": {"type": "Polygon", "coordinates": [[[-93.998412, 45.20287], [-93.99779, 45.204227], [-93.997677, 45.204583], [-93.997739, 45.204726], [-93.997874, 45.20491], [-93.998056, 45.205069], [-93.998118, 45.205212], [-93.998109, 45.205373], [-93.998111, 45.205499], [-93.997985, 45.205766], [-93.997917, 45.205995], [-93.997957, 45.206248], [-93.99813, 45.206542], [-93.998386, 45.206844], [-93.998604, 45.207053], [-93.998642, 45.207137], [-93.998692, 45.207255], [-93.998635, 45.207416], [-93.998459, 45.207595], [-93.998091, 45.207767], [-93.997592, 45.207932], [-93.997002, 45.208304], [-93.996539, 45.208519], [-93.996196, 45.208691], [-93.995902, 45.208955], [-93.995834, 45.209184], [-93.995815, 45.209438], [-93.995868, 45.209758], [-93.996019, 45.210179], [-93.996265, 45.210561], [-93.996328, 45.210788], [-93.99638, 45.211016], [-93.996347, 45.21116], [-93.996252, 45.211211], [-93.996143, 45.211136], [-93.996105, 45.21101], [-93.996067, 45.210867], [-93.995919, 45.210606], [-93.994937, 45.20977], [-93.994757, 45.209721], [-93.994531, 45.209799], [-93.99439, 45.20991], [-93.994282, 45.20992], [-93.994065, 45.20982], [-93.993836, 45.20967], [-93.993714, 45.209545], [-93.993615, 45.209334], [-93.993683, 45.209114], [-93.993773, 45.208818], [-93.993825, 45.208387], [-93.993818, 45.207948], [-93.993915, 45.207335], [-93.993935, 45.207115], [-93.99398, 45.206979], [-93.993989, 45.206827], [-93.993939, 45.206684], [-93.993781, 45.206517], [-93.993576, 45.206417], [-93.993324, 45.206343], [-93.992917, 45.206296], [-93.992653, 45.206256], [-93.99246, 45.20614], [-93.992446, 45.205979], [-93.992563, 45.205868], [-93.992801, 45.205824], [-93.994842, 45.20573], [-93.995723, 45.205545], [-93.996399, 45.205274], [-93.996647, 45.205086], [-93.996751, 45.204899], [-93.996817, 45.204603], [-93.996818, 45.203953], [-93.996886, 45.203749], [-93.997061, 45.203494], [-93.997413, 45.203162], [-93.997612, 45.202903], [-93.997703, 45.202665], [-93.997797, 45.202555], [-93.997939, 45.202494], [-93.99813, 45.202476], [-93.998298, 45.202508], [-93.998394, 45.202541], [-93.998457, 45.202701], [-93.998412, 45.20287]]]}}, {"type": "Feature", "properties": {"depth_ft": 30.0, "lake": "Ramsey Lake", "dow": "86012000"}, "geometry": {"type": "Polygon", "coordinates": [[[-93.998773, 45.202361], [-93.998605, 45.203004], [-93.998401, 45.203639], [-93.998352, 45.204256], [-93.99841, 45.204804], [-93.99862, 45.205225], [-93.998845, 45.205776], [-93.998952, 45.20645], [-93.999143, 45.207107], [-93.999184, 45.207403], [-93.999104, 45.207623], [-93.998844, 45.207798], [-93.998631, 45.20791], [-93.998491, 45.208088], [-93.998471, 45.2083], [-93.998572, 45.208594], [-93.998588, 45.208848], [-93.998495, 45.209], [-93.998306, 45.209095], [-93.998115, 45.209139], [-93.997887, 45.209039], [-93.997655, 45.208797], [-93.997521, 45.20862], [-93.997221, 45.208539], [-93.996934, 45.208533], [-93.99659, 45.208688], [-93.996356, 45.208977], [-93.99615, 45.209452], [-93.996109, 45.209874], [-93.996233, 45.210131], [-93.996562, 45.210516], [-93.996589, 45.210693], [-93.996638, 45.211444], [-93.996675, 45.212153], [-93.996689, 45.212276], [-93.996619, 45.212378], [-93.996476, 45.212404], [-93.996296, 45.212347], [-93.996186, 45.212246], [-93.995915, 45.21175], [-93.995876, 45.211557], [-93.995943, 45.211286], [-93.995963, 45.211091], [-93.995876, 45.210873], [-93.995693, 45.210663], [-93.995234, 45.210363], [-93.994367, 45.210016], [-93.993767, 45.209835], [-93.993514, 45.209698], [-93.993319, 45.209472], [-93.99329, 45.209219], [-93.993427, 45.208838], [-93.993434, 45.208525], [-93.993287, 45.208315], [-93.992913, 45.208107], [-93.992597, 45.207815], [-93.992545, 45.20757], [-93.992626, 45.207422], [-93.992945, 45.207208], [-93.993335, 45.206951], [-93.993451, 45.20679], [-93.993424, 45.206629], [-93.993315, 45.206521], [-93.992967, 45.206439], [-93.992175, 45.206243], [-93.992005, 45.206084], [-93.992015, 45.205941], [-93.992132, 45.205822], [-93.992345, 45.205702], [-93.992643, 45.205631], [-93.993944, 45.205595], [-93.994921, 45.205451], [-93.995693, 45.205191], [-93.996131, 45.204938], [-93.996471, 45.204623], [-93.996621, 45.204275], [-93.99667, 45.203684], [-93.996835, 45.202846], [-93.996994, 45.20241], [-93.997226, 45.202028], [-93.997544, 45.201772], [-93.997948, 45.201633], [-93.998307, 45.201638], [-93.998487, 45.201687], [-93.998718, 45.201939], [-93.998718, 45.201964], [-93.998773, 45.202361]]]}}, {"type": "Feature", "properties": {"depth_ft": 15.0, "lake": "Ramsey Lake", "dow": "86012000"}, "geometry": {"type": "Polygon", "coordinates": [[[-93.995755, 45.204667], [-93.995887, 45.204657], [-93.995983, 45.20469], [-93.995937, 45.2048], [-93.995699, 45.20487], [-93.995544, 45.204888], [-93.995448, 45.204855], [-93.995435, 45.204779], [-93.995589, 45.204702], [-93.995755, 45.204667]]]}}, {"type": "Feature", "properties": {"depth_ft": 20.0, "lake": "Ramsey Lake", "dow": "86012000"}, "geometry": {"type": "Polygon", "coordinates": [[[-93.995254, 45.204697], [-93.995575, 45.204609], [-93.995813, 45.204565], [-93.99616, 45.204596], [-93.996198, 45.204672], [-93.996103, 45.204757], [-93.995867, 45.204886], [-93.994478, 45.205404], [-93.994217, 45.205466], [-93.994156, 45.205424], [-93.994155, 45.205348], [-93.994284, 45.205237], [-93.994663, 45.205023], [-93.995254, 45.204697]]]}}, {"type": "Feature", "properties": {"depth_ft": 60.0, "lake": "Ramsey Lake", "dow": "86012000"}, "geometry": {"type": "Polygon", "coordinates": [[[-93.996717, 45.207749], [-93.996816, 45.207225], [-93.996822, 45.206921], [-93.996731, 45.206516], [-93.996523, 45.206206], [-93.996435, 45.205936], [-93.996396, 45.205784], [-93.996502, 45.205708], [-93.996634, 45.205732], [-93.996708, 45.205832], [-93.99703, 45.206488], [-93.997142, 45.206758], [-93.997208, 45.207154], [-93.997166, 45.207467], [-93.997006, 45.207899], [-93.996901, 45.208043], [-93.996782, 45.20807], [-93.996697, 45.207986], [-93.996717, 45.207749]]]}}, {"type": "Feature", "properties": {"depth_ft": 50.0, "lake": "Ramsey Lake", "dow": "86012000"}, "geometry": {"type": "Polygon", "coordinates": [[[-93.996402, 45.206806], [-93.996419, 45.206434], [-93.996369, 45.206266], [-93.996272, 45.206191], [-93.996129, 45.206201], [-93.995938, 45.206236], [-93.995761, 45.206364], [-93.995575, 45.206649], [-93.995416, 45.207123], [-93.995297, 45.207859], [-93.995182, 45.208096], [-93.994832, 45.208564], [-93.994508, 45.209166], [-93.994396, 45.209623], [-93.994316, 45.209801], [-93.994208, 45.209802], [-93.99416, 45.209752], [-93.994098, 45.209659], [-93.994033, 45.209331], [-93.994071, 45.208794], [-93.994142, 45.208025], [-93.99424, 45.207501], [-93.994242, 45.206926], [-93.994106, 45.20664], [-93.993995, 45.206489], [-93.993814, 45.206373], [-93.993634, 45.206324], [-93.993227, 45.206251], [-93.993071, 45.20621], [-93.992985, 45.206093], [-93.993223, 45.20604], [-93.994106, 45.205982], [-93.995061, 45.205914], [-93.995501, 45.205826], [-93.995976, 45.205695], [-93.996201, 45.205567], [-93.996343, 45.205464], [-93.996473, 45.205421], [-93.996652, 45.205411], [-93.996785, 45.205494], [-93.996825, 45.205705], [-93.996914, 45.205999], [-93.997169, 45.206251], [-93.997822, 45.206688], [-93.997955, 45.206797], [-93.99803, 45.206999], [-93.998022, 45.207227], [-93.99786, 45.207499], [-93.997199, 45.207994], [-93.996074, 45.20857], [-93.995767, 45.208767], [-93.995675, 45.208936], [-93.995596, 45.209207], [-93.995577, 45.209478], [-93.995665, 45.20973], [-93.995678, 45.209806], [-93.995547, 45.209841], [-93.995428, 45.209842], [-93.995355, 45.209767], [-93.995242, 45.209472], [-93.995142, 45.209211], [-93.995172, 45.208869], [-93.9953, 45.208707], [-93.995757, 45.208154], [-93.996072, 45.207755], [-93.996232, 45.207348], [-93.996402, 45.206806]]]}}, {"type": "Feature", "properties": {"depth_ft": 15.0, "lake": "Ramsey Lake", "dow": "86012000"}, "geometry": {"type": "Polygon", "coordinates": [[[-93.995856, 45.203602], [-93.995963, 45.203534], [-93.99601, 45.203491], [-93.996059, 45.203558], [-93.995993, 45.203922], [-93.995856, 45.204244], [-93.995607, 45.204373], [-93.995451, 45.204332], [-93.995353, 45.204206], [-93.995423, 45.204096], [-93.995587, 45.203934], [-93.995856, 45.203602]]]}}]}