{
  "type": "FeatureCollection",
  "features": [
    {
      "type": "Feature",
      "properties": {
        "lake": "South Center Lake",
        "depth_ft": 6.0,
        "color": "#a5d7f5",
        "weight": 1,
        "fill_opacity": 0.5,
        "line_opacity": 0.8
      },
      "geometry": {
        "type": "Polygon",
        "coordinates": [
          [
            [
              -93.9302802,
              45.3816835
            ],
            [
              -93.9305459,
              45.3822877
            ],
            [
              -93.9308747,
              45.3828737
            ],
            [
              -93.9312635,
              45.3834359
            ],
            [
              -93.9317084,
              45.3839689
            ],
            [
              -93.9322053,
              45.3844675
            ],
            [
              -93.9327493,
              45.3849269
            ],
            [
              -93.9333353,
              45.3853427
            ],
            [
              -93.9339575,
              45.3857109
            ],
            [
              -93.9346099,
              45.386028
            ],
            [
              -93.9352863,
              45.3862909
            ],
            [
              -93.9359802,
              45.386497
            ],
            [
              -93.9366849,
              45.3866444
            ],
            [
              -93.9373936,
              45.3867317
            ],
            [
              -93.9380994,
              45.386758
            ],
            [
              -93.9387957,
              45.3867231
            ],
            [
              -93.9394756,
              45.3866273
            ],
            [
              -93.9401326,
              45.3864715
            ],
            [
              -93.9407604,
              45.3862572
            ],
            [
              -93.941353,
              45.3859865
            ],
            [
              -93.9419046,
              45.3856621
            ],
            [
              -93.9424099,
              45.3852869
            ],
            [
              -93.9428641,
              45.3848647
            ],
            [
              -93.9432628,
              45.3843995
            ],
            [
              -93.9436021,
              45.3838957
            ],
            [
              -93.9438788,
              45.3833583
            ],
            [
              -93.9440902,
              45.3827925
            ],
            [
              -93.9442344,
              45.3822035
            ],
            [
              -93.9443098,
              45.3815972
            ],
            [
              -93.9443157,
              45.3809794
            ],
            [
              -93.9442522,
              45.380356
            ],
            [
              -93.9441198,
              45.379733
            ],
            [
              -93.9439198,
              45.3791165
            ],
            [
              -93.9436541,
              45.3785123
            ],
            [
              -93.9433253,
              45.3779263
            ],
            [
              -93.9429365,
              45.3773641
            ],
            [
              -93.9424916,
              45.3768311
            ],
            [
              -93.9419947,
              45.3763325
            ],
            [
              -93.9414507,
              45.3758731
            ],
            [
              -93.9408647,
              45.3754573
            ],
            [
              -93.9402425,
              45.3750891
            ],
            [
              -93.9395901,
              45.374772
            ],
            [
              -93.9389137,
              45.3745091
            ],
            [
              -93.9382198,
              45.374303
            ],
            [
              -93.9375151,
              45.3741556
            ],
            [
              -93.9368064,
              45.3740683
            ],
            [
              -93.9361006,
              45.374042
            ],
            [
              -93.9354043,
              45.3740769
            ],
            [
              -93.9347244,
              45.3741727
            ],
            [
              -93.9340674,
              45.3743285
            ],
            [
              -93.9334396,
              45.3745428
            ],
            [
              -93.932847,
              45.3748135
            ],
            [
              -93.9322954,
              45.3751379
            ],
            [
              -93.9317901,
              45.3755131
            ],
            [
              -93.9313359,
              45.3759353
            ],
            [
              -93.9309372,
              45.3764005
            ],
            [
              -93.9305979,
              45.3769043
            ],
            [
              -93.9303212,
              45.3774417
            ],
            [
              -93.9301098,
              45.3780075
            ],
            [
              -93.9299656,
              45.3785965
            ],
            [
              -93.9298902,
              45.3792028
            ],
            [
              -93.9298843,
              45.3798206
            ],
            [
              -93.9299478,
              45.380444
            ],
            [
              -93.9300802,
              45.381067
            ],
            [
              -93.9302802,
              45.3816835
            ]
          ]
        ]
      }
    },
    {
      "type": "Feature",
      "properties": {
        "lake": "South Center Lake",
        "depth_ft": 12.0,
        "color": "#84c6f2",
        "weight": 1,
        "fill_opacity": 0.5,
        "line_opacity": 0.8
      },
      "geometry": {
        "type": "Polygon",
        "coordinates": [
          [
            [
              -93.9310299,
              45.3815424
            ],
            [
              -93.9312664,
              45.3820802
            ],
            [
              -93.931559,
              45.3826018
            ],
            [
              -93.931905,
              45.3831022
            ],
            [
              -93.9323011,
              45.3835766
            ],
            [
              -93.9327434,
              45.3840204
            ],
            [
              -93.9332276,
              45.3844293
            ],
            [
              -93.9337491,
              45.3847994
            ],
            [
              -93.9343029,
              45.3851271
            ],
            [
              -93.9348836,
              45.3854093
            ],
            [
              -93.9354857,
              45.3856433
            ],
            [
              -93.9361033,
              45.3858268
            ],
            [
              -93.9367305,
              45.385958
            ],
            [
              -93.9373613,
              45.3860357
            ],
            [
              -93.9379896,
              45.3860591
            ],
            [
              -93.9386093,
              45.386028
            ],
            [
              -93.9392144,
              45.3859427
            ],
            [
              -93.9397992,
              45.3858041
            ],
            [
              -93.940358,
              45.3856133
            ],
            [
              -93.9408855,
              45.3853724
            ],
            [
              -93.9413764,
              45.3850836
            ],
            [
              -93.9418262,
              45.3847497
            ],
            [
              -93.9422305,
              45.3843739
            ],
            [
              -93.9425853,
              45.3839598
            ],
            [
              -93.9428874,
              45.3835115
            ],
            [
              -93.9431337,
              45.3830332
            ],
            [
              -93.9433218,
              45.3825295
            ],
            [
              -93.9434501,
              45.3820053
            ],
            [
              -93.9435172,
              45.3814656
            ],
            [
              -93.9435225,
              45.3809157
            ],
            [
              -93.943466,
              45.3803608
            ],
            [
              -93.9433482,
              45.3798063
            ],
            [
              -93.9431701,
              45.3792576
            ],
            [
              -93.9429336,
              45.3787198
            ],
            [
              -93.942641,
              45.3781982
            ],
            [
              -93.942295,
              45.3776978
            ],
            [
              -93.9418989,
              45.3772234
            ],
            [
              -93.9414566,
              45.3767796
            ],
            [
              -93.9409724,
              45.3763707
            ],
            [
              -93.9404509,
              45.3760006
            ],
            [
              -93.9398971,
              45.3756729
            ],
            [
              -93.9393164,
              45.3753907
            ],
            [
              -93.9387143,
              45.3751567
            ],
            [
              -93.9380967,
              45.3749732
            ],
            [
              -93.9374695,
              45.374842
            ],
            [
              -93.9368387,
              45.3747643
            ],
            [
              -93.9362104,
              45.3747409
            ],
            [
              -93.9355907,
              45.374772
            ],
            [
              -93.9349856,
              45.3748573
            ],
            [
              -93.9344008,
              45.3749959
            ],
            [
              -93.933842,
              45.3751867
            ],
            [
              -93.9333145,
              45.3754276
            ],
            [
              -93.9328236,
              45.3757164
            ],
            [
              -93.9323738,
              45.3760503
            ],
            [
              -93.9319695,
              45.3764261
            ],
            [
              -93.9316147,
              45.3768402
            ],
            [
              -93.9313126,
              45.3772885
            ],
            [
              -93.9310663,
              45.3777668
            ],
            [
              -93.9308782,
              45.3782705
            ],
            [
              -93.9307499,
              45.3787947
            ],
            [
              -93.9306828,
              45.3793344
            ],
            [
              -93.9306775,
              45.3798843
            ],
            [
              -93.930734,
              45.3804392
            ],
            [
              -93.9308518,
              45.3809937
            ],
            [
              -93.9310299,
              45.3815424
            ]
          ]
        ]
      }
    },
    {
      "type": "Feature",
      "properties": {
        "lake": "South Center Lake",
        "depth_ft": 18.0,
        "color": "#68b6ed",
        "weight": 1,
        "fill_opacity": 0.5,
        "line_opacity": 0.8
      },
      "geometry": {
        "type": "Polygon",
        "coordinates": [
          [
            [
              -93.9317126,
              45.3814139
            ],
            [
              -93.9319225,
              45.3818912
            ],
            [
              -93.9321822,
              45.3823542
            ],
            [
              -93.9324893,
              45.3827983
            ],
            [
              -93.9328408,
              45.3832193
            ],
            [
              -93.9332334,
              45.3836132
            ],
            [
              -93.9336631,
              45.3839761
            ],
            [
              -93.934126,
              45.3843046
            ],
            [
              -93.9346175,
              45.3845955
            ],
            [
              -93.9351329,
              45.3848459
            ],
            [
              -93.9356673,
              45.3850536
            ],
            [
              -93.9362154,
              45.3852164
            ],
            [
              -93.9367721,
              45.3853329
            ],
            [
              -93.9373319,
              45.3854018
            ],
            [
              -93.9378895,
              45.3854226
            ],
            [
              -93.9384395,
              45.385395
            ],
            [
              -93.9389766,
              45.3853193
            ],
            [
              -93.9394956,
              45.3851963
            ],
            [
              -93.9399916,
              45.385027
            ],
            [
              -93.9404597,
              45.3848132
            ],
            [
              -93.9408955,
              45.3845569
            ],
            [
              -93.9412946,
              45.3842605
            ],
            [
              -93.9416534,
              45.383927
            ],
            [
              -93.9419684,
              45.3835595
            ],
            [
              -93.9422365,
              45.3831615
            ],
            [
              -93.9424551,
              45.382737
            ],
            [
              -93.9426221,
              45.38229
            ],
            [
              -93.9427359,
              45.3818247
            ],
            [
              -93.9427955,
              45.3813458
            ],
            [
              -93.9428002,
              45.3808577
            ],
            [
              -93.94275,
              45.3803652
            ],
            [
              -93.9426454,
              45.3798731
            ],
            [
              -93.9424874,
              45.3793861
            ],
            [
              -93.9422775,
              45.3789088
            ],
            [
              -93.9420178,
              45.3784458
            ],
            [
              -93.9417107,
              45.3780017
            ],
            [
              -93.9413592,
              45.3775807
            ],
            [
              -93.9409666,
              45.3771868
            ],
            [
              -93.9405369,
              45.3768239
            ],
            [
              -93.940074,
              45.3764954
            ],
            [
              -93.9395825,
              45.3762045
            ],
            [
              -93.9390671,
              45.3759541
            ],
            [
              -93.9385327,
              45.3757464
            ],
            [
              -93.9379846,
              45.3755836
            ],
            [
              -93.9374279,
              45.3754671
            ],
            [
              -93.9368681,
              45.3753982
            ],
            [
              -93.9363105,
              45.3753774
            ],
            [
              -93.9357605,
              45.375405
            ],
            [
              -93.9352234,
              45.3754807
            ],
            [
              -93.9347044,
              45.3756037
            ],
            [
              -93.9342084,
              45.375773
            ],
            [
              -93.9337403,
              45.3759868
            ],
            [
              -93.9333045,
              45.3762431
            ],
            [
              -93.9329054,
              45.3765395
            ],
            [
              -93.9325466,
              45.376873
            ],
            [
              -93.9322316,
              45.3772405
            ],
            [
              -93.9319635,
              45.3776385
            ],
            [
              -93.9317449,
              45.378063
            ],
            [
              -93.9315779,
              45.37851
            ],
            [
              -93.9314641,
              45.3789753
            ],
            [
              -93.9314045,
              45.3794542
            ],
            [
              -93.9313998,
              45.3799423
            ],
            [
              -93.93145,
              45.3804348
            ],
            [
              -93.9315546,
              45.3809269
            ],
            [
              -93.9317126,
              45.3814139
            ]
          ]
        ]
      }
    },
    {
      "type": "Feature",
      "properties": {
        "lake": "South Center Lake",
        "depth_ft": 24.0,
        "color": "#52a6e7",
        "weight": 1,
        "fill_opacity": 0.5,
        "line_opacity": 0.8
      },
      "geometry": {
        "type": "Polygon",
        "coordinates": [
          [
            [
              -93.9323883,
              45.3812868
            ],
            [
              -93.9325719,
              45.3817042
            ],
            [
              -93.932799,
              45.3821091
            ],
            [
              -93.9330676,
              45.3824975
            ],
            [
              -93.933375,
              45.3828657
            ],
            [
              -93.9337183,
              45.3832102
            ],
            [
              -93.9340942,
              45.3835276
            ],
            [
              -93.934499,
              45.3838148
            ],
            [
              -93.9349289,
              45.3840692
            ],
            [
              -93.9353796,
              45.3842883
            ],
            [
              -93.935847,
              45.3844699
            ],
            [
              -93.9363264,
              45.3846123
            ],
            [
              -93.9368132,
              45.3847142
            ],
            [
              -93.9373028,
              45.3847745
            ],
            [
              -93.9377905,
              45.3847926
            ],
            [
              -93.9382715,
              45.3847685
            ],
            [
              -93.9387412,
              45.3847023
            ],
            [
              -93.9391952,
              45.3845947
            ],
            [
              -93.9396289,
              45.3844466
            ],
            [
              -93.9400383,
              45.3842596
            ],
            [
              -93.9404194,
              45.3840355
            ],
            [
              -93.9407685,
              45.3837763
            ],
            [
              -93.9410823,
              45.3834846
            ],
            [
              -93.9413578,
              45.3831632
            ],
            [
              -93.9415922,
              45.3828152
            ],
            [
              -93.9417834,
              45.3824439
            ],
            [
              -93.9419294,
              45.3820529
            ],
            [
              -93.942029,
              45.381646
            ],
            [
              -93.9420811,
              45.3812272
            ],
            [
              -93.9420852,
              45.3808003
            ],
            [
              -93.9420413,
              45.3803696
            ],
            [
              -93.9419499,
              45.3799392
            ],
            [
              -93.9418117,
              45.3795132
            ],
            [
              -93.9416281,
              45.3790958
            ],
            [
              -93.941401,
              45.3786909
            ],
            [
              -93.9411324,
              45.3783025
            ],
            [
              -93.940825,
              45.3779343
            ],
            [
              -93.9404817,
              45.3775898
            ],
            [
              -93.9401058,
              45.3772724
            ],
            [
              -93.939701,
              45.3769852
            ],
            [
              -93.9392711,
              45.3767308
            ],
            [
              -93.9388204,
              45.3765117
            ],
            [
              -93.938353,
              45.3763301
            ],
            [
              -93.9378736,
              45.3761877
            ],
            [
              -93.9373868,
              45.3760858
            ],
            [
              -93.9368972,
              45.3760255
            ],
            [
              -93.9364095,
              45.3760074
            ],
            [
              -93.9359285,
              45.3760315
            ],
            [
              -93.9354588,
              45.3760977
            ],
            [
              -93.9350048,
              45.3762053
            ],
            [
              -93.9345711,
              45.3763534
            ],
            [
              -93.9341617,
              45.3765404
            ],
            [
              -93.9337806,
              45.3767645
            ],
            [
              -93.9334315,
              45.3770237
            ],
            [
              -93.9331177,
              45.3773154
            ],
            [
              -93.9328422,
              45.3776368
            ],
            [
              -93.9326078,
              45.3779848
            ],
            [
              -93.9324166,
              45.3783561
            ],
            [
              -93.9322706,
              45.3787471
            ],
            [
              -93.932171,
              45.379154
            ],
            [
              -93.9321189,
              45.3795728
            ],
            [
              -93.9321148,
              45.3799997
            ],
            [
              -93.9321587,
              45.3804304
            ],
            [
              -93.9322501,
              45.3808608
            ],
            [
              -93.9323883,
              45.3812868
            ]
          ]
        ]
      }
    },
    {
      "type": "Feature",
      "properties": {
        "lake": "South Center Lake",
        "depth_ft": 30.0,
        "color": "#3f93da",
        "weight": 1,
        "fill_opacity": 0.5,
        "line_opacity": 0.8
      },
      "geometry": {
        "type": "Polygon",
        "coordinates": [
          [
            [
              -93.9330959,
              45.3811536
            ],
            [
              -93.9332519,
              45.3815083
            ],
            [
              -93.9334449,
              45.3818524
            ],
            [
              -93.9336732,
              45.3821825
            ],
            [
              -93.9339344,
              45.3824954
            ],
            [
              -93.9342262,
              45.3827881
            ],
            [
              -93.9345456,
              45.3830579
            ],
            [
              -93.9348896,
              45.383302
            ],
            [
              -93.9352549,
              45.3835182
            ],
            [
              -93.935638,
              45.3837044
            ],
            [
              -93.9360351,
              45.3838587
            ],
            [
              -93.9364425,
              45.3839797
            ],
            [
              -93.9368563,
              45.3840663
            ],
            [
              -93.9372724,
              45.3841175
            ],
            [
              -93.9376868,
              45.384133
            ],
            [
              -93.9380956,
              45.3841125
            ],
            [
              -93.9384948,
              45.3840562
            ],
            [
              -93.9388805,
              45.3839648
            ],
            [
              -93.9392491,
              45.3838389
            ],
            [
              -93.939597,
              45.38368
            ],
            [
              -93.9399209,
              45.3834895
            ],
            [
              -93.9402176,
              45.3832693
            ],
            [
              -93.9404843,
              45.3830214
            ],
            [
              -93.9407184,
              45.3827482
            ],
            [
              -93.9409176,
              45.3824525
            ],
            [
              -93.9410801,
              45.3821369
            ],
            [
              -93.9412042,
              45.3818047
            ],
            [
              -93.9412888,
              45.3814589
            ],
            [
              -93.9413331,
              45.3811029
            ],
            [
              -93.9413366,
              45.3807402
            ],
            [
              -93.9412993,
              45.3803742
            ],
            [
              -93.9412215,
              45.3800084
            ],
            [
              -93.9411041,
              45.3796464
            ],
            [
              -93.9409481,
              45.3792917
            ],
            [
              -93.9407551,
              45.3789476
            ],
            [
              -93.9405268,
              45.3786175
            ],
            [
              -93.9402656,
              45.3783046
            ],
            [
              -93.9399738,
              45.3780119
            ],
            [
              -93.9396544,
              45.3777421
            ],
            [
              -93.9393104,
              45.377498
            ],
            [
              -93.9389451,
              45.3772818
            ],
            [
              -93.938562,
              45.3770956
            ],
            [
              -93.9381649,
              45.3769413
            ],
            [
              -93.9377575,
              45.3768203
            ],
            [
              -93.9373437,
              45.3767337
            ],
            [
              -93.9369276,
              45.3766825
            ],
            [
              -93.9365132,
              45.376667
            ],
            [
              -93.9361044,
              45.3766875
            ],
            [
              -93.9357052,
              45.3767438
            ],
            [
              -93.9353195,
              45.3768352
            ],
            [
              -93.9349509,
              45.3769611
            ],
            [
              -93.934603,
              45.37712
            ],
            [
              -93.9342791,
              45.3773105
            ],
            [
              -93.9339824,
              45.3775307
            ],
            [
              -93.9337157,
              45.3777786
            ],
            [
              -93.9334816,
              45.3780518
            ],
            [
              -93.9332824,
              45.3783475
            ],
            [
              -93.9331199,
              45.3786631
            ],
            [
              -93.9329958,
              45.3789953
            ],
            [
              -93.9329112,
              45.3793411
            ],
            [
              -93.9328669,
              45.3796971
            ],
            [
              -93.9328634,
              45.3800598
            ],
            [
              -93.9329007,
              45.3804258
            ],
            [
              -93.9329785,
              45.3807916
            ],
            [
              -93.9330959,
              45.3811536
            ]
          ]
        ]
      }
    },
    {
      "type": "Feature",
      "properties": {
        "lake": "South Center Lake",
        "depth_ft": 36.0,
        "color": "#3077bc",
        "weight": 1,
        "fill_opacity": 0.5,
        "line_opacity": 0.8
      },
      "geometry": {
        "type": "Polygon",
        "coordinates": [
          [
            [
              -93.9338838,
              45.3810053
            ],
            [
              -93.9340091,
              45.3812902
            ],
            [
              -93.9341642,
              45.3815666
            ],
            [
              -93.9343475,
              45.3818317
            ],
            [
              -93.9345574,
              45.3820831
            ],
            [
              -93.9347917,
              45.3823182
            ],
            [
              -93.9350483,
              45.3825349
            ],
            [
              -93.9353246,
              45.382731
            ],
            [
              -93.935618,
              45.3829046
            ],
            [
              -93.9359257,
              45.3830541
            ],
            [
              -93.9362447,
              45.3831781
            ],
            [
              -93.9365719,
              45.3832753
            ],
            [
              -93.9369042,
              45.3833448
            ],
            [
              -93.9372385,
              45.383386
            ],
            [
              -93.9375713,
              45.3833984
            ],
            [
              -93.9378997,
              45.3833819
            ],
            [
              -93.9382203,
              45.3833367
            ],
            [
              -93.9385302,
              45.3832633
            ],
            [
              -93.9388262,
              45.3831622
            ],
            [
              -93.9391057,
              45.3830346
            ],
            [
              -93.9393658,
              45.3828816
            ],
            [
              -93.9396041,
              45.3827046
            ],
            [
              -93.9398183,
              45.3825055
            ],
            [
              -93.9400063,
              45.3822861
            ],
            [
              -93.9401664,
              45.3820486
            ],
            [
              -93.9402969,
              45.3817951
            ],
            [
              -93.9403966,
              45.3815283
            ],
            [
              -93.9404645,
              45.3812505
            ],
            [
              -93.9405001,
              45.3809646
            ],
            [
              -93.9405029,
              45.3806732
            ],
            [
              -93.9404729,
              45.3803793
            ],
            [
              -93.9404105,
              45.3800855
            ],
            [
              -93.9403162,
              45.3797947
            ],
            [
              -93.9401909,
              45.3795098
            ],
            [
              -93.9400358,
              45.3792334
            ],
            [
              -93.9398525,
              45.3789683
            ],
            [
              -93.9396426,
              45.3787169
            ],
            [
              -93.9394083,
              45.3784818
            ],
            [
              -93.9391517,
              45.3782651
            ],
            [
              -93.9388754,
              45.378069
            ],
            [
              -93.938582,
              45.3778954
            ],
            [
              -93.9382743,
              45.3777459
            ],
            [
              -93.9379553,
              45.3776219
            ],
            [
              -93.9376281,
              45.3775247
            ],
            [
              -93.9372958,
              45.3774552
            ],
            [
              -93.9369615,
              45.377414
            ],
            [
              -93.9366287,
              45.3774016
            ],
            [
              -93.9363003,
              45.3774181
            ],
            [
              -93.9359797,
              45.3774633
            ],
            [
              -93.9356698,
              45.3775367
            ],
            [
              -93.9353738,
              45.3776378
            ],
            [
              -93.9350943,
              45.3777654
            ],
            [
              -93.9348342,
              45.3779184
            ],
            [
              -93.9345959,
              45.3780954
            ],
            [
              -93.9343817,
              45.3782945
            ],
            [
              -93.9341937,
              45.3785139
            ],
            [
              -93.9340336,
              45.3787514
            ],
            [
              -93.9339031,
              45.3790049
            ],
            [
              -93.9338034,
              45.3792717
            ],
            [
              -93.9337355,
              45.3795495
            ],
            [
              -93.9336999,
              45.3798354
            ],
            [
              -93.9336971,
              45.3801268
            ],
            [
              -93.9337271,
              45.3804207
            ],
            [
              -93.9337895,
              45.3807145
            ],
            [
              -93.9338838,
              45.3810053
            ]
          ]
        ]
      }
    },
    {
      "type": "Feature",
      "properties": {
        "lake": "South Center Lake",
        "depth_ft": 42.0,
        "color": "#245790",
        "weight": 1,
        "fill_opacity": 0.5,
        "line_opacity": 0.8
      },
      "geometry": {
        "type": "Polygon",
        "coordinates": [
          [
            [
              -93.9348587,
              45.3808218
            ],
            [
              -93.934946,
              45.3810204
            ],
            [
              -93.935054,
              45.381213
            ],
            [
              -93.9351818,
              45.3813978
            ],
            [
              -93.9353281,
              45.3815729
            ],
            [
              -93.9354914,
              45.3817368
            ],
            [
              -93.9356702,
              45.3818878
            ],
            [
              -93.9358627,
              45.3820244
            ],
            [
              -93.9360672,
              45.3821454
            ],
            [
              -93.9362816,
              45.3822496
            ],
            [
              -93.9365039,
              45.382336
            ],
            [
              -93.936732,
              45.3824038
            ],
            [
              -93.9369636,
              45.3824522
            ],
            [
              -93.9371965,
              45.3824809
            ],
            [
              -93.9374285,
              45.3824896
            ],
            [
              -93.9376573,
              45.3824781
            ],
            [
              -93.9378807,
              45.3824466
            ],
            [
              -93.9380967,
              45.3823954
            ],
            [
              -93.938303,
              45.382325
            ],
            [
              -93.9384977,
              45.382236
            ],
            [
              -93.938679,
              45.3821294
            ],
            [
              -93.9388451,
              45.3820061
            ],
            [
              -93.9389944,
              45.3818673
            ],
            [
              -93.9391254,
              45.3817144
            ],
            [
              -93.9392369,
              45.3815489
            ],
            [
              -93.9393279,
              45.3813723
            ],
            [
              -93.9393974,
              45.3811863
            ],
            [
              -93.9394447,
              45.3809927
            ],
            [
              -93.9394695,
              45.3807935
            ],
            [
              -93.9394715,
              45.3805904
            ],
            [
              -93.9394506,
              45.3803855
            ],
            [
              -93.9394071,
              45.3801808
            ],
            [
              -93.9393413,
              45.3799782
            ],
            [
              -93.939254,
              45.3797796
            ],
            [
              -93.939146,
              45.379587
            ],
            [
              -93.9390182,
              45.3794022
            ],
            [
              -93.9388719,
              45.3792271
            ],
            [
              -93.9387086,
              45.3790632
            ],
            [
              -93.9385298,
              45.3789122
            ],
            [
              -93.9383373,
              45.3787756
            ],
            [
              -93.9381328,
              45.3786546
            ],
            [
              -93.9379184,
              45.3785504
            ],
            [
              -93.9376961,
              45.378464
            ],
            [
              -93.937468,
              45.3783962
            ],
            [
              -93.9372364,
              45.3783478
            ],
            [
              -93.9370035,
              45.3783191
            ],
            [
              -93.9367715,
              45.3783104
            ],
            [
              -93.9365427,
              45.3783219
            ],
            [
              -93.9363193,
              45.3783534
            ],
            [
              -93.9361033,
              45.3784046
            ],
            [
              -93.935897,
              45.378475
            ],
            [
              -93.9357023,
              45.378564
            ],
            [
              -93.935521,
              45.3786706
            ],
            [
              -93.9353549,
              45.3787939
            ],
            [
              -93.9352056,
              45.3789327
            ],
            [
              -93.9350746,
              45.3790856
            ],
            [
              -93.9349631,
              45.3792511
            ],
            [
              -93.9348721,
              45.3794277
            ],
            [
              -93.9348026,
              45.3796137
            ],
            [
              -93.9347553,
              45.3798073
            ],
            [
              -93.9347305,
              45.3800065
            ],
            [
              -93.9347285,
              45.3802096
            ],
            [
              -93.9347494,
              45.3804145
            ],
            [
              -93.9347929,
              45.3806192
            ],
            [
              -93.9348587,
              45.3808218
            ]
          ]
        ]
      }
    }
  ]
}