{
  "type": "FeatureCollection",
  "features": [
    {
      "type": "Feature",
      "properties": {
        "lake": "Twin Lake",
        "depth_ft": 3.2,
        "color": "#a5d7f5",
        "weight": 1,
        "fill_opacity": 0.5,
        "line_opacity": 0.8
      },
      "geometry": {
        "type": "Polygon",
        "coordinates": [
          [
            [
              -94.1963616,
              45.3360167
            ],
            [
              -94.1971915,
              45.3362044
            ],
            [
              -94.1980359,
              45.3363468
            ],
            [
              -94.1988868,
              45.3364426
            ],
            [
              -94.1997358,
              45.3364907
            ],
            [
              -94.2005749,
              45.3364908
            ],
            [
              -94.2013959,
              45.3364428
            ],
            [
              -94.202191,
              45.3363472
            ],
            [
              -94.2029524,
              45.3362049
            ],
            [
              -94.2036729,
              45.3360174
            ],
            [
              -94.2043455,
              45.3357863
            ],
            [
              -94.2049637,
              45.3355139
            ],
            [
              -94.2055216,
              45.3352029
            ],
            [
              -94.2060138,
              45.3348562
            ],
            [
              -94.2064356,
              45.3344772
            ],
            [
              -94.2067829,
              45.3340695
            ],
            [
              -94.2070523,
              45.3336371
            ],
            [
              -94.2072413,
              45.3331841
            ],
            [
              -94.207348,
              45.3327149
            ],
            [
              -94.2073715,
              45.332234
            ],
            [
              -94.2073114,
              45.331746
            ],
            [
              -94.2071684,
              45.3312556
            ],
            [
              -94.2069438,
              45.3307676
            ],
            [
              -94.2066399,
              45.3302867
            ],
            [
              -94.2062595,
              45.3298174
            ],
            [
              -94.2058063,
              45.3293643
            ],
            [
              -94.2052846,
              45.3289318
            ],
            [
              -94.2046996,
              45.3285241
            ],
            [
              -94.2040567,
              45.328145
            ],
            [
              -94.2033623,
              45.3277982
            ],
            [
              -94.202623,
              45.327487
            ],
            [
              -94.2018459,
              45.3272145
            ],
            [
              -94.2010384,
              45.3269833
            ],
            [
              -94.2002085,
              45.3267956
            ],
            [
              -94.1993641,
              45.3266532
            ],
            [
              -94.1985132,
              45.3265574
            ],
            [
              -94.1976642,
              45.3265093
            ],
            [
              -94.1968251,
              45.3265092
            ],
            [
              -94.1960041,
              45.3265572
            ],
            [
              -94.195209,
              45.3266528
            ],
            [
              -94.1944476,
              45.3267951
            ],
            [
              -94.1937271,
              45.3269826
            ],
            [
              -94.1930545,
              45.3272137
            ],
            [
              -94.1924363,
              45.3274861
            ],
            [
              -94.1918784,
              45.3277971
            ],
            [
              -94.1913862,
              45.3281438
            ],
            [
              -94.1909644,
              45.3285228
            ],
            [
              -94.1906171,
              45.3289305
            ],
            [
              -94.1903477,
              45.3293629
            ],
            [
              -94.1901587,
              45.3298159
            ],
            [
              -94.190052,
              45.3302851
            ],
            [
              -94.1900285,
              45.330766
            ],
            [
              -94.1900886,
              45.331254
            ],
            [
              -94.1902316,
              45.3317444
            ],
            [
              -94.1904562,
              45.3322324
            ],
            [
              -94.1907601,
              45.3327133
            ],
            [
              -94.1911405,
              45.3331826
            ],
            [
              -94.1915937,
              45.3336357
            ],
            [
              -94.1921154,
              45.3340682
            ],
            [
              -94.1927004,
              45.3344759
            ],
            [
              -94.1933433,
              45.334855
            ],
            [
              -94.1940377,
              45.3352018
            ],
            [
              -94.194777,
              45.335513
            ],
            [
              -94.1955541,
              45.3357855
            ],
            [
              -94.1963616,
              45.3360167
            ]
          ]
        ]
      }
    },
    {
      "type": "Feature",
      "properties": {
        "lake": "Twin Lake",
        "depth_ft": 6.5,
        "color": "#84c6f2",
        "weight": 1,
        "fill_opacity": 0.5,
        "line_opacity": 0.8
      },
      "geometry": {
        "type": "Polygon",
        "coordinates": [
          [
            [
              -94.1966186,
              45.3355202
            ],
            [
              -94.1973573,
              45.3356873
            ],
            [
              -94.1981089,
              45.335814
            ],
            [
              -94.1988663,
              45.3358993
            ],
            [
              -94.199622,
              45.3359421
            ],
            [
              -94.2003688,
              45.3359422
            ],
            [
              -94.2010996,
              45.3358995
            ],
            [
              -94.2018072,
              45.3358144
            ],
            [
              -94.202485,
              45.3356878
            ],
            [
              -94.2031263,
              45.3355208
            ],
            [
              -94.2037249,
              45.3353151
            ],
            [
              -94.2042752,
              45.3350727
            ],
            [
              -94.2047718,
              45.3347959
            ],
            [
              -94.2052099,
              45.3344873
            ],
            [
              -94.2055853,
              45.3341499
            ],
            [
              -94.2058944,
              45.3337871
            ],
            [
              -94.2061342,
              45.3334022
            ],
            [
              -94.2063024,
              45.332999
            ],
            [
              -94.2063974,
              45.3325813
            ],
            [
              -94.2064182,
              45.3321533
            ],
            [
              -94.2063648,
              45.3317189
            ],
            [
              -94.2062375,
              45.3312825
            ],
            [
              -94.2060376,
              45.3308481
            ],
            [
              -94.2057671,
              45.33042
            ],
            [
              -94.2054285,
              45.3300024
            ],
            [
              -94.2050251,
              45.3295991
            ],
            [
              -94.2045608,
              45.3292141
            ],
            [
              -94.2040401,
              45.3288512
            ],
            [
              -94.2034679,
              45.3285138
            ],
            [
              -94.2028498,
              45.3282051
            ],
            [
              -94.2021917,
              45.3279282
            ],
            [
              -94.2015,
              45.3276856
            ],
            [
              -94.2007814,
              45.3274798
            ],
            [
              -94.2000427,
              45.3273127
            ],
            [
              -94.1992911,
              45.327186
            ],
            [
              -94.1985337,
              45.3271007
            ],
            [
              -94.197778,
              45.3270579
            ],
            [
              -94.1970312,
              45.3270578
            ],
            [
              -94.1963004,
              45.3271005
            ],
            [
              -94.1955928,
              45.3271856
            ],
            [
              -94.194915,
              45.3273122
            ],
            [
              -94.1942737,
              45.3274792
            ],
            [
              -94.1936751,
              45.3276849
            ],
            [
              -94.1931248,
              45.3279273
            ],
            [
              -94.1926282,
              45.3282041
            ],
            [
              -94.1921901,
              45.3285127
            ],
            [
              -94.1918147,
              45.3288501
            ],
            [
              -94.1915056,
              45.3292129
            ],
            [
              -94.1912658,
              45.3295978
            ],
            [
              -94.1910976,
              45.330001
            ],
            [
              -94.1910026,
              45.3304187
            ],
            [
              -94.1909818,
              45.3308467
            ],
            [
              -94.1910352,
              45.3312811
            ],
            [
              -94.1911625,
              45.3317175
            ],
            [
              -94.1913624,
              45.3321519
            ],
            [
              -94.1916329,
              45.33258
            ],
            [
              -94.1919715,
              45.3329976
            ],
            [
              -94.1923749,
              45.3334009
            ],
            [
              -94.1928392,
              45.3337859
            ],
            [
              -94.1933599,
              45.3341488
            ],
            [
              -94.1939321,
              45.3344862
            ],
            [
              -94.1945502,
              45.3347949
            ],
            [
              -94.1952083,
              45.3350718
            ],
            [
              -94.1959,
              45.3353144
            ],
            [
              -94.1966186,
              45.3355202
            ]
          ]
        ]
      }
    },
    {
      "type": "Feature",
      "properties": {
        "lake": "Twin Lake",
        "depth_ft": 9.8,
        "color": "#68b6ed",
        "weight": 1,
        "fill_opacity": 0.5,
        "line_opacity": 0.8
      },
      "geometry": {
        "type": "Polygon",
        "coordinates": [
          [
            [
              -94.1968527,
              45.335068
            ],
            [
              -94.1975083,
              45.3352163
            ],
            [
              -94.1981754,
              45.3353288
            ],
            [
              -94.1988476,
              45.3354045
            ],
            [
              -94.1995183,
              45.3354425
            ],
            [
              -94.2001811,
              45.3354426
            ],
            [
              -94.2008297,
              45.3354047
            ],
            [
              -94.2014578,
              45.3353291
            ],
            [
              -94.2020593,
              45.3352168
            ],
            [
              -94.2026284,
              45.3350686
            ],
            [
              -94.2031598,
              45.334886
            ],
            [
              -94.2036481,
              45.3346709
            ],
            [
              -94.2040889,
              45.3344252
            ],
            [
              -94.2044777,
              45.3341513
            ],
            [
              -94.2048109,
              45.3338519
            ],
            [
              -94.2050852,
              45.3335299
            ],
            [
              -94.205298,
              45.3331883
            ],
            [
              -94.2054473,
              45.3328304
            ],
            [
              -94.2055317,
              45.3324597
            ],
            [
              -94.2055502,
              45.3320798
            ],
            [
              -94.2055027,
              45.3316943
            ],
            [
              -94.2053898,
              45.3313069
            ],
            [
              -94.2052124,
              45.3309214
            ],
            [
              -94.2049723,
              45.3305415
            ],
            [
              -94.2046718,
              45.3301708
            ],
            [
              -94.2043137,
              45.3298129
            ],
            [
              -94.2039016,
              45.3294712
            ],
            [
              -94.2034395,
              45.3291491
            ],
            [
              -94.2029316,
              45.3288496
            ],
            [
              -94.2023831,
              45.3285757
            ],
            [
              -94.201799,
              45.3283299
            ],
            [
              -94.2011851,
              45.3281146
            ],
            [
              -94.2005473,
              45.327932
            ],
            [
              -94.1998917,
              45.3277837
            ],
            [
              -94.1992246,
              45.3276712
            ],
            [
              -94.1985524,
              45.3275955
            ],
            [
              -94.1978817,
              45.3275575
            ],
            [
              -94.1972189,
              45.3275574
            ],
            [
              -94.1965703,
              45.3275953
            ],
            [
              -94.1959422,
              45.3276709
            ],
            [
              -94.1953407,
              45.3277832
            ],
            [
              -94.1947716,
              45.3279314
            ],
            [
              -94.1942402,
              45.328114
            ],
            [
              -94.1937519,
              45.3283291
            ],
            [
              -94.1933111,
              45.3285748
            ],
            [
              -94.1929223,
              45.3288487
            ],
            [
              -94.1925891,
              45.3291481
            ],
            [
              -94.1923148,
              45.3294701
            ],
            [
              -94.192102,
              45.3298117
            ],
            [
              -94.1919527,
              45.3301696
            ],
            [
              -94.1918683,
              45.3305403
            ],
            [
              -94.1918498,
              45.3309202
            ],
            [
              -94.1918973,
              45.3313057
            ],
            [
              -94.1920102,
              45.3316931
            ],
            [
              -94.1921876,
              45.3320786
            ],
            [
              -94.1924277,
              45.3324585
            ],
            [
              -94.1927282,
              45.3328292
            ],
            [
              -94.1930863,
              45.3331871
            ],
            [
              -94.1934984,
              45.3335288
            ],
            [
              -94.1939605,
              45.3338509
            ],
            [
              -94.1944684,
              45.3341504
            ],
            [
              -94.1950169,
              45.3344243
            ],
            [
              -94.195601,
              45.3346701
            ],
            [
              -94.1962149,
              45.3348854
            ],
            [
              -94.1968527,
              45.335068
            ]
          ]
        ]
      }
    },
    {
      "type": "Feature",
      "properties": {
        "lake": "Twin Lake",
        "depth_ft": 13.0,
        "color": "#52a6e7",
        "weight": 1,
        "fill_opacity": 0.5,
        "line_opacity": 0.8
      },
      "geometry": {
        "type": "Polygon",
        "coordinates": [
          [
            [
              -94.1970844,
              45.3346205
            ],
            [
              -94.1976578,
              45.3347502
            ],
            [
              -94.1982412,
              45.3348486
            ],
            [
              -94.198829,
              45.3349147
            ],
            [
              -94.1994156,
              45.334948
            ],
            [
              -94.1999953,
              45.3349481
            ],
            [
              -94.2005626,
              45.3349149
            ],
            [
              -94.2011119,
              45.3348489
            ],
            [
              -94.2016379,
              45.3347506
            ],
            [
              -94.2021357,
              45.334621
            ],
            [
              -94.2026004,
              45.3344613
            ],
            [
              -94.2030275,
              45.3342732
            ],
            [
              -94.2034129,
              45.3340583
            ],
            [
              -94.203753,
              45.3338188
            ],
            [
              -94.2040444,
              45.3335569
            ],
            [
              -94.2042843,
              45.3332753
            ],
            [
              -94.2044705,
              45.3329765
            ],
            [
              -94.204601,
              45.3326635
            ],
            [
              -94.2046748,
              45.3323394
            ],
            [
              -94.204691,
              45.3320071
            ],
            [
              -94.2046495,
              45.3316699
            ],
            [
              -94.2045507,
              45.3313312
            ],
            [
              -94.2043955,
              45.330994
            ],
            [
              -94.2041855,
              45.3306617
            ],
            [
              -94.2039227,
              45.3303375
            ],
            [
              -94.2036096,
              45.3300245
            ],
            [
              -94.2032492,
              45.3297257
            ],
            [
              -94.202845,
              45.329444
            ],
            [
              -94.2024009,
              45.3291821
            ],
            [
              -94.2019211,
              45.3289425
            ],
            [
              -94.2014103,
              45.3287275
            ],
            [
              -94.2008734,
              45.3285392
            ],
            [
              -94.2003156,
              45.3283795
            ],
            [
              -94.1997422,
              45.3282498
            ],
            [
              -94.1991588,
              45.3281514
            ],
            [
              -94.198571,
              45.3280853
            ],
            [
              -94.1979844,
              45.328052
            ],
            [
              -94.1974047,
              45.3280519
            ],
            [
              -94.1968374,
              45.3280851
            ],
            [
              -94.1962881,
              45.3281511
            ],
            [
              -94.1957621,
              45.3282494
            ],
            [
              -94.1952643,
              45.328379
            ],
            [
              -94.1947996,
              45.3285387
            ],
            [
              -94.1943725,
              45.3287268
            ],
            [
              -94.1939871,
              45.3289417
            ],
            [
              -94.193647,
              45.3291812
            ],
            [
              -94.1933556,
              45.3294431
            ],
            [
              -94.1931157,
              45.3297247
            ],
            [
              -94.1929295,
              45.3300235
            ],
            [
              -94.192799,
              45.3303365
            ],
            [
              -94.1927252,
              45.3306606
            ],
            [
              -94.192709,
              45.3309929
            ],
            [
              -94.1927505,
              45.3313301
            ],
            [
              -94.1928493,
              45.3316688
            ],
            [
              -94.1930045,
              45.332006
            ],
            [
              -94.1932145,
              45.3323383
            ],
            [
              -94.1934773,
              45.3326625
            ],
            [
              -94.1937904,
              45.3329755
            ],
            [
              -94.1941508,
              45.3332743
            ],
            [
              -94.194555,
              45.333556
            ],
            [
              -94.1949991,
              45.3338179
            ],
            [
              -94.1954789,
              45.3340575
            ],
            [
              -94.1959897,
              45.3342725
            ],
            [
              -94.1965266,
              45.3344608
            ],
            [
              -94.1970844,
              45.3346205
            ]
          ]
        ]
      }
    },
    {
      "type": "Feature",
      "properties": {
        "lake": "Twin Lake",
        "depth_ft": 16.2,
        "color": "#3f93da",
        "weight": 1,
        "fill_opacity": 0.5,
        "line_opacity": 0.8
      },
      "geometry": {
        "type": "Polygon",
        "coordinates": [
          [
            [
              -94.197327,
              45.3341519
            ],
            [
              -94.1978143,
              45.3342621
            ],
            [
              -94.1983101,
              45.3343457
            ],
            [
              -94.1988097,
              45.3344019
            ],
            [
              -94.1993082,
              45.3344302
            ],
            [
              -94.1998008,
              45.3344303
            ],
            [
              -94.2002829,
              45.3344021
            ],
            [
              -94.2007497,
              45.334346
            ],
            [
              -94.2011967,
              45.3342624
            ],
            [
              -94.2016198,
              45.3341523
            ],
            [
              -94.2020147,
              45.3340166
            ],
            [
              -94.2023776,
              45.3338567
            ],
            [
              -94.2027052,
              45.3336741
            ],
            [
              -94.2029942,
              45.3334705
            ],
            [
              -94.2032418,
              45.333248
            ],
            [
              -94.2034457,
              45.3330087
            ],
            [
              -94.2036039,
              45.3327548
            ],
            [
              -94.2037149,
              45.3324888
            ],
            [
              -94.2037775,
              45.3322133
            ],
            [
              -94.2037913,
              45.3319309
            ],
            [
              -94.203756,
              45.3316444
            ],
            [
              -94.2036721,
              45.3313565
            ],
            [
              -94.2035402,
              45.33107
            ],
            [
              -94.2033618,
              45.3307876
            ],
            [
              -94.2031384,
              45.3305121
            ],
            [
              -94.2028723,
              45.3302461
            ],
            [
              -94.202566,
              45.3299921
            ],
            [
              -94.2022225,
              45.3297527
            ],
            [
              -94.2018451,
              45.3295302
            ],
            [
              -94.2014374,
              45.3293265
            ],
            [
              -94.2010033,
              45.3291439
            ],
            [
              -94.200547,
              45.3289839
            ],
            [
              -94.200073,
              45.3288481
            ],
            [
              -94.1995857,
              45.3287379
            ],
            [
              -94.1990899,
              45.3286543
            ],
            [
              -94.1985903,
              45.3285981
            ],
            [
              -94.1980918,
              45.3285698
            ],
            [
              -94.1975992,
              45.3285697
            ],
            [
              -94.1971171,
              45.3285979
            ],
            [
              -94.1966503,
              45.328654
            ],
            [
              -94.1962033,
              45.3287376
            ],
            [
              -94.1957802,
              45.3288477
            ],
            [
              -94.1953853,
              45.3289834
            ],
            [
              -94.1950224,
              45.3291433
            ],
            [
              -94.1946948,
              45.3293259
            ],
            [
              -94.1944058,
              45.3295295
            ],
            [
              -94.1941582,
              45.329752
            ],
            [
              -94.1939543,
              45.3299913
            ],
            [
              -94.1937961,
              45.3302452
            ],
            [
              -94.1936851,
              45.3305112
            ],
            [
              -94.1936225,
              45.3307867
            ],
            [
              -94.1936087,
              45.3310691
            ],
            [
              -94.193644,
              45.3313556
            ],
            [
              -94.1937279,
              45.3316435
            ],
            [
              -94.1938598,
              45.33193
            ],
            [
              -94.1940382,
              45.3322124
            ],
            [
              -94.1942616,
              45.3324879
            ],
            [
              -94.1945277,
              45.3327539
            ],
            [
              -94.194834,
              45.3330079
            ],
            [
              -94.1951775,
              45.3332473
            ],
            [
              -94.1955549,
              45.3334698
            ],
            [
              -94.1959626,
              45.3336735
            ],
            [
              -94.1963967,
              45.3338561
            ],
            [
              -94.196853,
              45.3340161
            ],
            [
              -94.197327,
              45.3341519
            ]
          ]
        ]
      }
    },
    {
      "type": "Feature",
      "properties": {
        "lake": "Twin Lake",
        "depth_ft": 19.5,
        "color": "#3077bc",
        "weight": 1,
        "fill_opacity": 0.5,
        "line_opacity": 0.8
      },
      "geometry": {
        "type": "Polygon",
        "coordinates": [
          [
            [
              -94.1975972,
              45.33363
            ],
            [
              -94.1979886,
              45.3337186
            ],
            [
              -94.1983868,
              45.3337857
            ],
            [
              -94.1987881,
              45.3338309
            ],
            [
              -94.1991885,
              45.3338536
            ],
            [
              -94.1995842,
              45.3338536
            ],
            [
              -94.1999714,
              45.333831
            ],
            [
              -94.2003463,
              45.3337859
            ],
            [
              -94.2007054,
              45.3337188
            ],
            [
              -94.2010452,
              45.3336304
            ],
            [
              -94.2013624,
              45.3335214
            ],
            [
              -94.2016539,
              45.3333929
            ],
            [
              -94.201917,
              45.3332463
            ],
            [
              -94.2021492,
              45.3330828
            ],
            [
              -94.2023481,
              45.332904
            ],
            [
              -94.2025118,
              45.3327118
            ],
            [
              -94.2026389,
              45.3325079
            ],
            [
              -94.202728,
              45.3322942
            ],
            [
              -94.2027784,
              45.3320729
            ],
            [
              -94.2027894,
              45.3318461
            ],
            [
              -94.2027611,
              45.331616
            ],
            [
              -94.2026937,
              45.3313848
            ],
            [
              -94.2025878,
              45.3311546
            ],
            [
              -94.2024444,
              45.3309278
            ],
            [
              -94.202265,
              45.3307065
            ],
            [
              -94.2020513,
              45.3304928
            ],
            [
              -94.2018053,
              45.3302889
            ],
            [
              -94.2015294,
              45.3300966
            ],
            [
              -94.2012262,
              45.3299178
            ],
            [
              -94.2008987,
              45.3297542
            ],
            [
              -94.20055,
              45.3296075
            ],
            [
              -94.2001836,
              45.329479
            ],
            [
              -94.1998028,
              45.32937
            ],
            [
              -94.1994114,
              45.3292814
            ],
            [
              -94.1990132,
              45.3292143
            ],
            [
              -94.1986119,
              45.3291691
            ],
            [
              -94.1982115,
              45.3291464
            ],
            [
              -94.1978158,
              45.3291464
            ],
            [
              -94.1974286,
              45.329169
            ],
            [
              -94.1970537,
              45.3292141
            ],
            [
              -94.1966946,
              45.3292812
            ],
            [
              -94.1963548,
              45.3293696
            ],
            [
              -94.1960376,
              45.3294786
            ],
            [
              -94.1957461,
              45.3296071
            ],
            [
              -94.195483,
              45.3297537
            ],
            [
              -94.1952508,
              45.3299172
            ],
            [
              -94.1950519,
              45.330096
            ],
            [
              -94.1948882,
              45.3302882
            ],
            [
              -94.1947611,
              45.3304921
            ],
            [
              -94.194672,
              45.3307058
            ],
            [
              -94.1946216,
              45.3309271
            ],
            [
              -94.1946106,
              45.3311539
            ],
            [
              -94.1946389,
              45.331384
            ],
            [
              -94.1947063,
              45.3316152
            ],
            [
              -94.1948122,
              45.3318454
            ],
            [
              -94.1949556,
              45.3320722
            ],
            [
              -94.195135,
              45.3322935
            ],
            [
              -94.1953487,
              45.3325072
            ],
            [
              -94.1955947,
              45.3327111
            ],
            [
              -94.1958706,
              45.3329034
            ],
            [
              -94.1961738,
              45.3330822
            ],
            [
              -94.1965013,
              45.3332458
            ],
            [
              -94.19685,
              45.3333925
            ],
            [
              -94.1972164,
              45.333521
            ],
            [
              -94.1975972,
              45.33363
            ]
          ]
        ]
      }
    },
    {
      "type": "Feature",
      "properties": {
        "lake": "Twin Lake",
        "depth_ft": 22.8,
        "color": "#245790",
        "weight": 1,
        "fill_opacity": 0.5,
        "line_opacity": 0.8
      },
      "geometry": {
        "type": "Polygon",
        "coordinates": [
          [
            [
              -94.1979315,
              45.3329844
            ],
            [
              -94.1982042,
              45.3330461
            ],
            [
              -94.1984818,
              45.3330929
            ],
            [
              -94.1987614,
              45.3331244
            ],
            [
              -94.1990404,
              45.3331402
            ],
            [
              -94.1993162,
              45.3331402
            ],
            [
              -94.199586,
              45.3331245
            ],
            [
              -94.1998473,
              45.333093
            ],
            [
              -94.2000976,
              45.3330463
            ],
            [
              -94.2003344,
              45.3329846
            ],
            [
              -94.2005554,
              45.3329087
            ],
            [
              -94.2007586,
              45.3328192
            ],
            [
              -94.2009419,
              45.332717
            ],
            [
              -94.2011037,
              45.332603
            ],
            [
              -94.2012423,
              45.3324785
            ],
            [
              -94.2013564,
              45.3323445
            ],
            [
              -94.201445,
              45.3322024
            ],
            [
              -94.2015071,
              45.3320535
            ],
            [
              -94.2015422,
              45.3318993
            ],
            [
              -94.2015499,
              45.3317412
            ],
            [
              -94.2015301,
              45.3315808
            ],
            [
              -94.2014831,
              45.3314197
            ],
            [
              -94.2014093,
              45.3312593
            ],
            [
              -94.2013095,
              45.3311012
            ],
            [
              -94.2011844,
              45.330947
            ],
            [
              -94.2010355,
              45.3307981
            ],
            [
              -94.200864,
              45.330656
            ],
            [
              -94.2006718,
              45.330522
            ],
            [
              -94.2004605,
              45.3303974
            ],
            [
              -94.2002323,
              45.3302834
            ],
            [
              -94.1999893,
              45.3301811
            ],
            [
              -94.1997339,
              45.3300916
            ],
            [
              -94.1994685,
              45.3300156
            ],
            [
              -94.1991958,
              45.3299539
            ],
            [
              -94.1989182,
              45.3299071
            ],
            [
              -94.1986386,
              45.3298756
            ],
            [
              -94.1983596,
              45.3298598
            ],
            [
              -94.1980838,
              45.3298598
            ],
            [
              -94.197814,
              45.3298755
            ],
            [
              -94.1975527,
              45.329907
            ],
            [
              -94.1973024,
              45.3299537
            ],
            [
              -94.1970656,
              45.3300154
            ],
            [
              -94.1968446,
              45.3300913
            ],
            [
              -94.1966414,
              45.3301808
            ],
            [
              -94.1964581,
              45.330283
            ],
            [
              -94.1962963,
              45.330397
            ],
            [
              -94.1961577,
              45.3305215
            ],
            [
              -94.1960436,
              45.3306555
            ],
            [
              -94.195955,
              45.3307976
            ],
            [
              -94.1958929,
              45.3309465
            ],
            [
              -94.1958578,
              45.3311007
            ],
            [
              -94.1958501,
              45.3312588
            ],
            [
              -94.1958699,
              45.3314192
            ],
            [
              -94.1959169,
              45.3315803
            ],
            [
              -94.1959907,
              45.3317407
            ],
            [
              -94.1960905,
              45.3318988
            ],
            [
              -94.1962156,
              45.332053
            ],
            [
              -94.1963645,
              45.3322019
            ],
            [
              -94.196536,
              45.332344
            ],
            [
              -94.1967282,
              45.332478
            ],
            [
              -94.1969395,
              45.3326026
            ],
            [
              -94.1971677,
              45.3327166
            ],
            [
              -94.1974107,
              45.3328189
            ],
            [
              -94.1976661,
              45.3329084
            ],
            [
              -94.1979315,
              45.3329844
            ]
          ]
        ]
      }
    }
  ]
}