{"type": "FeatureCollection", "features": [{"type": "Feature", "properties": {"depth_ft": 0.0, "lake": "Waverly Lake", "dow": "86011400"}, "geometry": {"type": "Polygon", "coordinates": [[[-93.9612, 45.078122], [-93.960987, 45.078028], [-93.960559, 45.077705], [-93.960169, 45.077368], [-93.959777, 45.076936], [-93.959434, 45.076503], [-93.959215, 45.076082], [-93.95911, 45.075552], [-93.958946, 45.074941], [-93.958877, 45.074233], [-93.958866, 45.073593], [-93.959007, 45.072843], [-93.95908, 45.072584], [-93.959263, 45.072038], [-93.959694, 45.07138], [-93.959955, 45.070888], [-93.960427, 45.070407], [-93.960902, 45.07009], [-93.961702, 45.069661], [-93.962179, 45.069453], [-93.962639, 45.069367], [-93.963023, 45.069351], [-93.96356, 45.069278], [-93.964192, 45.069191], [-93.964559, 45.069269], [-93.964831, 45.069444], [-93.964929, 45.069566], [-93.965011, 45.069851], [-93.965033, 45.070014], [-93.965034, 45.070123], [-93.965133, 45.070259], [-93.965057, 45.070327], [-93.964943, 45.07041], [-93.965003, 45.070546], [-93.96491, 45.07071], [-93.964699, 45.070739], [-93.964487, 45.0707], [-93.9641, 45.070567], [-93.963869, 45.070501], [-93.963829, 45.07042], [-93.963731, 45.070311], [-93.963559, 45.070354], [-93.963503, 45.070477], [-93.96362, 45.070571], [-93.964026, 45.070717], [-93.964547, 45.070822], [-93.965125, 45.070912], [-93.965625, 45.070935], [-93.965972, 45.071041], [-93.966318, 45.071052], [-93.96697, 45.070938], [-93.967515, 45.070797], [-93.968108, 45.070615], [-93.968622, 45.070352], [-93.969176, 45.070116], [-93.969747, 45.069797], [-93.970337, 45.069479], [-93.971347, 45.068994], [-93.972186, 45.068606], [-93.972742, 45.068478], [-93.973354, 45.068337], [-93.974082, 45.068222], [-93.974562, 45.068204], [-93.975121, 45.068267], [-93.97543, 45.068346], [-93.975719, 45.068412], [-93.976203, 45.068599], [-93.976706, 45.068812], [-93.977247, 45.068971], [-93.977653, 45.069158], [-93.977963, 45.069278], [-93.978175, 45.069317], [-93.978345, 45.069152], [-93.978594, 45.069096], [-93.978881, 45.069025], [-93.979267, 45.069103], [-93.979653, 45.069236], [-93.980218, 45.069654], [-93.980587, 45.069882], [-93.981131, 45.070231], [-93.981888, 45.070688], [-93.982316, 45.071011], [-93.982704, 45.071185], [-93.982896, 45.07121], [-93.983224, 45.071275], [-93.983495, 45.071355], [-93.983765, 45.071434], [-93.983825, 45.07157], [-93.983904, 45.071678], [-93.984138, 45.071908], [-93.984364, 45.072192], [-93.984445, 45.072409], [-93.984528, 45.072789], [-93.984609, 45.073034], [-93.984672, 45.073333], [-93.984755, 45.073686], [-93.984758, 45.07389], [-93.984665, 45.074055], [-93.984591, 45.074205], [-93.984573, 45.074287], [-93.984689, 45.074313], [-93.984634, 45.07445], [-93.98444, 45.07437], [-93.98438, 45.074234], [-93.98432, 45.074099], [-93.984244, 45.074126], [-93.984189, 45.07429], [-93.984191, 45.074399], [-93.984308, 45.074494], [-93.984329, 45.074602], [-93.984312, 45.074766], [-93.984239, 45.074971], [-93.984202, 45.075053], [-93.98409, 45.075258], [-93.983863, 45.075464], [-93.983655, 45.07567], [-93.983351, 45.07585], [-93.982932, 45.076071], [-93.982627, 45.076265], [-93.98177, 45.076708], [-93.981027, 45.077082], [-93.980646, 45.077303], [-93.980284, 45.07747], [-93.979998, 45.077595], [-93.979244, 45.077901], [-93.978977, 45.078012], [-93.978728, 45.078096], [-93.978326, 45.078181], [-93.978096, 45.078224], [-93.97783, 45.078376], [-93.97762, 45.078473], [-93.977238, 45.078599], [-93.976817, 45.078725], [-93.976263, 45.078893], [-93.975688, 45.079007], [-93.975076, 45.079216], [-93.974674, 45.079315], [-93.974313, 45.079522], [-93.973912, 45.079703], [-93.973646, 45.079855], [-93.973343, 45.08013], [-93.973116, 45.080363], [-93.972831, 45.08057], [-93.972508, 45.080763], [-93.972148, 45.081066], [-93.97198, 45.081367], [-93.971847, 45.081491], [-93.971774, 45.081668], [-93.971834, 45.081831], [-93.971913, 45.081967], [-93.971858, 45.08209], [-93.971668, 45.082241], [-93.971364, 45.082462], [-93.971135, 45.082518], [-93.970654, 45.082509], [-93.970209, 45.082363], [-93.969976, 45.082215], [-93.969916, 45.082066], [-93.969891, 45.081725], [-93.969983, 45.081479], [-93.97009, 45.081015], [-93.970124, 45.080716], [-93.970155, 45.08028], [-93.970167, 45.079844], [-93.970237, 45.079462], [-93.970212, 45.079135], [-93.970092, 45.078837], [-93.969897, 45.078689], [-93.969551, 45.078678], [-93.969196, 45.078708], [-93.968794, 45.078793], [-93.968392, 45.078892], [-93.96799, 45.079004], [-93.967436, 45.079213], [-93.966766, 45.079355], [-93.966247, 45.079346], [-93.965151, 45.079301], [-93.964497, 45.079306], [-93.963899, 45.079175], [-93.963281, 45.079017], [-93.962606, 45.078846], [-93.96218, 45.078686], [-93.961618, 45.078377], [-93.961113, 45.078096], [-93.9612, 45.078122]]]}}, {"type": "Feature", "properties": {"depth_ft": 70.0, "lake": "Waverly Lake", "dow": "86011400"}, "geometry": {"type": "Polygon", "coordinates": [[[-93.977667, 45.072965], [-93.97768, 45.073213], [-93.977634, 45.07333], [-93.977509, 45.073407], [-93.977412, 45.073415], [-93.977286, 45.073402], [-93.977168, 45.073327], [-93.977088, 45.073204], [-93.977076, 45.073046], [-93.977103, 45.072922], [-93.977169, 45.072825], [-93.977294, 45.072769], [-93.97744, 45.072754], [-93.977547, 45.072774], [-93.977596, 45.072808], [-93.977667, 45.072965]]]}}, {"type": "Feature", "properties": {"depth_ft": 50.0, "lake": "Waverly Lake", "dow": "86011400"}, "geometry": {"type": "Polygon", "coordinates": [[[-93.975467, 45.072681], [-93.975342, 45.072765], [-93.975207, 45.072794], [-93.975099, 45.072747], [-93.975021, 45.072713], [-93.97503, 45.072671], [-93.975058, 45.072623], [-93.975125, 45.072561], [-93.975251, 45.072546], [-93.975378, 45.072552], [-93.975436, 45.072592], [-93.975476, 45.072613], [-93.975467, 45.072681]]]}}, {"type": "Feature", "properties": {"depth_ft": 60.0, "lake": "Waverly Lake", "dow": "86011400"}, "geometry": {"type": "Polygon", "coordinates": [[[-93.978695, 45.072895], [-93.978312, 45.073221], [-93.977987, 45.073548], [-93.977556, 45.073888], [-93.977307, 45.07409], [-93.977201, 45.074167], [-93.977107, 45.074333], [-93.977015, 45.074629], [-93.976949, 45.07474], [-93.976873, 45.074844], [-93.976748, 45.074934], [-93.976526, 45.074977], [-93.976273, 45.074987], [-93.975964, 45.075051], [-93.975655, 45.075178], [-93.975442, 45.075173], [-93.975362, 45.075077], [-93.975504, 45.074869], [-93.975705, 45.074689], [-93.975993, 45.07448], [-93.976185, 45.074368], [-93.976456, 45.074283], [-93.976562, 45.074234], [-93.976657, 45.07413], [-93.976674, 45.073958], [-93.976603, 45.073264], [-93.976644, 45.072782], [-93.976729, 45.072629], [-93.976824, 45.072532], [-93.977076, 45.072475], [-93.977804, 45.072469], [-93.978358, 45.072519], [-93.978582, 45.072545], [-93.978718, 45.072578], [-93.978778, 45.072639], [-93.978798, 45.072722], [-93.978771, 45.072805], [-93.978695, 45.072895]]]}}, {"type": "Feature", "properties": {"depth_ft": 5.0, "lake": "Waverly Lake", "dow": "86011400"}, "geometry": {"type": "Polygon", "coordinates": [[[-93.976951, 45.06918], [-93.977127, 45.069248], [-93.977294, 45.069336], [-93.977442, 45.069465], [-93.977736, 45.069621], [-93.978058, 45.069742], [-93.978644, 45.069909], [-93.979111, 45.070001], [-93.979432, 45.070026], [-93.979617, 45.070018], [-93.979772, 45.070044], [-93.979978, 45.070118], [-93.980688, 45.070483], [-93.981365, 45.070904], [-93.981543, 45.071088], [-93.981849, 45.071368], [-93.982134, 45.071592], [-93.98233, 45.071701], [-93.982555, 45.071788], [-93.982788, 45.071793], [-93.983051, 45.071832], [-93.983265, 45.071878], [-93.983403, 45.071953], [-93.98391, 45.072403], [-93.984168, 45.072724], [-93.984367, 45.073534], [-93.984372, 45.073809], [-93.984239, 45.07401], [-93.984059, 45.074252], [-93.983931, 45.074474], [-93.983799, 45.074674], [-93.983579, 45.074876], [-93.983416, 45.075008], [-93.983321, 45.075139], [-93.983152, 45.075457], [-93.983038, 45.075596], [-93.982846, 45.075735], [-93.982538, 45.075875], [-93.98209, 45.07612], [-93.981745, 45.076364], [-93.981215, 45.076637], [-93.980598, 45.076897], [-93.979913, 45.077136], [-93.978704, 45.077443], [-93.978236, 45.077619], [-93.977135, 45.077979], [-93.976352, 45.078172], [-93.975908, 45.078327], [-93.975541, 45.078474], [-93.975118, 45.078691], [-93.974426, 45.079103], [-93.973833, 45.079397], [-93.973535, 45.079558], [-93.973373, 45.079725], [-93.973057, 45.080009], [-93.972538, 45.080316], [-93.972019, 45.080658], [-93.971426, 45.081159], [-93.971073, 45.081547], [-93.970891, 45.0817], [-93.970707, 45.081763], [-93.970571, 45.081751], [-93.970415, 45.081704], [-93.970335, 45.081574], [-93.97034, 45.081278], [-93.97046, 45.080891], [-93.970504, 45.08065], [-93.97048, 45.080066], [-93.970453, 45.079653], [-93.970493, 45.07915], [-93.970594, 45.078812], [-93.970725, 45.078481], [-93.970723, 45.078364], [-93.970701, 45.078227], [-93.970631, 45.07811], [-93.970494, 45.078063], [-93.970261, 45.078058], [-93.970087, 45.07808], [-93.969932, 45.078144], [-93.96974, 45.078276], [-93.969615, 45.078353], [-93.969441, 45.078396], [-93.969146, 45.078426], [-93.968923, 45.078476], [-93.968614, 45.078588], [-93.968459, 45.078624], [-93.968353, 45.078625], [-93.968227, 45.07866], [-93.968024, 45.078731], [-93.967822, 45.078829], [-93.967676, 45.07883], [-93.96751, 45.078784], [-93.967345, 45.078785], [-93.967172, 45.078855], [-93.966921, 45.07894], [-93.966649, 45.078942], [-93.965503, 45.078931], [-93.964671, 45.078863], [-93.96431, 45.078776], [-93.964008, 45.07871], [-93.963415, 45.078639], [-93.963072, 45.078477], [-93.962788, 45.078328], [-93.962388, 45.078214], [-93.961859, 45.077978], [-93.960874, 45.077395], [-93.96055, 45.077212], [-93.960321, 45.076869], [-93.960162, 45.076678], [-93.959907, 45.076474], [-93.959788, 45.076337], [-93.959707, 45.076152], [-93.959573, 45.075396], [-93.959398, 45.074785], [-93.95931, 45.074181], [-93.95932, 45.073314], [-93.959436, 45.072714], [-93.959803, 45.071713], [-93.96003, 45.071381], [-93.960393, 45.071048], [-93.961008, 45.07065], [-93.961432, 45.07044], [-93.961807, 45.070231], [-93.962067, 45.07007], [-93.962279, 45.069986], [-93.962434, 45.069964], [-93.962676, 45.069948], [-93.962928, 45.069905], [-93.963083, 45.069904], [-93.96322, 45.069971], [-93.963365, 45.070197], [-93.963436, 45.070375], [-93.96342, 45.070575], [-93.963471, 45.070698], [-93.96356, 45.070794], [-93.963794, 45.070902], [-93.964549, 45.071329], [-93.96494, 45.071484], [-93.9653, 45.071529], [-93.965746, 45.071491], [-93.966048, 45.071516], [-93.966427, 45.071561], [-93.966728, 45.071552], [-93.967674, 45.071213], [-93.968084, 45.071052], [-93.968605, 45.070861], [-93.968807, 45.070736], [-93.969219, 45.07043], [-93.969884, 45.070094], [-93.970433, 45.069848], [-93.970934, 45.069603], [-93.971371, 45.069345], [-93.971862, 45.069114], [-93.97274, 45.068776], [-93.973706, 45.068492], [-93.974162, 45.068447], [-93.975096, 45.068556], [-93.975563, 45.068642], [-93.975876, 45.068742], [-93.976316, 45.068924], [-93.976951, 45.06918]]]}}, {"type": "Feature", "properties": {"depth_ft": 10.0, "lake": "Waverly Lake", "dow": "86011400"}, "geometry": {"type": "Polygon", "coordinates": [[[-93.981472, 45.071749], [-93.981702, 45.071871], [-93.982016, 45.072041], [-93.982525, 45.072291], [-93.982749, 45.072364], [-93.983334, 45.072497], [-93.983648, 45.072687], [-93.984037, 45.073282], [-93.984119, 45.073522], [-93.984127, 45.073701], [-93.984082, 45.073929], [-93.98394, 45.074143], [-93.983635, 45.074455], [-93.98332, 45.074782], [-93.983141, 45.075079], [-93.982961, 45.075349], [-93.982741, 45.075564], [-93.982227, 45.075906], [-93.98166, 45.076199], [-93.981168, 45.07641], [-93.980221, 45.076687], [-93.979389, 45.07688], [-93.978622, 45.077148], [-93.978013, 45.077325], [-93.97751, 45.077453], [-93.976796, 45.0777], [-93.976342, 45.077869], [-93.975898, 45.078024], [-93.975117, 45.078347], [-93.974476, 45.078662], [-93.974025, 45.078941], [-93.973439, 45.079311], [-93.972965, 45.079467], [-93.972346, 45.079582], [-93.972015, 45.079564], [-93.971791, 45.079525], [-93.971635, 45.079478], [-93.971349, 45.079219], [-93.971309, 45.079157], [-93.97123, 45.079096], [-93.971113, 45.079028], [-93.970975, 45.078899], [-93.970888, 45.078693], [-93.970812, 45.078212], [-93.9707, 45.077903], [-93.970601, 45.07776], [-93.970532, 45.077691], [-93.970414, 45.077637], [-93.970297, 45.077604], [-93.970152, 45.077626], [-93.969959, 45.077682], [-93.969824, 45.077752], [-93.96966, 45.077857], [-93.969304, 45.078025], [-93.968956, 45.078118], [-93.968792, 45.078181], [-93.96858, 45.078279], [-93.968435, 45.078322], [-93.9683, 45.078371], [-93.968078, 45.078462], [-93.967915, 45.078581], [-93.96778, 45.078623], [-93.967624, 45.078611], [-93.967449, 45.078571], [-93.967284, 45.078593], [-93.967178, 45.078642], [-93.966995, 45.078747], [-93.966816, 45.078803], [-93.966175, 45.078802], [-93.965397, 45.078739], [-93.96496, 45.078702], [-93.964492, 45.078623], [-93.963956, 45.07849], [-93.963684, 45.078465], [-93.963441, 45.07846], [-93.963265, 45.078407], [-93.963108, 45.078305], [-93.962925, 45.078134], [-93.962798, 45.078087], [-93.962535, 45.078041], [-93.962311, 45.07796], [-93.961581, 45.077327], [-93.960891, 45.0767], [-93.960449, 45.076407], [-93.960199, 45.076265], [-93.960061, 45.076115], [-93.95994, 45.075854], [-93.959826, 45.075415], [-93.959705, 45.075161], [-93.959552, 45.074702], [-93.959437, 45.073953], [-93.959438, 45.073423], [-93.9596, 45.072665], [-93.959819, 45.072112], [-93.960006, 45.071684], [-93.960311, 45.071365], [-93.9608, 45.070982], [-93.961189, 45.070745], [-93.961374, 45.070723], [-93.961596, 45.070659], [-93.961769, 45.070582], [-93.961932, 45.070443], [-93.962299, 45.070323], [-93.963016, 45.070214], [-93.963113, 45.070241], [-93.963183, 45.070316], [-93.963233, 45.070446], [-93.963355, 45.070734], [-93.963483, 45.070877], [-93.963701, 45.071103], [-93.96391, 45.071397], [-93.964087, 45.071546], [-93.964557, 45.071783], [-93.964734, 45.071919], [-93.964933, 45.071945], [-93.965341, 45.071914], [-93.965699, 45.071877], [-93.966196, 45.071935], [-93.966546, 45.071959], [-93.966759, 45.071944], [-93.966904, 45.071887], [-93.967087, 45.071796], [-93.967299, 45.071719], [-93.967503, 45.071703], [-93.967657, 45.071668], [-93.967783, 45.071605], [-93.967897, 45.071494], [-93.968129, 45.071395], [-93.9684, 45.071359], [-93.968622, 45.071315], [-93.968806, 45.071231], [-93.968972, 45.071044], [-93.969306, 45.070697], [-93.969528, 45.070613], [-93.970097, 45.07036], [-93.970655, 45.070094], [-93.970982, 45.069864], [-93.971453, 45.069599], [-93.972021, 45.069332], [-93.972442, 45.069198], [-93.973118, 45.069013], [-93.973883, 45.068862], [-93.974514, 45.068857], [-93.975244, 45.068968], [-93.975819, 45.069121], [-93.976353, 45.069364], [-93.976794, 45.069643], [-93.977314, 45.069934], [-93.977686, 45.07011], [-93.978017, 45.070169], [-93.978709, 45.070335], [-93.979314, 45.070509], [-93.979793, 45.070663], [-93.980126, 45.07086], [-93.98045, 45.071036], [-93.980941, 45.071382], [-93.981472, 45.071749]]]}}, {"type": "Feature", "properties": {"depth_ft": 15.0, "lake": "Waverly Lake", "dow": "86011400"}, "geometry": {"type": "Polygon", "coordinates": [[[-93.98298, 45.075032], [-93.98279, 45.075288], [-93.982397, 45.075608], [-93.981946, 45.075922], [-93.981542, 45.076118], [-93.980996, 45.076308], [-93.980116, 45.076536], [-93.979294, 45.076729], [-93.978454, 45.077011], [-93.977058, 45.077422], [-93.976305, 45.077711], [-93.975456, 45.078007], [-93.974752, 45.078302], [-93.973789, 45.078813], [-93.973341, 45.078995], [-93.973138, 45.079073], [-93.972945, 45.07913], [-93.9725, 45.079202], [-93.972141, 45.07926], [-93.972014, 45.079193], [-93.971826, 45.079029], [-93.971552, 45.078866], [-93.971415, 45.078799], [-93.971248, 45.078704], [-93.971198, 45.078601], [-93.971225, 45.078504], [-93.971435, 45.078303], [-93.971638, 45.078198], [-93.971714, 45.078135], [-93.971664, 45.078046], [-93.971488, 45.077993], [-93.971147, 45.077899], [-93.970942, 45.077826], [-93.970794, 45.07771], [-93.970626, 45.077525], [-93.970459, 45.077437], [-93.970352, 45.077411], [-93.970158, 45.077419], [-93.969917, 45.077518], [-93.969696, 45.077692], [-93.969518, 45.077789], [-93.969209, 45.077882], [-93.968909, 45.077946], [-93.968716, 45.077996], [-93.968581, 45.078066], [-93.968002, 45.078291], [-93.967752, 45.078396], [-93.967655, 45.078418], [-93.967451, 45.078419], [-93.967218, 45.078456], [-93.966968, 45.078568], [-93.966755, 45.078611], [-93.965764, 45.078599], [-93.965273, 45.078555], [-93.964972, 45.078537], [-93.964699, 45.078491], [-93.964347, 45.078377], [-93.964075, 45.078338], [-93.963987, 45.078304], [-93.963801, 45.078251], [-93.963665, 45.078252], [-93.963462, 45.078254], [-93.963276, 45.0782], [-93.963119, 45.078078], [-93.96299, 45.077913], [-93.962921, 45.077852], [-93.962774, 45.077791], [-93.962579, 45.077759], [-93.962384, 45.077726], [-93.962178, 45.077604], [-93.961971, 45.077399], [-93.961851, 45.077166], [-93.961468, 45.076633], [-93.961252, 45.076476], [-93.960919, 45.076341], [-93.960665, 45.076247], [-93.960519, 45.0762], [-93.960438, 45.076029], [-93.960484, 45.075898], [-93.96051, 45.075684], [-93.960468, 45.075485], [-93.960267, 45.075115], [-93.960044, 45.074828], [-93.959748, 45.074549], [-93.959626, 45.074247], [-93.959554, 45.073979], [-93.959548, 45.073649], [-93.959599, 45.073167], [-93.959759, 45.072601], [-93.959944, 45.072042], [-93.960106, 45.071835], [-93.960488, 45.071501], [-93.960719, 45.071375], [-93.960989, 45.071215], [-93.961084, 45.071138], [-93.961368, 45.07095], [-93.9616, 45.070921], [-93.961822, 45.07085], [-93.961899, 45.070781], [-93.962004, 45.07069], [-93.962197, 45.070627], [-93.962837, 45.070539], [-93.963089, 45.070557], [-93.963217, 45.070646], [-93.963358, 45.070933], [-93.963506, 45.07109], [-93.963773, 45.071356], [-93.964276, 45.071806], [-93.96461, 45.072044], [-93.964785, 45.072077], [-93.965315, 45.072121], [-93.965801, 45.072138], [-93.966218, 45.07212], [-93.966432, 45.072139], [-93.966608, 45.072179], [-93.966783, 45.072198], [-93.966928, 45.072176], [-93.96711, 45.072058], [-93.967284, 45.071974], [-93.967545, 45.071923], [-93.967845, 45.071845], [-93.967921, 45.071769], [-93.968084, 45.071643], [-93.968238, 45.071566], [-93.968481, 45.071551], [-93.968665, 45.071522], [-93.96881, 45.071472], [-93.968972, 45.07134], [-93.969407, 45.070923], [-93.969551, 45.070812], [-93.969879, 45.070672], [-93.970534, 45.07035], [-93.971332, 45.069882], [-93.972092, 45.06949], [-93.97271, 45.069292], [-93.973682, 45.069077], [-93.974109, 45.069053], [-93.974585, 45.069063], [-93.975082, 45.069176], [-93.975648, 45.069322], [-93.976137, 45.069518], [-93.9765, 45.069742], [-93.976784, 45.069911], [-93.977059, 45.070053], [-93.977367, 45.070195], [-93.977748, 45.070316], [-93.978098, 45.070375], [-93.978948, 45.070649], [-93.979691, 45.070953], [-93.980298, 45.071243], [-93.98069, 45.071488], [-93.980966, 45.071719], [-93.981413, 45.072039], [-93.981943, 45.072365], [-93.982492, 45.072649], [-93.982892, 45.072769], [-93.983313, 45.072938], [-93.983519, 45.073067], [-93.983658, 45.073251], [-93.983673, 45.073574], [-93.983469, 45.074147], [-93.983197, 45.074686], [-93.98298, 45.075032]]]}}, {"type": "Feature", "properties": {"depth_ft": 20.0, "lake": "Waverly Lake", "dow": "86011400"}, "geometry": {"type": "Polygon", "coordinates": [[[-93.978021, 45.076926], [-93.977837, 45.076975], [-93.977523, 45.077061], [-93.977002, 45.077258], [-93.976577, 45.077433], [-93.976278, 45.077532], [-93.975438, 45.077794], [-93.974491, 45.078091], [-93.973724, 45.0784], [-93.973347, 45.078507], [-93.973027, 45.078523], [-93.972803, 45.078498], [-93.972539, 45.078362], [-93.97233, 45.078103], [-93.972231, 45.077993], [-93.972094, 45.077885], [-93.971918, 45.077845], [-93.971558, 45.07782], [-93.971188, 45.077768], [-93.970943, 45.07764], [-93.970746, 45.077462], [-93.970666, 45.077305], [-93.970587, 45.077244], [-93.970383, 45.077204], [-93.970286, 45.077239], [-93.970083, 45.077303], [-93.969862, 45.077429], [-93.969655, 45.077547], [-93.969404, 45.077639], [-93.969153, 45.077717], [-93.968892, 45.077767], [-93.96809, 45.078049], [-93.967714, 45.078197], [-93.967452, 45.07822], [-93.967297, 45.078242], [-93.967182, 45.078291], [-93.966873, 45.078445], [-93.966553, 45.078454], [-93.965372, 45.078409], [-93.964954, 45.078365], [-93.964535, 45.078286], [-93.964183, 45.078158], [-93.963803, 45.078044], [-93.963589, 45.078046], [-93.963366, 45.078034], [-93.963238, 45.077973], [-93.962953, 45.077735], [-93.962813, 45.077509], [-93.962744, 45.077427], [-93.962401, 45.077272], [-93.962283, 45.077156], [-93.962164, 45.07704], [-93.961958, 45.076642], [-93.961662, 45.076321], [-93.961406, 45.076131], [-93.961208, 45.075906], [-93.961073, 45.07537], [-93.960757, 45.074781], [-93.96057, 45.074604], [-93.960129, 45.074408], [-93.959923, 45.074272], [-93.959792, 45.073991], [-93.959746, 45.073544], [-93.959781, 45.073062], [-93.959871, 45.072621], [-93.959974, 45.072359], [-93.960231, 45.072068], [-93.960596, 45.071817], [-93.961009, 45.071586], [-93.961472, 45.071403], [-93.961805, 45.071249], [-93.9619, 45.071159], [-93.96218, 45.07106], [-93.962626, 45.071022], [-93.963112, 45.071011], [-93.963258, 45.071044], [-93.963613, 45.071378], [-93.963882, 45.071775], [-93.964128, 45.072], [-93.964588, 45.07221], [-93.964822, 45.072242], [-93.965712, 45.072324], [-93.966003, 45.072328], [-93.966372, 45.072339], [-93.966538, 45.072372], [-93.966772, 45.072405], [-93.966936, 45.072382], [-93.967176, 45.072215], [-93.967427, 45.072103], [-93.967795, 45.072052], [-93.96793, 45.072016], [-93.968055, 45.071912], [-93.968305, 45.0718], [-93.968577, 45.071804], [-93.968741, 45.071741], [-93.968885, 45.071643], [-93.969497, 45.071074], [-93.969762, 45.070941], [-93.970359, 45.070661], [-93.970888, 45.070374], [-93.971407, 45.070033], [-93.972023, 45.069725], [-93.972864, 45.069463], [-93.973555, 45.069313], [-93.974108, 45.069253], [-93.974671, 45.069275], [-93.975315, 45.069421], [-93.975725, 45.069583], [-93.976107, 45.069772], [-93.976569, 45.070078], [-93.976873, 45.070275], [-93.977176, 45.070403], [-93.978186, 45.07069], [-93.979094, 45.070985], [-93.979427, 45.071154], [-93.979878, 45.071371], [-93.980377, 45.071628], [-93.980683, 45.071894], [-93.981116, 45.072234], [-93.981583, 45.072567], [-93.981936, 45.072798], [-93.982642, 45.07317], [-93.982848, 45.073327], [-93.983006, 45.073477], [-93.983099, 45.073779], [-93.983153, 45.074095], [-93.983137, 45.074308], [-93.983, 45.07453], [-93.982368, 45.075037], [-93.982118, 45.075198], [-93.981985, 45.075357], [-93.981796, 45.075682], [-93.981538, 45.075891], [-93.981046, 45.076081], [-93.980263, 45.076308], [-93.979431, 45.076494], [-93.978832, 45.076692], [-93.978021, 45.076926]]]}}, {"type": "Feature", "properties": {"depth_ft": 30.0, "lake": "Waverly Lake", "dow": "86011400"}, "geometry": {"type": "Polygon", "coordinates": [[[-93.974577, 45.077141], [-93.974137, 45.077241], [-93.973827, 45.077285], [-93.973448, 45.077267], [-93.973078, 45.077229], [-93.97264, 45.077178], [-93.972261, 45.077147], [-93.972008, 45.077135], [-93.971881, 45.077102], [-93.971538, 45.076885], [-93.971333, 45.076818], [-93.970421, 45.076612], [-93.970266, 45.076606], [-93.970121, 45.076649], [-93.970016, 45.076788], [-93.969902, 45.076912], [-93.969748, 45.07701], [-93.969545, 45.07706], [-93.969254, 45.077083], [-93.968973, 45.077092], [-93.968769, 45.077128], [-93.968384, 45.07729], [-93.968095, 45.077451], [-93.967766, 45.077536], [-93.967388, 45.07756], [-93.966971, 45.077591], [-93.966264, 45.077693], [-93.965769, 45.077718], [-93.96522, 45.077709], [-93.964743, 45.077623], [-93.964303, 45.077469], [-93.964049, 45.077368], [-93.96394, 45.077279], [-93.963879, 45.077115], [-93.963881, 45.076612], [-93.963792, 45.076524], [-93.963645, 45.07647], [-93.963422, 45.076458], [-93.963236, 45.076418], [-93.963069, 45.076255], [-93.962892, 45.075871], [-93.962895, 45.075472], [-93.96293, 45.075203], [-93.963129, 45.074947], [-93.963447, 45.074765], [-93.963941, 45.074699], [-93.964243, 45.074758], [-93.964545, 45.074845], [-93.96475, 45.074864], [-93.964924, 45.074863], [-93.965145, 45.074716], [-93.965753, 45.07447], [-93.965993, 45.074317], [-93.966021, 45.074255], [-93.965941, 45.073801], [-93.965905, 45.073437], [-93.965922, 45.073279], [-93.966056, 45.073154], [-93.966511, 45.073088], [-93.967429, 45.072826], [-93.968703, 45.072347], [-93.969624, 45.071968], [-93.969904, 45.071869], [-93.970388, 45.071796], [-93.970697, 45.07169], [-93.971042, 45.071412], [-93.972151, 45.070969], [-93.9724, 45.070774], [-93.972993, 45.070494], [-93.973254, 45.070416], [-93.973457, 45.070414], [-93.973604, 45.070461], [-93.973839, 45.070604], [-93.974044, 45.070664], [-93.974278, 45.070696], [-93.974512, 45.070763], [-93.974728, 45.070878], [-93.974924, 45.071], [-93.97508, 45.071047], [-93.975225, 45.071032], [-93.975565, 45.071016], [-93.97612, 45.071128], [-93.976636, 45.071199], [-93.977228, 45.071194], [-93.977729, 45.071231], [-93.978226, 45.071323], [-93.978753, 45.071484], [-93.97938, 45.071829], [-93.979695, 45.072081], [-93.980034, 45.07256], [-93.980574, 45.073174], [-93.981007, 45.073535], [-93.981322, 45.073787], [-93.981434, 45.074068], [-93.981448, 45.074357], [-93.981357, 45.074688], [-93.980893, 45.075085], [-93.980163, 45.075552], [-93.979835, 45.075685], [-93.979389, 45.075737], [-93.979147, 45.07576], [-93.978424, 45.076069], [-93.977663, 45.076468], [-93.977026, 45.076686], [-93.976029, 45.076895], [-93.974577, 45.077141]]]}}, {"type": "Feature", "properties": {"depth_ft": 40.0, "lake": "Waverly Lake", "dow": "86011400"}, "geometry": {"type": "Polygon", "coordinates": [[[-93.977037, 45.07617], [-93.976244, 45.076384], [-93.975649, 45.076512], [-93.974855, 45.076643], [-93.973982, 45.076706], [-93.973807, 45.076707], [-93.973631, 45.07666], [-93.973484, 45.076552], [-93.973142, 45.076438], [-93.972849, 45.076323], [-93.972643, 45.076194], [-93.972436, 45.076003], [-93.972308, 45.075908], [-93.972171, 45.075882], [-93.972074, 45.075889], [-93.971838, 45.075967], [-93.971644, 45.075989], [-93.97144, 45.075977], [-93.971225, 45.07589], [-93.970961, 45.075796], [-93.970766, 45.075735], [-93.970522, 45.075669], [-93.970424, 45.075607], [-93.970305, 45.075485], [-93.970166, 45.075334], [-93.97, 45.075233], [-93.969873, 45.075199], [-93.969737, 45.0752], [-93.969514, 45.075223], [-93.969329, 45.075218], [-93.969154, 45.075178], [-93.968957, 45.075049], [-93.968898, 45.074981], [-93.968711, 45.074831], [-93.968555, 45.07477], [-93.968418, 45.074737], [-93.968253, 45.074725], [-93.968136, 45.074691], [-93.967999, 45.074637], [-93.967915, 45.074542], [-93.967893, 45.074404], [-93.967968, 45.074238], [-93.96833, 45.073836], [-93.968638, 45.073648], [-93.969671, 45.073323], [-93.97, 45.073251], [-93.970166, 45.073277], [-93.97038, 45.07331], [-93.970622, 45.07328], [-93.970825, 45.073203], [-93.971257, 45.072938], [-93.971664, 45.072604], [-93.971789, 45.07252], [-93.971993, 45.072512], [-93.972264, 45.072502], [-93.972449, 45.07248], [-93.972633, 45.072444], [-93.972759, 45.072436], [-93.972935, 45.07251], [-93.973111, 45.072585], [-93.973295, 45.07259], [-93.97344, 45.072561], [-93.973767, 45.072366], [-93.97421, 45.072149], [-93.974354, 45.072017], [-93.974496, 45.071843], [-93.97468, 45.071766], [-93.974903, 45.071771], [-93.975185, 45.071769], [-93.975484, 45.071677], [-93.975693, 45.071682], [-93.975937, 45.071735], [-93.97621, 45.071815], [-93.97686, 45.071816], [-93.977181, 45.071848], [-93.977365, 45.071798], [-93.97783, 45.07176], [-93.978268, 45.071797], [-93.978639, 45.071884], [-93.978932, 45.072005], [-93.979548, 45.07253], [-93.979855, 45.072871], [-93.980047, 45.07331], [-93.980185, 45.073467], [-93.980442, 45.073699], [-93.980502, 45.073822], [-93.980455, 45.073912], [-93.980379, 45.073988], [-93.980167, 45.0741], [-93.979994, 45.074198], [-93.979774, 45.074413], [-93.979556, 45.074724], [-93.979384, 45.074891], [-93.979048, 45.075128], [-93.97853, 45.075483], [-93.977962, 45.075798], [-93.977509, 45.075994], [-93.977037, 45.07617]]]}}, {"type": "Feature", "properties": {"depth_ft": 50.0, "lake": "Waverly Lake", "dow": "86011400"}, "geometry": {"type": "Polygon", "coordinates": [[[-93.97603, 45.075828], [-93.975584, 45.075846], [-93.975157, 45.075829], [-93.974924, 45.075865], [-93.974595, 45.075937], [-93.974478, 45.075903], [-93.974389, 45.075815], [-93.974465, 45.07569], [-93.974609, 45.075627], [-93.974773, 45.075543], [-93.974843, 45.075377], [-93.974818, 45.075054], [-93.974707, 45.074828], [-93.974282, 45.07437], [-93.974164, 45.074282], [-93.973998, 45.074215], [-93.973716, 45.074217], [-93.973251, 45.07429], [-93.972534, 45.074392], [-93.971963, 45.074459], [-93.971779, 45.074502], [-93.971325, 45.074678], [-93.970939, 45.074819], [-93.970619, 45.074849], [-93.970415, 45.074823], [-93.970093, 45.074723], [-93.969768, 45.074485], [-93.969598, 45.07419], [-93.969613, 45.073915], [-93.969796, 45.073796], [-93.970018, 45.07376], [-93.970291, 45.073799], [-93.970554, 45.073831], [-93.970854, 45.073808], [-93.971086, 45.07371], [-93.971292, 45.073543], [-93.971501, 45.073273], [-93.971769, 45.073064], [-93.971943, 45.073014], [-93.972147, 45.07304], [-93.972381, 45.073045], [-93.972555, 45.073002], [-93.972738, 45.072932], [-93.972922, 45.072917], [-93.973127, 45.072977], [-93.973351, 45.073016], [-93.973525, 45.072966], [-93.973863, 45.072867], [-93.974097, 45.07292], [-93.974381, 45.073028], [-93.974538, 45.073137], [-93.97457, 45.073295], [-93.974407, 45.073468], [-93.974275, 45.073689], [-93.974278, 45.073827], [-93.974341, 45.074102], [-93.974487, 45.074169], [-93.974642, 45.07414], [-93.974854, 45.074022], [-93.975534, 45.073754], [-93.975949, 45.073593], [-93.976062, 45.073406], [-93.976086, 45.073075], [-93.976138, 45.072738], [-93.976211, 45.072469], [-93.976441, 45.072295], [-93.976701, 45.072169], [-93.977118, 45.072124], [-93.977564, 45.072079], [-93.977932, 45.072], [-93.978214, 45.072025], [-93.978545, 45.072118], [-93.97884, 45.072295], [-93.979062, 45.072534], [-93.979221, 45.072739], [-93.979352, 45.073013], [-93.979386, 45.073274], [-93.979311, 45.073461], [-93.979167, 45.073572], [-93.979022, 45.073573], [-93.978692, 45.073603], [-93.978431, 45.073661], [-93.978287, 45.073765], [-93.978241, 45.073896], [-93.978199, 45.074309], [-93.978175, 45.074592], [-93.977994, 45.074827], [-93.977678, 45.075064], [-93.977507, 45.075272], [-93.977258, 45.07548], [-93.977037, 45.075599], [-93.97666, 45.075699], [-93.97603, 45.075828]]]}}, {"type": "Feature", "properties": {"depth_ft": 20.0, "lake": "Waverly Lake", "dow": "86011400"}, "geometry": {"type": "Polygon", "coordinates": [[[-93.963969, 45.072907], [-93.96339, 45.073605], [-93.963131, 45.073866], [-93.96297, 45.073983], [-93.962861, 45.073979], [-93.962774, 45.073908], [-93.962755, 45.073726], [-93.96293, 45.073483], [-93.96332, 45.073127], [-93.963727, 45.072826], [-93.963842, 45.072759], [-93.96392, 45.072753], [-93.963983, 45.072797], [-93.963969, 45.072907]]]}}]}